{"type":"FeatureCollection","features":[{"type":"Feature","properties":{"jobs":345,"pop":22,"pointCount":1,"homeWorkCommuteMedian":38283,"workHomeCommuteMedian":39580},"geometry":{"type":"Polygon","coordinates":[[[128.67088932543646,37.70553398181378],[128.67088932543646,37.714527185451026],[128.6798825290737,37.714527185451026],[128.6798825290737,37.70553398181378],[128.67088932543646,37.70553398181378]]]}},{"type":"Feature","properties":{"jobs":518,"pop":32,"pointCount":1,"homeWorkCommuteMedian":29506,"workHomeCommuteMedian":39613},"geometry":{"type":"Polygon","coordinates":[[[128.6798825290737,37.84043203637247],[128.6798825290737,37.849425240009715],[128.68887573271093,37.849425240009715],[128.68887573271093,37.84043203637247],[128.6798825290737,37.84043203637247]]]}},{"type":"Feature","properties":{"jobs":430,"pop":27,"pointCount":1,"homeWorkCommuteMedian":31037,"workHomeCommuteMedian":31080},"geometry":{"type":"Polygon","coordinates":[[[128.68887573271093,37.669561167264796],[128.68887573271093,37.67855437090204],[128.69786893634816,37.67855437090204],[128.69786893634816,37.669561167264796],[128.68887573271093,37.669561167264796]]]}},{"type":"Feature","properties":{"jobs":587,"pop":37,"pointCount":1,"homeWorkCommuteMedian":37504,"workHomeCommuteMedian":36127},"geometry":{"type":"Polygon","coordinates":[[[128.68887573271093,37.68754757453929],[128.68887573271093,37.696540778176534],[128.69786893634816,37.696540778176534],[128.69786893634816,37.68754757453929],[128.68887573271093,37.68754757453929]]]}},{"type":"Feature","properties":{"jobs":388,"pop":24,"pointCount":1,"homeWorkCommuteMedian":28776,"workHomeCommuteMedian":29459},"geometry":{"type":"Polygon","coordinates":[[[128.68887573271093,37.84043203637247],[128.68887573271093,37.849425240009715],[128.69786893634816,37.849425240009715],[128.69786893634816,37.84043203637247],[128.68887573271093,37.84043203637247]]]}},{"type":"Feature","properties":{"jobs":345,"pop":22,"pointCount":1,"homeWorkCommuteMedian":30706,"workHomeCommuteMedian":30769},"geometry":{"type":"Polygon","coordinates":[[[128.68887573271093,37.87640485092145],[128.68887573271093,37.8853980545587],[128.69786893634816,37.8853980545587],[128.69786893634816,37.87640485092145],[128.68887573271093,37.87640485092145]]]}},{"type":"Feature","properties":{"jobs":911,"pop":57,"pointCount":2,"homeWorkCommuteMedian":36751,"workHomeCommuteMedian":30779},"geometry":{"type":"Polygon","coordinates":[[[128.69786893634816,37.66056796362755],[128.69786893634816,37.669561167264796],[128.7068621399854,37.669561167264796],[128.7068621399854,37.66056796362755],[128.69786893634816,37.66056796362755]]]}},{"type":"Feature","properties":{"jobs":532,"pop":33,"pointCount":1,"homeWorkCommuteMedian":36504,"workHomeCommuteMedian":36504},"geometry":{"type":"Polygon","coordinates":[[[128.69786893634816,37.669561167264796],[128.69786893634816,37.67855437090204],[128.7068621399854,37.67855437090204],[128.7068621399854,37.669561167264796],[128.69786893634816,37.669561167264796]]]}},{"type":"Feature","properties":{"jobs":647,"pop":41,"pointCount":1,"homeWorkCommuteMedian":32323,"workHomeCommuteMedian":33006},"geometry":{"type":"Polygon","coordinates":[[[128.69786893634816,37.81345242546073],[128.69786893634816,37.82244562909798],[128.7068621399854,37.82244562909798],[128.7068621399854,37.81345242546073],[128.69786893634816,37.81345242546073]]]}},{"type":"Feature","properties":{"jobs":431,"pop":27,"pointCount":1,"homeWorkCommuteMedian":35609,"workHomeCommuteMedian":30832},"geometry":{"type":"Polygon","coordinates":[[[128.69786893634816,37.83143883273522],[128.69786893634816,37.84043203637247],[128.7068621399854,37.84043203637247],[128.7068621399854,37.83143883273522],[128.69786893634816,37.83143883273522]]]}},{"type":"Feature","properties":{"jobs":690,"pop":43,"pointCount":1,"homeWorkCommuteMedian":36363,"workHomeCommuteMedian":36363},"geometry":{"type":"Polygon","coordinates":[[[128.69786893634816,37.84043203637247],[128.69786893634816,37.849425240009715],[128.7068621399854,37.849425240009715],[128.7068621399854,37.84043203637247],[128.69786893634816,37.84043203637247]]]}},{"type":"Feature","properties":{"jobs":343,"pop":56,"pointCount":1,"homeWorkCommuteMedian":34803,"workHomeCommuteMedian":34803},"geometry":{"type":"Polygon","coordinates":[[[128.7068621399854,37.66056796362755],[128.7068621399854,37.669561167264796],[128.71585534362262,37.669561167264796],[128.71585534362262,37.66056796362755],[128.7068621399854,37.66056796362755]]]}},{"type":"Feature","properties":{"jobs":614,"pop":78,"pointCount":1,"homeWorkCommuteMedian":29925,"workHomeCommuteMedian":35195},"geometry":{"type":"Polygon","coordinates":[[[128.7068621399854,37.669561167264796],[128.7068621399854,37.67855437090204],[128.71585534362262,37.67855437090204],[128.71585534362262,37.669561167264796],[128.7068621399854,37.669561167264796]]]}},{"type":"Feature","properties":{"jobs":1338,"pop":278,"pointCount":1,"homeWorkCommuteMedian":25155,"workHomeCommuteMedian":29503},"geometry":{"type":"Polygon","coordinates":[[[128.7068621399854,37.85841844364696],[128.7068621399854,37.86741164728421],[128.71585534362262,37.86741164728421],[128.71585534362262,37.85841844364696],[128.7068621399854,37.85841844364696]]]}},{"type":"Feature","properties":{"jobs":604,"pop":60,"pointCount":1,"homeWorkCommuteMedian":26086,"workHomeCommuteMedian":26769},"geometry":{"type":"Polygon","coordinates":[[[128.71585534362262,37.84043203637247],[128.71585534362262,37.849425240009715],[128.72484854725985,37.849425240009715],[128.72484854725985,37.84043203637247],[128.71585534362262,37.84043203637247]]]}},{"type":"Feature","properties":{"jobs":777,"pop":69,"pointCount":1,"homeWorkCommuteMedian":33163,"workHomeCommuteMedian":27371},"geometry":{"type":"Polygon","coordinates":[[[128.72484854725985,37.84043203637247],[128.72484854725985,37.849425240009715],[128.73384175089708,37.849425240009715],[128.73384175089708,37.84043203637247],[128.72484854725985,37.84043203637247]]]}},{"type":"Feature","properties":{"jobs":2244,"pop":354,"pointCount":2,"homeWorkCommuteMedian":25489,"workHomeCommuteMedian":26361},"geometry":{"type":"Polygon","coordinates":[[[128.72484854725985,37.849425240009715],[128.72484854725985,37.85841844364696],[128.73384175089708,37.85841844364696],[128.73384175089708,37.849425240009715],[128.72484854725985,37.849425240009715]]]}},{"type":"Feature","properties":{"jobs":2462,"pop":643,"pointCount":2,"homeWorkCommuteMedian":18534,"workHomeCommuteMedian":18738},"geometry":{"type":"Polygon","coordinates":[[[128.81478058363217,37.86741164728421],[128.81478058363217,37.87640485092145],[128.8237737872694,37.87640485092145],[128.8237737872694,37.86741164728421],[128.81478058363217,37.86741164728421]]]}},{"type":"Feature","properties":{"jobs":5184,"pop":2325,"pointCount":2,"homeWorkCommuteMedian":19490,"workHomeCommuteMedian":18742},"geometry":{"type":"Polygon","coordinates":[[[128.81478058363217,37.87640485092145],[128.81478058363217,37.8853980545587],[128.8237737872694,37.8853980545587],[128.8237737872694,37.87640485092145],[128.81478058363217,37.87640485092145]]]}},{"type":"Feature","properties":{"jobs":5868,"pop":2230,"pointCount":3,"homeWorkCommuteMedian":19592,"workHomeCommuteMedian":19634},"geometry":{"type":"Polygon","coordinates":[[[128.81478058363217,37.8853980545587],[128.81478058363217,37.894391258195945],[128.8237737872694,37.894391258195945],[128.8237737872694,37.8853980545587],[128.81478058363217,37.8853980545587]]]}},{"type":"Feature","properties":{"jobs":321,"pop":20,"pointCount":1,"homeWorkCommuteMedian":11466,"workHomeCommuteMedian":11622},"geometry":{"type":"Polygon","coordinates":[[[128.8237737872694,37.70553398181378],[128.8237737872694,37.714527185451026],[128.83276699090663,37.714527185451026],[128.83276699090663,37.70553398181378],[128.8237737872694,37.70553398181378]]]}},{"type":"Feature","properties":{"jobs":2137,"pop":831,"pointCount":1,"homeWorkCommuteMedian":17829,"workHomeCommuteMedian":18141},"geometry":{"type":"Polygon","coordinates":[[[128.8237737872694,37.86741164728421],[128.8237737872694,37.87640485092145],[128.83276699090663,37.87640485092145],[128.83276699090663,37.86741164728421],[128.8237737872694,37.86741164728421]]]}},{"type":"Feature","properties":{"jobs":2432,"pop":440,"pointCount":2,"homeWorkCommuteMedian":20327,"workHomeCommuteMedian":19003},"geometry":{"type":"Polygon","coordinates":[[[128.8237737872694,37.87640485092145],[128.8237737872694,37.8853980545587],[128.83276699090663,37.8853980545587],[128.83276699090663,37.87640485092145],[128.8237737872694,37.87640485092145]]]}},{"type":"Feature","properties":{"jobs":2280,"pop":372,"pointCount":2,"homeWorkCommuteMedian":21405,"workHomeCommuteMedian":19262},"geometry":{"type":"Polygon","coordinates":[[[128.8237737872694,37.8853980545587],[128.8237737872694,37.894391258195945],[128.83276699090663,37.894391258195945],[128.83276699090663,37.8853980545587],[128.8237737872694,37.8853980545587]]]}},{"type":"Feature","properties":{"jobs":4038,"pop":992,"pointCount":4,"homeWorkCommuteMedian":20917,"workHomeCommuteMedian":20334},"geometry":{"type":"Polygon","coordinates":[[[128.8237737872694,37.894391258195945],[128.8237737872694,37.90338446183319],[128.83276699090663,37.90338446183319],[128.83276699090663,37.894391258195945],[128.8237737872694,37.894391258195945]]]}},{"type":"Feature","properties":{"jobs":1251,"pop":99,"pointCount":2,"homeWorkCommuteMedian":16508,"workHomeCommuteMedian":16839},"geometry":{"type":"Polygon","coordinates":[[[128.83276699090663,37.85841844364696],[128.83276699090663,37.86741164728421],[128.84176019454387,37.86741164728421],[128.84176019454387,37.85841844364696],[128.83276699090663,37.85841844364696]]]}},{"type":"Feature","properties":{"jobs":6162,"pop":3074,"pointCount":2,"homeWorkCommuteMedian":16229,"workHomeCommuteMedian":15831},"geometry":{"type":"Polygon","coordinates":[[[128.83276699090663,37.86741164728421],[128.83276699090663,37.87640485092145],[128.84176019454387,37.87640485092145],[128.84176019454387,37.86741164728421],[128.83276699090663,37.86741164728421]]]}},{"type":"Feature","properties":{"jobs":632,"pop":40,"pointCount":1,"homeWorkCommuteMedian":9539,"workHomeCommuteMedian":9566},"geometry":{"type":"Polygon","coordinates":[[[128.84176019454387,37.78647281454899],[128.84176019454387,37.79546601818624],[128.8507533981811,37.79546601818624],[128.8507533981811,37.78647281454899],[128.84176019454387,37.78647281454899]]]}},{"type":"Feature","properties":{"jobs":411,"pop":26,"pointCount":1,"homeWorkCommuteMedian":10124,"workHomeCommuteMedian":9977},"geometry":{"type":"Polygon","coordinates":[[[128.84176019454387,37.79546601818624],[128.84176019454387,37.804459221823485],[128.8507533981811,37.804459221823485],[128.8507533981811,37.79546601818624],[128.84176019454387,37.79546601818624]]]}},{"type":"Feature","properties":{"jobs":555,"pop":35,"pointCount":1,"homeWorkCommuteMedian":15336,"workHomeCommuteMedian":11142},"geometry":{"type":"Polygon","coordinates":[[[128.84176019454387,37.82244562909798],[128.84176019454387,37.83143883273522],[128.8507533981811,37.83143883273522],[128.8507533981811,37.82244562909798],[128.84176019454387,37.82244562909798]]]}},{"type":"Feature","properties":{"jobs":483,"pop":30,"pointCount":1,"homeWorkCommuteMedian":16325,"workHomeCommuteMedian":16325},"geometry":{"type":"Polygon","coordinates":[[[128.84176019454387,37.83143883273522],[128.84176019454387,37.84043203637247],[128.8507533981811,37.84043203637247],[128.8507533981811,37.83143883273522],[128.84176019454387,37.83143883273522]]]}},{"type":"Feature","properties":{"jobs":1831,"pop":120,"pointCount":3,"homeWorkCommuteMedian":10069,"workHomeCommuteMedian":11192},"geometry":{"type":"Polygon","coordinates":[[[128.8507533981811,37.81345242546073],[128.8507533981811,37.82244562909798],[128.85974660181833,37.82244562909798],[128.85974660181833,37.81345242546073],[128.8507533981811,37.81345242546073]]]}},{"type":"Feature","properties":{"jobs":354,"pop":22,"pointCount":1,"homeWorkCommuteMedian":13037,"workHomeCommuteMedian":16385},"geometry":{"type":"Polygon","coordinates":[[[128.8507533981811,37.83143883273522],[128.8507533981811,37.84043203637247],[128.85974660181833,37.84043203637247],[128.85974660181833,37.83143883273522],[128.8507533981811,37.83143883273522]]]}},{"type":"Feature","properties":{"jobs":492,"pop":31,"pointCount":1,"homeWorkCommuteMedian":7534,"workHomeCommuteMedian":7577},"geometry":{"type":"Polygon","coordinates":[[[128.85974660181833,37.714527185451026],[128.85974660181833,37.72352038908827],[128.86873980545556,37.72352038908827],[128.86873980545556,37.714527185451026],[128.85974660181833,37.714527185451026]]]}},{"type":"Feature","properties":{"jobs":12182,"pop":7104,"pointCount":3,"homeWorkCommuteMedian":8052,"workHomeCommuteMedian":7577},"geometry":{"type":"Polygon","coordinates":[[[128.85974660181833,37.73251359272552],[128.85974660181833,37.74150679636276],[128.86873980545556,37.74150679636276],[128.86873980545556,37.73251359272552],[128.85974660181833,37.73251359272552]]]}},{"type":"Feature","properties":{"jobs":1535,"pop":361,"pointCount":1,"homeWorkCommuteMedian":4691,"workHomeCommuteMedian":3949},"geometry":{"type":"Polygon","coordinates":[[[128.85974660181833,37.74150679636276],[128.85974660181833,37.75050000000001],[128.86873980545556,37.75050000000001],[128.86873980545556,37.74150679636276],[128.85974660181833,37.74150679636276]]]}},{"type":"Feature","properties":{"jobs":5374,"pop":4989,"pointCount":2,"homeWorkCommuteMedian":6305,"workHomeCommuteMedian":6666},"geometry":{"type":"Polygon","coordinates":[[[128.85974660181833,37.75050000000001],[128.85974660181833,37.759493203637255],[128.86873980545556,37.759493203637255],[128.86873980545556,37.75050000000001],[128.85974660181833,37.75050000000001]]]}},{"type":"Feature","properties":{"jobs":5136,"pop":2393,"pointCount":2,"homeWorkCommuteMedian":6463,"workHomeCommuteMedian":6574},"geometry":{"type":"Polygon","coordinates":[[[128.85974660181833,37.759493203637255],[128.85974660181833,37.7684864072745],[128.86873980545556,37.7684864072745],[128.86873980545556,37.759493203637255],[128.85974660181833,37.759493203637255]]]}},{"type":"Feature","properties":{"jobs":324,"pop":20,"pointCount":1,"homeWorkCommuteMedian":11425,"workHomeCommuteMedian":12371},"geometry":{"type":"Polygon","coordinates":[[[128.85974660181833,37.81345242546073],[128.85974660181833,37.82244562909798],[128.86873980545556,37.82244562909798],[128.86873980545556,37.81345242546073],[128.85974660181833,37.81345242546073]]]}},{"type":"Feature","properties":{"jobs":1130,"pop":71,"pointCount":2,"homeWorkCommuteMedian":8415,"workHomeCommuteMedian":9408},"geometry":{"type":"Polygon","coordinates":[[[128.86873980545556,37.70553398181378],[128.86873980545556,37.714527185451026],[128.8777330090928,37.714527185451026],[128.8777330090928,37.70553398181378],[128.86873980545556,37.70553398181378]]]}},{"type":"Feature","properties":{"jobs":332,"pop":21,"pointCount":1,"homeWorkCommuteMedian":6585,"workHomeCommuteMedian":6627},"geometry":{"type":"Polygon","coordinates":[[[128.86873980545556,37.714527185451026],[128.86873980545556,37.72352038908827],[128.8777330090928,37.72352038908827],[128.8777330090928,37.714527185451026],[128.86873980545556,37.714527185451026]]]}},{"type":"Feature","properties":{"jobs":1297,"pop":216,"pointCount":1,"homeWorkCommuteMedian":5258,"workHomeCommuteMedian":5455},"geometry":{"type":"Polygon","coordinates":[[[128.86873980545556,37.72352038908827],[128.86873980545556,37.73251359272552],[128.8777330090928,37.73251359272552],[128.8777330090928,37.72352038908827],[128.86873980545556,37.72352038908827]]]}},{"type":"Feature","properties":{"jobs":11770,"pop":4991,"pointCount":4,"homeWorkCommuteMedian":5438,"workHomeCommuteMedian":5144},"geometry":{"type":"Polygon","coordinates":[[[128.86873980545556,37.73251359272552],[128.86873980545556,37.74150679636276],[128.8777330090928,37.74150679636276],[128.8777330090928,37.73251359272552],[128.86873980545556,37.73251359272552]]]}},{"type":"Feature","properties":{"jobs":502,"pop":31,"pointCount":1,"homeWorkCommuteMedian":6993,"workHomeCommuteMedian":6993},"geometry":{"type":"Polygon","coordinates":[[[128.86873980545556,37.75050000000001],[128.86873980545556,37.759493203637255],[128.8777330090928,37.759493203637255],[128.8777330090928,37.75050000000001],[128.86873980545556,37.75050000000001]]]}},{"type":"Feature","properties":{"jobs":17550,"pop":6871,"pointCount":5,"homeWorkCommuteMedian":5920,"workHomeCommuteMedian":5497},"geometry":{"type":"Polygon","coordinates":[[[128.86873980545556,37.759493203637255],[128.86873980545556,37.7684864072745],[128.8777330090928,37.7684864072745],[128.8777330090928,37.759493203637255],[128.86873980545556,37.759493203637255]]]}},{"type":"Feature","properties":{"jobs":6019,"pop":1773,"pointCount":4,"homeWorkCommuteMedian":5099,"workHomeCommuteMedian":5424},"geometry":{"type":"Polygon","coordinates":[[[128.86873980545556,37.7684864072745],[128.86873980545556,37.77747961091175],[128.8777330090928,37.77747961091175],[128.8777330090928,37.7684864072745],[128.86873980545556,37.7684864072745]]]}},{"type":"Feature","properties":{"jobs":2304,"pop":912,"pointCount":1,"homeWorkCommuteMedian":5637,"workHomeCommuteMedian":6078},"geometry":{"type":"Polygon","coordinates":[[[128.86873980545556,37.77747961091175],[128.86873980545556,37.78647281454899],[128.8777330090928,37.78647281454899],[128.8777330090928,37.77747961091175],[128.86873980545556,37.77747961091175]]]}},{"type":"Feature","properties":{"jobs":832,"pop":244,"pointCount":2,"homeWorkCommuteMedian":6316,"workHomeCommuteMedian":6315},"geometry":{"type":"Polygon","coordinates":[[[128.86873980545556,37.78647281454899],[128.86873980545556,37.79546601818624],[128.8777330090928,37.79546601818624],[128.8777330090928,37.78647281454899],[128.86873980545556,37.78647281454899]]]}},{"type":"Feature","properties":{"jobs":5504,"pop":2787,"pointCount":2,"homeWorkCommuteMedian":11759,"workHomeCommuteMedian":11650},"geometry":{"type":"Polygon","coordinates":[[[128.86873980545556,37.83143883273522],[128.86873980545556,37.84043203637247],[128.8777330090928,37.84043203637247],[128.8777330090928,37.83143883273522],[128.86873980545556,37.83143883273522]]]}},{"type":"Feature","properties":{"jobs":432,"pop":27,"pointCount":1,"homeWorkCommuteMedian":15352,"workHomeCommuteMedian":14458},"geometry":{"type":"Polygon","coordinates":[[[128.86873980545556,37.84043203637247],[128.86873980545556,37.849425240009715],[128.8777330090928,37.849425240009715],[128.8777330090928,37.84043203637247],[128.86873980545556,37.84043203637247]]]}},{"type":"Feature","properties":{"jobs":326,"pop":20,"pointCount":1,"homeWorkCommuteMedian":7801,"workHomeCommuteMedian":7844},"geometry":{"type":"Polygon","coordinates":[[[128.8777330090928,37.70553398181378],[128.8777330090928,37.714527185451026],[128.88672621273003,37.714527185451026],[128.88672621273003,37.70553398181378],[128.8777330090928,37.70553398181378]]]}},{"type":"Feature","properties":{"jobs":1051,"pop":86,"pointCount":1,"homeWorkCommuteMedian":7199,"workHomeCommuteMedian":5397},"geometry":{"type":"Polygon","coordinates":[[[128.8777330090928,37.72352038908827],[128.8777330090928,37.73251359272552],[128.88672621273003,37.73251359272552],[128.88672621273003,37.72352038908827],[128.8777330090928,37.72352038908827]]]}},{"type":"Feature","properties":{"jobs":9288,"pop":4667,"pointCount":4,"homeWorkCommuteMedian":5213,"workHomeCommuteMedian":4875},"geometry":{"type":"Polygon","coordinates":[[[128.8777330090928,37.73251359272552],[128.8777330090928,37.74150679636276],[128.88672621273003,37.74150679636276],[128.88672621273003,37.73251359272552],[128.8777330090928,37.73251359272552]]]}},{"type":"Feature","properties":{"jobs":4453,"pop":2067,"pointCount":2,"homeWorkCommuteMedian":4432,"workHomeCommuteMedian":5103},"geometry":{"type":"Polygon","coordinates":[[[128.8777330090928,37.74150679636276],[128.8777330090928,37.75050000000001],[128.88672621273003,37.75050000000001],[128.88672621273003,37.74150679636276],[128.8777330090928,37.74150679636276]]]}},{"type":"Feature","properties":{"jobs":3641,"pop":1233,"pointCount":2,"homeWorkCommuteMedian":4860,"workHomeCommuteMedian":5218},"geometry":{"type":"Polygon","coordinates":[[[128.8777330090928,37.75050000000001],[128.8777330090928,37.759493203637255],[128.88672621273003,37.759493203637255],[128.88672621273003,37.75050000000001],[128.8777330090928,37.75050000000001]]]}},{"type":"Feature","properties":{"jobs":14765,"pop":6499,"pointCount":4,"homeWorkCommuteMedian":4329,"workHomeCommuteMedian":4349},"geometry":{"type":"Polygon","coordinates":[[[128.8777330090928,37.759493203637255],[128.8777330090928,37.7684864072745],[128.88672621273003,37.7684864072745],[128.88672621273003,37.759493203637255],[128.8777330090928,37.759493203637255]]]}},{"type":"Feature","properties":{"jobs":10277,"pop":4828,"pointCount":2,"homeWorkCommuteMedian":4964,"workHomeCommuteMedian":4996},"geometry":{"type":"Polygon","coordinates":[[[128.8777330090928,37.7684864072745],[128.8777330090928,37.77747961091175],[128.88672621273003,37.77747961091175],[128.88672621273003,37.7684864072745],[128.8777330090928,37.7684864072745]]]}},{"type":"Feature","properties":{"jobs":873,"pop":55,"pointCount":2,"homeWorkCommuteMedian":7564,"workHomeCommuteMedian":7199},"geometry":{"type":"Polygon","coordinates":[[[128.8777330090928,37.77747961091175],[128.8777330090928,37.78647281454899],[128.88672621273003,37.78647281454899],[128.88672621273003,37.77747961091175],[128.8777330090928,37.77747961091175]]]}},{"type":"Feature","properties":{"jobs":350,"pop":43,"pointCount":1,"homeWorkCommuteMedian":17634,"workHomeCommuteMedian":10012},"geometry":{"type":"Polygon","coordinates":[[[128.88672621273003,37.68754757453929],[128.88672621273003,37.696540778176534],[128.89571941636726,37.696540778176534],[128.89571941636726,37.68754757453929],[128.88672621273003,37.68754757453929]]]}},{"type":"Feature","properties":{"jobs":553,"pop":35,"pointCount":1,"homeWorkCommuteMedian":9714,"workHomeCommuteMedian":9475},"geometry":{"type":"Polygon","coordinates":[[[128.88672621273003,37.696540778176534],[128.88672621273003,37.70553398181378],[128.89571941636726,37.70553398181378],[128.89571941636726,37.696540778176534],[128.88672621273003,37.696540778176534]]]}},{"type":"Feature","properties":{"jobs":357,"pop":22,"pointCount":1,"homeWorkCommuteMedian":5639,"workHomeCommuteMedian":5681},"geometry":{"type":"Polygon","coordinates":[[[128.88672621273003,37.714527185451026],[128.88672621273003,37.72352038908827],[128.89571941636726,37.72352038908827],[128.89571941636726,37.714527185451026],[128.88672621273003,37.714527185451026]]]}},{"type":"Feature","properties":{"jobs":2512,"pop":799,"pointCount":2,"homeWorkCommuteMedian":4004,"workHomeCommuteMedian":4077},"geometry":{"type":"Polygon","coordinates":[[[128.88672621273003,37.73251359272552],[128.88672621273003,37.74150679636276],[128.89571941636726,37.74150679636276],[128.89571941636726,37.73251359272552],[128.88672621273003,37.73251359272552]]]}},{"type":"Feature","properties":{"jobs":647,"pop":39,"pointCount":2,"homeWorkCommuteMedian":3812,"workHomeCommuteMedian":3854},"geometry":{"type":"Polygon","coordinates":[[[128.88672621273003,37.74150679636276],[128.88672621273003,37.75050000000001],[128.89571941636726,37.75050000000001],[128.89571941636726,37.74150679636276],[128.88672621273003,37.74150679636276]]]}},{"type":"Feature","properties":{"jobs":795,"pop":2889,"pointCount":2,"homeWorkCommuteMedian":3219,"workHomeCommuteMedian":4895},"geometry":{"type":"Polygon","coordinates":[[[128.88672621273003,37.75050000000001],[128.88672621273003,37.759493203637255],[128.89571941636726,37.759493203637255],[128.89571941636726,37.75050000000001],[128.88672621273003,37.75050000000001]]]}},{"type":"Feature","properties":{"jobs":12849,"pop":5654,"pointCount":3,"homeWorkCommuteMedian":3829,"workHomeCommuteMedian":4010},"geometry":{"type":"Polygon","coordinates":[[[128.88672621273003,37.759493203637255],[128.88672621273003,37.7684864072745],[128.89571941636726,37.7684864072745],[128.89571941636726,37.759493203637255],[128.88672621273003,37.759493203637255]]]}},{"type":"Feature","properties":{"jobs":9434,"pop":4678,"pointCount":3,"homeWorkCommuteMedian":3946,"workHomeCommuteMedian":4195},"geometry":{"type":"Polygon","coordinates":[[[128.88672621273003,37.7684864072745],[128.88672621273003,37.77747961091175],[128.89571941636726,37.77747961091175],[128.89571941636726,37.7684864072745],[128.88672621273003,37.7684864072745]]]}},{"type":"Feature","properties":{"jobs":976,"pop":61,"pointCount":2,"homeWorkCommuteMedian":6645,"workHomeCommuteMedian":6660},"geometry":{"type":"Polygon","coordinates":[[[128.88672621273003,37.79546601818624],[128.88672621273003,37.804459221823485],[128.89571941636726,37.804459221823485],[128.89571941636726,37.79546601818624],[128.88672621273003,37.79546601818624]]]}},{"type":"Feature","properties":{"jobs":2497,"pop":180,"pointCount":4,"homeWorkCommuteMedian":6015,"workHomeCommuteMedian":5814},"geometry":{"type":"Polygon","coordinates":[[[128.89571941636726,37.714527185451026],[128.89571941636726,37.72352038908827],[128.9047126200045,37.72352038908827],[128.9047126200045,37.714527185451026],[128.89571941636726,37.714527185451026]]]}},{"type":"Feature","properties":{"jobs":1516,"pop":186,"pointCount":2,"homeWorkCommuteMedian":4449,"workHomeCommuteMedian":4927},"geometry":{"type":"Polygon","coordinates":[[[128.89571941636726,37.72352038908827],[128.89571941636726,37.73251359272552],[128.9047126200045,37.73251359272552],[128.9047126200045,37.72352038908827],[128.89571941636726,37.72352038908827]]]}},{"type":"Feature","properties":{"jobs":2573,"pop":715,"pointCount":2,"homeWorkCommuteMedian":5318,"workHomeCommuteMedian":4964},"geometry":{"type":"Polygon","coordinates":[[[128.89571941636726,37.73251359272552],[128.89571941636726,37.74150679636276],[128.9047126200045,37.74150679636276],[128.9047126200045,37.73251359272552],[128.89571941636726,37.73251359272552]]]}},{"type":"Feature","properties":{"jobs":1623,"pop":102,"pointCount":3,"homeWorkCommuteMedian":3011,"workHomeCommuteMedian":2883},"geometry":{"type":"Polygon","coordinates":[[[128.89571941636726,37.74150679636276],[128.89571941636726,37.75050000000001],[128.9047126200045,37.75050000000001],[128.9047126200045,37.74150679636276],[128.89571941636726,37.74150679636276]]]}},{"type":"Feature","properties":{"jobs":21,"pop":0,"pointCount":1,"homeWorkCommuteMedian":-1,"workHomeCommuteMedian":1160},"geometry":{"type":"Polygon","coordinates":[[[128.89571941636726,37.75050000000001],[128.89571941636726,37.759493203637255],[128.9047126200045,37.759493203637255],[128.9047126200045,37.75050000000001],[128.89571941636726,37.75050000000001]]]}},{"type":"Feature","properties":{"jobs":2378,"pop":173,"pointCount":4,"homeWorkCommuteMedian":2794,"workHomeCommuteMedian":3565},"geometry":{"type":"Polygon","coordinates":[[[128.89571941636726,37.759493203637255],[128.89571941636726,37.7684864072745],[128.9047126200045,37.7684864072745],[128.9047126200045,37.759493203637255],[128.89571941636726,37.759493203637255]]]}},{"type":"Feature","properties":{"jobs":7989,"pop":3946,"pointCount":3,"homeWorkCommuteMedian":3964,"workHomeCommuteMedian":3935},"geometry":{"type":"Polygon","coordinates":[[[128.89571941636726,37.7684864072745],[128.89571941636726,37.77747961091175],[128.9047126200045,37.77747961091175],[128.9047126200045,37.7684864072745],[128.89571941636726,37.7684864072745]]]}},{"type":"Feature","properties":{"jobs":420,"pop":26,"pointCount":1,"homeWorkCommuteMedian":3858,"workHomeCommuteMedian":3847},"geometry":{"type":"Polygon","coordinates":[[[128.89571941636726,37.77747961091175],[128.89571941636726,37.78647281454899],[128.9047126200045,37.78647281454899],[128.9047126200045,37.77747961091175],[128.89571941636726,37.77747961091175]]]}},{"type":"Feature","properties":{"jobs":1794,"pop":628,"pointCount":1,"homeWorkCommuteMedian":7199,"workHomeCommuteMedian":7101},"geometry":{"type":"Polygon","coordinates":[[[128.89571941636726,37.79546601818624],[128.89571941636726,37.804459221823485],[128.9047126200045,37.804459221823485],[128.9047126200045,37.79546601818624],[128.89571941636726,37.79546601818624]]]}},{"type":"Feature","properties":{"jobs":678,"pop":43,"pointCount":1,"homeWorkCommuteMedian":7818,"workHomeCommuteMedian":7818},"geometry":{"type":"Polygon","coordinates":[[[128.9047126200045,37.696540778176534],[128.9047126200045,37.70553398181378],[128.91370582364172,37.70553398181378],[128.91370582364172,37.696540778176534],[128.9047126200045,37.696540778176534]]]}},{"type":"Feature","properties":{"jobs":392,"pop":25,"pointCount":1,"homeWorkCommuteMedian":6566,"workHomeCommuteMedian":6634},"geometry":{"type":"Polygon","coordinates":[[[128.9047126200045,37.70553398181378],[128.9047126200045,37.714527185451026],[128.91370582364172,37.714527185451026],[128.91370582364172,37.70553398181378],[128.9047126200045,37.70553398181378]]]}},{"type":"Feature","properties":{"jobs":749,"pop":47,"pointCount":1,"homeWorkCommuteMedian":5325,"workHomeCommuteMedian":5069},"geometry":{"type":"Polygon","coordinates":[[[128.9047126200045,37.714527185451026],[128.9047126200045,37.72352038908827],[128.91370582364172,37.72352038908827],[128.91370582364172,37.714527185451026],[128.9047126200045,37.714527185451026]]]}},{"type":"Feature","properties":{"jobs":1838,"pop":351,"pointCount":2,"homeWorkCommuteMedian":6309,"workHomeCommuteMedian":6447},"geometry":{"type":"Polygon","coordinates":[[[128.9047126200045,37.72352038908827],[128.9047126200045,37.73251359272552],[128.91370582364172,37.73251359272552],[128.91370582364172,37.72352038908827],[128.9047126200045,37.72352038908827]]]}},{"type":"Feature","properties":{"jobs":7691,"pop":3180,"pointCount":4,"homeWorkCommuteMedian":4920,"workHomeCommuteMedian":4803},"geometry":{"type":"Polygon","coordinates":[[[128.9047126200045,37.73251359272552],[128.9047126200045,37.74150679636276],[128.91370582364172,37.74150679636276],[128.91370582364172,37.73251359272552],[128.9047126200045,37.73251359272552]]]}},{"type":"Feature","properties":{"jobs":1558,"pop":119,"pointCount":2,"homeWorkCommuteMedian":2457,"workHomeCommuteMedian":2449},"geometry":{"type":"Polygon","coordinates":[[[128.9047126200045,37.74150679636276],[128.9047126200045,37.75050000000001],[128.91370582364172,37.75050000000001],[128.91370582364172,37.74150679636276],[128.9047126200045,37.74150679636276]]]}},{"type":"Feature","properties":{"jobs":4970,"pop":1949,"pointCount":3,"homeWorkCommuteMedian":3515,"workHomeCommuteMedian":3763},"geometry":{"type":"Polygon","coordinates":[[[128.9047126200045,37.759493203637255],[128.9047126200045,37.7684864072745],[128.91370582364172,37.7684864072745],[128.91370582364172,37.759493203637255],[128.9047126200045,37.759493203637255]]]}},{"type":"Feature","properties":{"jobs":13970,"pop":6639,"pointCount":5,"homeWorkCommuteMedian":4261,"workHomeCommuteMedian":4238},"geometry":{"type":"Polygon","coordinates":[[[128.9047126200045,37.7684864072745],[128.9047126200045,37.77747961091175],[128.91370582364172,37.77747961091175],[128.91370582364172,37.7684864072745],[128.9047126200045,37.7684864072745]]]}},{"type":"Feature","properties":{"jobs":9874,"pop":5404,"pointCount":2,"homeWorkCommuteMedian":5924,"workHomeCommuteMedian":5932},"geometry":{"type":"Polygon","coordinates":[[[128.9047126200045,37.77747961091175],[128.9047126200045,37.78647281454899],[128.91370582364172,37.78647281454899],[128.91370582364172,37.77747961091175],[128.9047126200045,37.77747961091175]]]}},{"type":"Feature","properties":{"jobs":1148,"pop":165,"pointCount":1,"homeWorkCommuteMedian":4946,"workHomeCommuteMedian":4923},"geometry":{"type":"Polygon","coordinates":[[[128.9047126200045,37.78647281454899],[128.9047126200045,37.79546601818624],[128.91370582364172,37.79546601818624],[128.91370582364172,37.78647281454899],[128.9047126200045,37.78647281454899]]]}},{"type":"Feature","properties":{"jobs":339,"pop":21,"pointCount":1,"homeWorkCommuteMedian":6540,"workHomeCommuteMedian":7724},"geometry":{"type":"Polygon","coordinates":[[[128.91370582364172,37.696540778176534],[128.91370582364172,37.70553398181378],[128.92269902727895,37.70553398181378],[128.92269902727895,37.696540778176534],[128.91370582364172,37.696540778176534]]]}},{"type":"Feature","properties":{"jobs":410,"pop":26,"pointCount":1,"homeWorkCommuteMedian":6046,"workHomeCommuteMedian":6114},"geometry":{"type":"Polygon","coordinates":[[[128.91370582364172,37.70553398181378],[128.91370582364172,37.714527185451026],[128.92269902727895,37.714527185451026],[128.92269902727895,37.70553398181378],[128.91370582364172,37.70553398181378]]]}},{"type":"Feature","properties":{"jobs":928,"pop":82,"pointCount":1,"homeWorkCommuteMedian":7143,"workHomeCommuteMedian":7048},"geometry":{"type":"Polygon","coordinates":[[[128.91370582364172,37.714527185451026],[128.91370582364172,37.72352038908827],[128.92269902727895,37.72352038908827],[128.92269902727895,37.714527185451026],[128.91370582364172,37.714527185451026]]]}},{"type":"Feature","properties":{"jobs":3408,"pop":1352,"pointCount":2,"homeWorkCommuteMedian":7433,"workHomeCommuteMedian":7131},"geometry":{"type":"Polygon","coordinates":[[[128.91370582364172,37.72352038908827],[128.91370582364172,37.73251359272552],[128.92269902727895,37.73251359272552],[128.92269902727895,37.72352038908827],[128.91370582364172,37.72352038908827]]]}},{"type":"Feature","properties":{"jobs":464,"pop":29,"pointCount":1,"homeWorkCommuteMedian":1961,"workHomeCommuteMedian":1997},"geometry":{"type":"Polygon","coordinates":[[[128.91370582364172,37.73251359272552],[128.91370582364172,37.74150679636276],[128.92269902727895,37.74150679636276],[128.92269902727895,37.73251359272552],[128.91370582364172,37.73251359272552]]]}},{"type":"Feature","properties":{"jobs":7940,"pop":3423,"pointCount":3,"homeWorkCommuteMedian":4993,"workHomeCommuteMedian":5090},"geometry":{"type":"Polygon","coordinates":[[[128.91370582364172,37.74150679636276],[128.91370582364172,37.75050000000001],[128.92269902727895,37.75050000000001],[128.92269902727895,37.74150679636276],[128.91370582364172,37.74150679636276]]]}},{"type":"Feature","properties":{"jobs":29224,"pop":20042,"pointCount":2,"homeWorkCommuteMedian":6447,"workHomeCommuteMedian":6254},"geometry":{"type":"Polygon","coordinates":[[[128.91370582364172,37.75050000000001],[128.91370582364172,37.759493203637255],[128.92269902727895,37.759493203637255],[128.92269902727895,37.75050000000001],[128.91370582364172,37.75050000000001]]]}},{"type":"Feature","properties":{"jobs":2662,"pop":625,"pointCount":2,"homeWorkCommuteMedian":4342,"workHomeCommuteMedian":5090},"geometry":{"type":"Polygon","coordinates":[[[128.91370582364172,37.759493203637255],[128.91370582364172,37.7684864072745],[128.92269902727895,37.7684864072745],[128.92269902727895,37.759493203637255],[128.91370582364172,37.759493203637255]]]}},{"type":"Feature","properties":{"jobs":1256,"pop":1452,"pointCount":1,"homeWorkCommuteMedian":4691,"workHomeCommuteMedian":4946},"geometry":{"type":"Polygon","coordinates":[[[128.91370582364172,37.7684864072745],[128.91370582364172,37.77747961091175],[128.92269902727895,37.77747961091175],[128.92269902727895,37.7684864072745],[128.91370582364172,37.7684864072745]]]}},{"type":"Feature","properties":{"jobs":5805,"pop":2602,"pointCount":2,"homeWorkCommuteMedian":5766,"workHomeCommuteMedian":5137},"geometry":{"type":"Polygon","coordinates":[[[128.91370582364172,37.77747961091175],[128.91370582364172,37.78647281454899],[128.92269902727895,37.78647281454899],[128.92269902727895,37.77747961091175],[128.91370582364172,37.77747961091175]]]}},{"type":"Feature","properties":{"jobs":321,"pop":20,"pointCount":1,"homeWorkCommuteMedian":8155,"workHomeCommuteMedian":8223},"geometry":{"type":"Polygon","coordinates":[[[128.92269902727895,37.696540778176534],[128.92269902727895,37.70553398181378],[128.93169223091618,37.70553398181378],[128.93169223091618,37.696540778176534],[128.92269902727895,37.696540778176534]]]}},{"type":"Feature","properties":{"jobs":339,"pop":21,"pointCount":1,"homeWorkCommuteMedian":5637,"workHomeCommuteMedian":5594},"geometry":{"type":"Polygon","coordinates":[[[128.92269902727895,37.714527185451026],[128.92269902727895,37.72352038908827],[128.93169223091618,37.72352038908827],[128.93169223091618,37.714527185451026],[128.92269902727895,37.714527185451026]]]}},{"type":"Feature","properties":{"jobs":6024,"pop":2348,"pointCount":3,"homeWorkCommuteMedian":5374,"workHomeCommuteMedian":5274},"geometry":{"type":"Polygon","coordinates":[[[128.92269902727895,37.7684864072745],[128.92269902727895,37.77747961091175],[128.93169223091618,37.77747961091175],[128.93169223091618,37.7684864072745],[128.92269902727895,37.7684864072745]]]}},{"type":"Feature","properties":{"jobs":1121,"pop":867,"pointCount":1,"homeWorkCommuteMedian":9426,"workHomeCommuteMedian":5766},"geometry":{"type":"Polygon","coordinates":[[[128.92269902727895,37.77747961091175],[128.92269902727895,37.78647281454899],[128.93169223091618,37.78647281454899],[128.93169223091618,37.77747961091175],[128.92269902727895,37.77747961091175]]]}},{"type":"Feature","properties":{"jobs":1017,"pop":110,"pointCount":1,"homeWorkCommuteMedian":14096,"workHomeCommuteMedian":14089},"geometry":{"type":"Polygon","coordinates":[[[128.93169223091618,37.696540778176534],[128.93169223091618,37.70553398181378],[128.94068543455342,37.70553398181378],[128.94068543455342,37.696540778176534],[128.93169223091618,37.696540778176534]]]}},{"type":"Feature","properties":{"jobs":1303,"pop":82,"pointCount":2,"homeWorkCommuteMedian":5108,"workHomeCommuteMedian":5458},"geometry":{"type":"Polygon","coordinates":[[[128.93169223091618,37.72352038908827],[128.93169223091618,37.73251359272552],[128.94068543455342,37.73251359272552],[128.94068543455342,37.72352038908827],[128.93169223091618,37.72352038908827]]]}},{"type":"Feature","properties":{"jobs":840,"pop":22,"pointCount":1,"homeWorkCommuteMedian":7846,"workHomeCommuteMedian":11908},"geometry":{"type":"Polygon","coordinates":[[[128.93169223091618,37.73251359272552],[128.93169223091618,37.74150679636276],[128.94068543455342,37.74150679636276],[128.94068543455342,37.73251359272552],[128.93169223091618,37.73251359272552]]]}},{"type":"Feature","properties":{"jobs":217,"pop":199,"pointCount":1,"homeWorkCommuteMedian":7867,"workHomeCommuteMedian":-1},"geometry":{"type":"Polygon","coordinates":[[[128.93169223091618,37.75050000000001],[128.93169223091618,37.759493203637255],[128.94068543455342,37.759493203637255],[128.94068543455342,37.75050000000001],[128.93169223091618,37.75050000000001]]]}},{"type":"Feature","properties":{"jobs":2324,"pop":765,"pointCount":1,"homeWorkCommuteMedian":6944,"workHomeCommuteMedian":6664},"geometry":{"type":"Polygon","coordinates":[[[128.93169223091618,37.759493203637255],[128.93169223091618,37.7684864072745],[128.94068543455342,37.7684864072745],[128.94068543455342,37.759493203637255],[128.93169223091618,37.759493203637255]]]}},{"type":"Feature","properties":{"jobs":7919,"pop":4173,"pointCount":2,"homeWorkCommuteMedian":6857,"workHomeCommuteMedian":6322},"geometry":{"type":"Polygon","coordinates":[[[128.93169223091618,37.7684864072745],[128.93169223091618,37.77747961091175],[128.94068543455342,37.77747961091175],[128.94068543455342,37.7684864072745],[128.93169223091618,37.7684864072745]]]}},{"type":"Feature","properties":{"jobs":489,"pop":31,"pointCount":1,"homeWorkCommuteMedian":4077,"workHomeCommuteMedian":4481},"geometry":{"type":"Polygon","coordinates":[[[128.93169223091618,37.77747961091175],[128.93169223091618,37.78647281454899],[128.94068543455342,37.78647281454899],[128.94068543455342,37.77747961091175],[128.93169223091618,37.77747961091175]]]}},{"type":"Feature","properties":{"jobs":1302,"pop":106,"pointCount":2,"homeWorkCommuteMedian":7072,"workHomeCommuteMedian":7066},"geometry":{"type":"Polygon","coordinates":[[[128.94068543455342,37.714527185451026],[128.94068543455342,37.72352038908827],[128.94967863819065,37.72352038908827],[128.94967863819065,37.714527185451026],[128.94068543455342,37.714527185451026]]]}},{"type":"Feature","properties":{"jobs":863,"pop":101,"pointCount":2,"homeWorkCommuteMedian":8420,"workHomeCommuteMedian":7752},"geometry":{"type":"Polygon","coordinates":[[[128.94967863819065,37.70553398181378],[128.94967863819065,37.714527185451026],[128.95867184182788,37.714527185451026],[128.95867184182788,37.70553398181378],[128.94967863819065,37.70553398181378]]]}},{"type":"Feature","properties":{"jobs":313,"pop":20,"pointCount":1,"homeWorkCommuteMedian":7911,"workHomeCommuteMedian":7225},"geometry":{"type":"Polygon","coordinates":[[[128.94967863819065,37.714527185451026],[128.94967863819065,37.72352038908827],[128.95867184182788,37.72352038908827],[128.95867184182788,37.714527185451026],[128.94967863819065,37.714527185451026]]]}},{"type":"Feature","properties":{"jobs":757,"pop":20,"pointCount":1,"homeWorkCommuteMedian":9357,"workHomeCommuteMedian":9617},"geometry":{"type":"Polygon","coordinates":[[[128.94967863819065,37.73251359272552],[128.94967863819065,37.74150679636276],[128.95867184182788,37.74150679636276],[128.95867184182788,37.73251359272552],[128.94967863819065,37.73251359272552]]]}},{"type":"Feature","properties":{"jobs":6142,"pop":2766,"pointCount":2,"homeWorkCommuteMedian":8648,"workHomeCommuteMedian":8795},"geometry":{"type":"Polygon","coordinates":[[[128.94967863819065,37.759493203637255],[128.94967863819065,37.7684864072745],[128.95867184182788,37.7684864072745],[128.95867184182788,37.759493203637255],[128.94967863819065,37.759493203637255]]]}},{"type":"Feature","properties":{"jobs":459,"pop":29,"pointCount":1,"homeWorkCommuteMedian":7566,"workHomeCommuteMedian":7613},"geometry":{"type":"Polygon","coordinates":[[[128.9676650454651,37.714527185451026],[128.9676650454651,37.72352038908827],[128.97665824910234,37.72352038908827],[128.97665824910234,37.714527185451026],[128.9676650454651,37.714527185451026]]]}},{"type":"Feature","properties":{"jobs":840,"pop":22,"pointCount":1,"homeWorkCommuteMedian":12451,"workHomeCommuteMedian":18894},"geometry":{"type":"Polygon","coordinates":[[[128.97665824910234,37.72352038908827],[128.97665824910234,37.73251359272552],[128.98565145273957,37.73251359272552],[128.98565145273957,37.72352038908827],[128.97665824910234,37.72352038908827]]]}},{"type":"Feature","properties":{"jobs":543,"pop":34,"pointCount":1,"homeWorkCommuteMedian":9159,"workHomeCommuteMedian":9206},"geometry":{"type":"Polygon","coordinates":[[[128.98565145273957,37.72352038908827],[128.98565145273957,37.73251359272552],[128.9946446563768,37.73251359272552],[128.9946446563768,37.72352038908827],[128.98565145273957,37.72352038908827]]]}},{"type":"Feature","properties":{"jobs":536,"pop":34,"pointCount":1,"homeWorkCommuteMedian":17771,"workHomeCommuteMedian":18121},"geometry":{"type":"Polygon","coordinates":[[[129.0216242672885,37.67855437090204],[129.0216242672885,37.68754757453929],[129.03061747092573,37.68754757453929],[129.03061747092573,37.67855437090204],[129.0216242672885,37.67855437090204]]]}},{"type":"Feature","properties":{"jobs":818,"pop":72,"pointCount":1,"homeWorkCommuteMedian":27571,"workHomeCommuteMedian":33427},"geometry":{"type":"Polygon","coordinates":[[[129.03061747092573,37.59761553816683],[129.03061747092573,37.606608741804074],[129.03961067456297,37.606608741804074],[129.03961067456297,37.59761553816683],[129.03061747092573,37.59761553816683]]]}},{"type":"Feature","properties":{"jobs":761,"pop":48,"pointCount":2,"homeWorkCommuteMedian":21348,"workHomeCommuteMedian":19559},"geometry":{"type":"Polygon","coordinates":[[[129.03061747092573,37.67855437090204],[129.03061747092573,37.68754757453929],[129.03961067456297,37.68754757453929],[129.03961067456297,37.67855437090204],[129.03061747092573,37.67855437090204]]]}},{"type":"Feature","properties":{"jobs":320,"pop":20,"pointCount":1,"homeWorkCommuteMedian":24915,"workHomeCommuteMedian":26701},"geometry":{"type":"Polygon","coordinates":[[[129.03961067456297,37.624595149078566],[129.03961067456297,37.63358835271581],[129.0486038782002,37.63358835271581],[129.0486038782002,37.624595149078566],[129.03961067456297,37.624595149078566]]]}},{"type":"Feature","properties":{"jobs":421,"pop":26,"pointCount":1,"homeWorkCommuteMedian":25409,"workHomeCommuteMedian":25759},"geometry":{"type":"Polygon","coordinates":[[[129.03961067456297,37.63358835271581],[129.03961067456297,37.64258155635306],[129.0486038782002,37.64258155635306],[129.0486038782002,37.63358835271581],[129.03961067456297,37.63358835271581]]]}}],"properties":{"residentWeightedNearestNeighborKm":{"p10":0.3949903709899595,"p25":0.3955205530067755,"p50":0.39559275909595065,"p75":0.39561682291544154,"p90":0.3957130537782924,"mean":0.40336037792913676},"workerWeightedNearestNeighborKm":{"p10":0.3949421141250157,"p25":0.3955205530067755,"p50":0.39559275909595065,"p75":0.39568899972364435,"p90":0.5003778610509171,"mean":0.4418701007818006},"commuteDistanceKm":{"p10":2786,"p25":3890,"p50":5889,"p75":11822,"p90":20080,"mean":8818.89716193656},"residentCellDensity":{"p10":22,"p25":31,"p50":101,"p75":1352,"p90":4667,"mean":1214.6554621848738},"workerCellDensity":{"p10":343,"p25":489,"p50":976,"p75":2662,"p90":7940,"mean":2884.258333333333},"detail":{"radiusKm":0.39559275909595065,"expectedPointSpacingKm":0.7488308644489767,"normalizedRadius":0.528280520845045,"activityPerPoint":1051.2507268311115,"playableAreaKm2":268,"playableAreaPerPointKm2":1.2523364485981308,"playableCatchmentRadiusKm":0.6313723722313827,"localityScore":0.5640963340764644,"deaggregationScore":0.9002278640408594,"score":0.712611561749411},"polycentrism":{"activity":{"score":0,"continuousScore":0.21388650962181596,"detectedCenterCount":1,"effectiveCenterCount":1,"largestCenterShare":1,"bandwidthKm":1.3,"reliabilityScore":1,"supportLevel":"high","usedFallback":false,"topCenters":[{"longitude":128.88739153449427,"latitude":37.769979169867725,"massShare":1,"assignedMass":494314,"assignedPointCount":214,"prominenceRatio":1}],"debug":{"rawPeakCount":9,"mergedPeakCount":9,"filteredPeakCount":1,"prominenceThreshold":0.22,"minPointsPerCenter":10,"rejectedCenters":[{"longitude":128.82689148284035,"latitude":37.87991944829746,"massShare":0.09042430519871984,"assignedMass":44698,"assignedPointCount":23,"prominenceRatio":1,"strongestCompetitorDistanceKm":14.139405252389647,"strongestCompetitorPotential":127843.19409369354,"localConsolidatedShare":0.09042430519871984,"localConsolidatedMass":44698,"localContributorCount":1,"localContributorDistancesKm":[],"rejectionReasons":["not_dominant_local_peak","below_relative_share_floor"]},{"longitude":128.8663842175024,"latitude":37.83135542797828,"massShare":0.02533612238374798,"assignedMass":12524,"assignedPointCount":10,"prominenceRatio":0.9999999622363767,"strongestCompetitorDistanceKm":8.160895660692702,"strongestCompetitorPotential":127843.19409369354,"localConsolidatedShare":0.02533612238374798,"localConsolidatedMass":12524,"localContributorCount":1,"localContributorDistancesKm":[],"rejectionReasons":["below_secondary_share_floor"]},{"longitude":128.71455245185848,"latitude":37.84692706000895,"massShare":0.018069486197032657,"assignedMass":8932,"assignedPointCount":11,"prominenceRatio":1,"strongestCompetitorDistanceKm":17.122085992317228,"strongestCompetitorPotential":127843.19409369354,"localConsolidatedShare":0.018069486197032657,"localConsolidatedMass":8932,"localContributorCount":1,"localContributorDistancesKm":[],"rejectionReasons":["below_secondary_share_floor"]},{"longitude":128.69866613457762,"latitude":37.67630746561886,"massShare":0.00823767888427194,"assignedMass":4072,"assignedPointCount":8,"prominenceRatio":1,"strongestCompetitorDistanceKm":19.324474396471455,"strongestCompetitorPotential":127843.19409369354,"localConsolidatedShare":0.00823767888427194,"localConsolidatedMass":4072,"localContributorCount":1,"localContributorDistancesKm":[],"rejectionReasons":["below_min_points_per_center"]},{"longitude":129.03053196347034,"latitude":37.601563926940635,"massShare":0.003987344076841846,"assignedMass":1971,"assignedPointCount":2,"prominenceRatio":1,"strongestCompetitorDistanceKm":22.206550679066144,"strongestCompetitorPotential":127843.19409369354,"localConsolidatedShare":0.003987344076841846,"localConsolidatedMass":1971,"localContributorCount":1,"localContributorDistancesKm":[],"rejectionReasons":["below_min_points_per_center"]},{"longitude":129.00765704863974,"latitude":37.7074748557296,"massShare":0.007361717450851078,"assignedMass":3639,"assignedPointCount":7,"prominenceRatio":1,"strongestCompetitorDistanceKm":15.535224797664762,"strongestCompetitorPotential":127843.19409369354,"localConsolidatedShare":0.007361717450851078,"localConsolidatedMass":3639,"localContributorCount":1,"localContributorDistancesKm":[],"rejectionReasons":["below_min_points_per_center"]},{"longitude":129.042,"latitude":37.63605590851334,"massShare":0.0015921054228688648,"assignedMass":787,"assignedPointCount":2,"prominenceRatio":1,"strongestCompetitorDistanceKm":19.78489554633162,"strongestCompetitorPotential":127843.19409369354,"localConsolidatedShare":0.0015921054228688648,"localConsolidatedMass":787,"localContributorCount":1,"localContributorDistancesKm":[],"rejectionReasons":["below_min_points_per_center"]},{"longitude":128.6775,"latitude":37.7145,"massShare":0.0007424430625068277,"assignedMass":367,"assignedPointCount":1,"prominenceRatio":1,"strongestCompetitorDistanceKm":19.388867079205713,"strongestCompetitorPotential":127843.19409369354,"localConsolidatedShare":0.0007424430625068277,"localConsolidatedMass":367,"localContributorCount":1,"localContributorDistancesKm":[],"rejectionReasons":["below_min_points_per_center"]}]}}}}}
