{"type":"FeatureCollection","features":[{"type":"Feature","properties":{"jobs":573,"pop":20,"pointCount":1,"homeWorkCommuteMedian":35346,"workHomeCommuteMedian":35474},"geometry":{"type":"Polygon","coordinates":[[[129.04891651088747,35.69416651088749],[129.04891651088747,35.70315971452474],[129.0579097145247,35.70315971452474],[129.0579097145247,35.69416651088749],[129.04891651088747,35.69416651088749]]]}},{"type":"Feature","properties":{"jobs":1665,"pop":370,"pointCount":1,"homeWorkCommuteMedian":16285,"workHomeCommuteMedian":16875},"geometry":{"type":"Polygon","coordinates":[[[129.09388252907362,35.83805776908343],[129.09388252907362,35.84705097272067],[129.10287573271086,35.84705097272067],[129.10287573271086,35.83805776908343],[129.09388252907362,35.83805776908343]]]}},{"type":"Feature","properties":{"jobs":2010,"pop":221,"pointCount":2,"homeWorkCommuteMedian":18082,"workHomeCommuteMedian":18673},"geometry":{"type":"Polygon","coordinates":[[[129.09388252907362,35.84705097272067],[129.09388252907362,35.85604417635792],[129.10287573271086,35.85604417635792],[129.10287573271086,35.84705097272067],[129.09388252907362,35.84705097272067]]]}},{"type":"Feature","properties":{"jobs":1025,"pop":110,"pointCount":1,"homeWorkCommuteMedian":18666,"workHomeCommuteMedian":22906},"geometry":{"type":"Polygon","coordinates":[[[129.10287573271086,35.75711893634821],[129.10287573271086,35.76611213998546],[129.1118689363481,35.76611213998546],[129.1118689363481,35.75711893634821],[129.10287573271086,35.75711893634821]]]}},{"type":"Feature","properties":{"jobs":4034,"pop":563,"pointCount":4,"homeWorkCommuteMedian":15776,"workHomeCommuteMedian":16062},"geometry":{"type":"Polygon","coordinates":[[[129.10287573271086,35.83805776908343],[129.10287573271086,35.84705097272067],[129.1118689363481,35.84705097272067],[129.1118689363481,35.83805776908343],[129.10287573271086,35.83805776908343]]]}},{"type":"Feature","properties":{"jobs":622,"pop":22,"pointCount":1,"homeWorkCommuteMedian":11888,"workHomeCommuteMedian":11959},"geometry":{"type":"Polygon","coordinates":[[[129.10287573271086,35.84705097272067],[129.10287573271086,35.85604417635792],[129.1118689363481,35.85604417635792],[129.1118689363481,35.84705097272067],[129.10287573271086,35.84705097272067]]]}},{"type":"Feature","properties":{"jobs":1614,"pop":358,"pointCount":1,"homeWorkCommuteMedian":14262,"workHomeCommuteMedian":13709},"geometry":{"type":"Polygon","coordinates":[[[129.1118689363481,35.83805776908343],[129.1118689363481,35.84705097272067],[129.12086213998532,35.84705097272067],[129.12086213998532,35.83805776908343],[129.1118689363481,35.83805776908343]]]}},{"type":"Feature","properties":{"jobs":841,"pop":75,"pointCount":1,"homeWorkCommuteMedian":17524,"workHomeCommuteMedian":14631},"geometry":{"type":"Polygon","coordinates":[[[129.12985534362255,35.78409854725995],[129.12985534362255,35.7930917508972],[129.13884854725978,35.7930917508972],[129.13884854725978,35.78409854725995],[129.12985534362255,35.78409854725995]]]}},{"type":"Feature","properties":{"jobs":9904,"pop":190,"pointCount":3,"homeWorkCommuteMedian":16265,"workHomeCommuteMedian":38083},"geometry":{"type":"Polygon","coordinates":[[[129.12985534362255,35.7930917508972],[129.12985534362255,35.80208495453444],[129.13884854725978,35.80208495453444],[129.13884854725978,35.7930917508972],[129.12985534362255,35.7930917508972]]]}},{"type":"Feature","properties":{"jobs":974,"pop":86,"pointCount":1,"homeWorkCommuteMedian":11638,"workHomeCommuteMedian":14658},"geometry":{"type":"Polygon","coordinates":[[[129.12985534362255,35.820071361808935],[129.12985534362255,35.82906456544618],[129.13884854725978,35.82906456544618],[129.13884854725978,35.820071361808935],[129.12985534362255,35.820071361808935]]]}},{"type":"Feature","properties":{"jobs":805,"pop":0,"pointCount":1,"homeWorkCommuteMedian":-1,"workHomeCommuteMedian":10636},"geometry":{"type":"Polygon","coordinates":[[[129.15683495453425,35.82906456544618],[129.15683495453425,35.83805776908343],[129.16582815817148,35.83805776908343],[129.16582815817148,35.82906456544618],[129.15683495453425,35.82906456544618]]]}},{"type":"Feature","properties":{"jobs":751,"pop":49,"pointCount":1,"homeWorkCommuteMedian":10512,"workHomeCommuteMedian":10512},"geometry":{"type":"Polygon","coordinates":[[[129.15683495453425,35.83805776908343],[129.15683495453425,35.84705097272067],[129.16582815817148,35.84705097272067],[129.16582815817148,35.83805776908343],[129.15683495453425,35.83805776908343]]]}},{"type":"Feature","properties":{"jobs":1359,"pop":183,"pointCount":1,"homeWorkCommuteMedian":8595,"workHomeCommuteMedian":8923},"geometry":{"type":"Polygon","coordinates":[[[129.15683495453425,35.8920169909069],[129.15683495453425,35.90101019454415],[129.16582815817148,35.90101019454415],[129.16582815817148,35.8920169909069],[129.15683495453425,35.8920169909069]]]}},{"type":"Feature","properties":{"jobs":6146,"pop":2364,"pointCount":2,"homeWorkCommuteMedian":8860,"workHomeCommuteMedian":9090},"geometry":{"type":"Polygon","coordinates":[[[129.16582815817148,35.83805776908343],[129.16582815817148,35.84705097272067],[129.1748213618087,35.84705097272067],[129.1748213618087,35.83805776908343],[129.16582815817148,35.83805776908343]]]}},{"type":"Feature","properties":{"jobs":1362,"pop":183,"pointCount":1,"homeWorkCommuteMedian":8507,"workHomeCommuteMedian":7107},"geometry":{"type":"Polygon","coordinates":[[[129.16582815817148,35.87403058363241],[129.16582815817148,35.88302378726966],[129.1748213618087,35.88302378726966],[129.1748213618087,35.87403058363241],[129.16582815817148,35.87403058363241]]]}},{"type":"Feature","properties":{"jobs":20956,"pop":9922,"pointCount":3,"homeWorkCommuteMedian":11137,"workHomeCommuteMedian":8649},"geometry":{"type":"Polygon","coordinates":[[[129.16582815817148,35.88302378726966],[129.16582815817148,35.8920169909069],[129.1748213618087,35.8920169909069],[129.1748213618087,35.88302378726966],[129.16582815817148,35.88302378726966]]]}},{"type":"Feature","properties":{"jobs":6283,"pop":2369,"pointCount":2,"homeWorkCommuteMedian":8635,"workHomeCommuteMedian":8595},"geometry":{"type":"Polygon","coordinates":[[[129.1748213618087,35.83805776908343],[129.1748213618087,35.84705097272067],[129.18381456544594,35.84705097272067],[129.18381456544594,35.83805776908343],[129.1748213618087,35.83805776908343]]]}},{"type":"Feature","properties":{"jobs":681,"pop":20,"pointCount":1,"homeWorkCommuteMedian":7912,"workHomeCommuteMedian":10923},"geometry":{"type":"Polygon","coordinates":[[[129.1748213618087,35.88302378726966],[129.1748213618087,35.8920169909069],[129.18381456544594,35.8920169909069],[129.18381456544594,35.88302378726966],[129.1748213618087,35.88302378726966]]]}},{"type":"Feature","properties":{"jobs":1607,"pop":358,"pointCount":1,"homeWorkCommuteMedian":23579,"workHomeCommuteMedian":23210},"geometry":{"type":"Polygon","coordinates":[[[129.1748213618087,35.999935434553855],[129.1748213618087,36.0089286381911],[129.18381456544594,36.0089286381911],[129.18381456544594,35.999935434553855],[129.1748213618087,35.999935434553855]]]}},{"type":"Feature","properties":{"jobs":2473,"pop":353,"pointCount":2,"homeWorkCommuteMedian":6617,"workHomeCommuteMedian":6332},"geometry":{"type":"Polygon","coordinates":[[[129.18381456544594,35.82906456544618],[129.18381456544594,35.83805776908343],[129.19280776908317,35.83805776908343],[129.19280776908317,35.82906456544618],[129.18381456544594,35.82906456544618]]]}},{"type":"Feature","properties":{"jobs":1650,"pop":341,"pointCount":1,"homeWorkCommuteMedian":5713,"workHomeCommuteMedian":6025},"geometry":{"type":"Polygon","coordinates":[[[129.18381456544594,35.83805776908343],[129.18381456544594,35.84705097272067],[129.19280776908317,35.84705097272067],[129.19280776908317,35.83805776908343],[129.18381456544594,35.83805776908343]]]}},{"type":"Feature","properties":{"jobs":1141,"pop":143,"pointCount":1,"homeWorkCommuteMedian":5538,"workHomeCommuteMedian":5538},"geometry":{"type":"Polygon","coordinates":[[[129.18381456544594,35.85604417635792],[129.18381456544594,35.865037379995165],[129.19280776908317,35.865037379995165],[129.19280776908317,35.85604417635792],[129.18381456544594,35.85604417635792]]]}},{"type":"Feature","properties":{"jobs":2589,"pop":796,"pointCount":1,"homeWorkCommuteMedian":22928,"workHomeCommuteMedian":21268},"geometry":{"type":"Polygon","coordinates":[[[129.18381456544594,35.999935434553855],[129.18381456544594,36.0089286381911],[129.19280776908317,36.0089286381911],[129.19280776908317,35.999935434553855],[129.18381456544594,35.999935434553855]]]}},{"type":"Feature","properties":{"jobs":1666,"pop":370,"pointCount":1,"homeWorkCommuteMedian":31397,"workHomeCommuteMedian":31043},"geometry":{"type":"Polygon","coordinates":[[[129.18381456544594,36.06288786001458],[129.18381456544594,36.07188106365182],[129.19280776908317,36.07188106365182],[129.19280776908317,36.06288786001458],[129.18381456544594,36.06288786001458]]]}},{"type":"Feature","properties":{"jobs":669,"pop":24,"pointCount":1,"homeWorkCommuteMedian":21958,"workHomeCommuteMedian":29424},"geometry":{"type":"Polygon","coordinates":[[[129.19280776908317,35.73913252907372],[129.19280776908317,35.74812573271097],[129.2018009727204,35.74812573271097],[129.2018009727204,35.73913252907372],[129.19280776908317,35.73913252907372]]]}},{"type":"Feature","properties":{"jobs":578,"pop":644,"pointCount":1,"homeWorkCommuteMedian":4480,"workHomeCommuteMedian":4960},"geometry":{"type":"Polygon","coordinates":[[[129.19280776908317,35.82906456544618],[129.19280776908317,35.83805776908343],[129.2018009727204,35.83805776908343],[129.2018009727204,35.82906456544618],[129.19280776908317,35.82906456544618]]]}},{"type":"Feature","properties":{"jobs":1381,"pop":145,"pointCount":2,"homeWorkCommuteMedian":4422,"workHomeCommuteMedian":4824},"geometry":{"type":"Polygon","coordinates":[[[129.19280776908317,35.85604417635792],[129.19280776908317,35.865037379995165],[129.2018009727204,35.865037379995165],[129.2018009727204,35.85604417635792],[129.19280776908317,35.85604417635792]]]}},{"type":"Feature","properties":{"jobs":1937,"pop":391,"pointCount":1,"homeWorkCommuteMedian":5042,"workHomeCommuteMedian":4691},"geometry":{"type":"Polygon","coordinates":[[[129.19280776908317,35.865037379995165],[129.19280776908317,35.87403058363241],[129.2018009727204,35.87403058363241],[129.2018009727204,35.865037379995165],[129.19280776908317,35.865037379995165]]]}},{"type":"Feature","properties":{"jobs":2232,"pop":652,"pointCount":1,"homeWorkCommuteMedian":21482,"workHomeCommuteMedian":21164},"geometry":{"type":"Polygon","coordinates":[[[129.19280776908317,35.999935434553855],[129.19280776908317,36.0089286381911],[129.2018009727204,36.0089286381911],[129.2018009727204,35.999935434553855],[129.19280776908317,35.999935434553855]]]}},{"type":"Feature","properties":{"jobs":581,"pop":20,"pointCount":1,"homeWorkCommuteMedian":7382,"workHomeCommuteMedian":7377},"geometry":{"type":"Polygon","coordinates":[[[129.2018009727204,35.82906456544618],[129.2018009727204,35.83805776908343],[129.21079417635764,35.83805776908343],[129.21079417635764,35.82906456544618],[129.2018009727204,35.82906456544618]]]}},{"type":"Feature","properties":{"jobs":8434,"pop":368,"pointCount":5,"homeWorkCommuteMedian":6371,"workHomeCommuteMedian":33254},"geometry":{"type":"Polygon","coordinates":[[[129.2018009727204,35.83805776908343],[129.2018009727204,35.84705097272067],[129.21079417635764,35.84705097272067],[129.21079417635764,35.83805776908343],[129.2018009727204,35.83805776908343]]]}},{"type":"Feature","properties":{"jobs":3623,"pop":977,"pointCount":2,"homeWorkCommuteMedian":4754,"workHomeCommuteMedian":4839},"geometry":{"type":"Polygon","coordinates":[[[129.2018009727204,35.84705097272067],[129.2018009727204,35.85604417635792],[129.21079417635764,35.85604417635792],[129.21079417635764,35.84705097272067],[129.2018009727204,35.84705097272067]]]}},{"type":"Feature","properties":{"jobs":5323,"pop":2091,"pointCount":1,"homeWorkCommuteMedian":6597,"workHomeCommuteMedian":6106},"geometry":{"type":"Polygon","coordinates":[[[129.2018009727204,35.85604417635792],[129.2018009727204,35.865037379995165],[129.21079417635764,35.865037379995165],[129.21079417635764,35.85604417635792],[129.2018009727204,35.85604417635792]]]}},{"type":"Feature","properties":{"jobs":4694,"pop":1719,"pointCount":1,"homeWorkCommuteMedian":5042,"workHomeCommuteMedian":5933},"geometry":{"type":"Polygon","coordinates":[[[129.2018009727204,35.865037379995165],[129.2018009727204,35.87403058363241],[129.21079417635764,35.87403058363241],[129.21079417635764,35.865037379995165],[129.2018009727204,35.865037379995165]]]}},{"type":"Feature","properties":{"jobs":1439,"pop":233,"pointCount":1,"homeWorkCommuteMedian":14768,"workHomeCommuteMedian":14124},"geometry":{"type":"Polygon","coordinates":[[[129.2018009727204,35.92798980545589],[129.2018009727204,35.93698300909313],[129.21079417635764,35.93698300909313],[129.21079417635764,35.92798980545589],[129.2018009727204,35.92798980545589]]]}},{"type":"Feature","properties":{"jobs":730,"pop":47,"pointCount":1,"homeWorkCommuteMedian":24273,"workHomeCommuteMedian":20740},"geometry":{"type":"Polygon","coordinates":[[[129.2018009727204,35.98194902727936],[129.2018009727204,35.99094223091661],[129.21079417635764,35.99094223091661],[129.21079417635764,35.98194902727936],[129.2018009727204,35.98194902727936]]]}},{"type":"Feature","properties":{"jobs":1677,"pop":131,"pointCount":2,"homeWorkCommuteMedian":21517,"workHomeCommuteMedian":19339},"geometry":{"type":"Polygon","coordinates":[[[129.2018009727204,35.99094223091661],[129.2018009727204,35.999935434553855],[129.21079417635764,35.999935434553855],[129.21079417635764,35.99094223091661],[129.2018009727204,35.99094223091661]]]}},{"type":"Feature","properties":{"jobs":790,"pop":71,"pointCount":1,"homeWorkCommuteMedian":4836,"workHomeCommuteMedian":4721},"geometry":{"type":"Polygon","coordinates":[[[129.21079417635764,35.83805776908343],[129.21079417635764,35.84705097272067],[129.21978737999487,35.84705097272067],[129.21978737999487,35.83805776908343],[129.21079417635764,35.83805776908343]]]}},{"type":"Feature","properties":{"jobs":1485,"pop":100,"pointCount":2,"homeWorkCommuteMedian":6107,"workHomeCommuteMedian":6048},"geometry":{"type":"Polygon","coordinates":[[[129.21079417635764,35.84705097272067],[129.21079417635764,35.85604417635792],[129.21978737999487,35.85604417635792],[129.21978737999487,35.84705097272067],[129.21079417635764,35.84705097272067]]]}},{"type":"Feature","properties":{"jobs":12878,"pop":3697,"pointCount":4,"homeWorkCommuteMedian":5166,"workHomeCommuteMedian":4944},"geometry":{"type":"Polygon","coordinates":[[[129.21079417635764,35.85604417635792],[129.21079417635764,35.865037379995165],[129.21978737999487,35.865037379995165],[129.21978737999487,35.85604417635792],[129.21079417635764,35.85604417635792]]]}},{"type":"Feature","properties":{"jobs":4677,"pop":1689,"pointCount":2,"homeWorkCommuteMedian":6887,"workHomeCommuteMedian":6993},"geometry":{"type":"Polygon","coordinates":[[[129.21079417635764,35.865037379995165],[129.21079417635764,35.87403058363241],[129.21978737999487,35.87403058363241],[129.21978737999487,35.865037379995165],[129.21079417635764,35.865037379995165]]]}},{"type":"Feature","properties":{"jobs":2812,"pop":531,"pointCount":2,"homeWorkCommuteMedian":20259,"workHomeCommuteMedian":18181},"geometry":{"type":"Polygon","coordinates":[[[129.21079417635764,35.98194902727936],[129.21079417635764,35.99094223091661],[129.21978737999487,35.99094223091661],[129.21978737999487,35.98194902727936],[129.21079417635764,35.98194902727936]]]}},{"type":"Feature","properties":{"jobs":1197,"pop":150,"pointCount":1,"homeWorkCommuteMedian":20305,"workHomeCommuteMedian":18626},"geometry":{"type":"Polygon","coordinates":[[[129.21079417635764,35.99094223091661],[129.21079417635764,35.999935434553855],[129.21978737999487,35.999935434553855],[129.21978737999487,35.99094223091661],[129.21079417635764,35.99094223091661]]]}},{"type":"Feature","properties":{"jobs":1241,"pop":97,"pointCount":1,"homeWorkCommuteMedian":5594,"workHomeCommuteMedian":4532},"geometry":{"type":"Polygon","coordinates":[[[129.21978737999487,35.83805776908343],[129.21978737999487,35.84705097272067],[129.2287805836321,35.84705097272067],[129.2287805836321,35.83805776908343],[129.21978737999487,35.83805776908343]]]}},{"type":"Feature","properties":{"jobs":7725,"pop":2037,"pointCount":4,"homeWorkCommuteMedian":6639,"workHomeCommuteMedian":6117},"geometry":{"type":"Polygon","coordinates":[[[129.21978737999487,35.84705097272067],[129.21978737999487,35.85604417635792],[129.2287805836321,35.85604417635792],[129.2287805836321,35.84705097272067],[129.21978737999487,35.84705097272067]]]}},{"type":"Feature","properties":{"jobs":4849,"pop":1097,"pointCount":2,"homeWorkCommuteMedian":5677,"workHomeCommuteMedian":5677},"geometry":{"type":"Polygon","coordinates":[[[129.21978737999487,35.85604417635792],[129.21978737999487,35.865037379995165],[129.2287805836321,35.865037379995165],[129.2287805836321,35.85604417635792],[129.21978737999487,35.85604417635792]]]}},{"type":"Feature","properties":{"jobs":7932,"pop":2807,"pointCount":2,"homeWorkCommuteMedian":7109,"workHomeCommuteMedian":8174},"geometry":{"type":"Polygon","coordinates":[[[129.21978737999487,35.865037379995165],[129.21978737999487,35.87403058363241],[129.2287805836321,35.87403058363241],[129.2287805836321,35.865037379995165],[129.21978737999487,35.865037379995165]]]}},{"type":"Feature","properties":{"jobs":18855,"pop":7166,"pointCount":4,"homeWorkCommuteMedian":7564,"workHomeCommuteMedian":7818},"geometry":{"type":"Polygon","coordinates":[[[129.21978737999487,35.87403058363241],[129.21978737999487,35.88302378726966],[129.2287805836321,35.88302378726966],[129.2287805836321,35.87403058363241],[129.21978737999487,35.87403058363241]]]}},{"type":"Feature","properties":{"jobs":962,"pop":62,"pointCount":1,"homeWorkCommuteMedian":8507,"workHomeCommuteMedian":8420},"geometry":{"type":"Polygon","coordinates":[[[129.21978737999487,35.8920169909069],[129.21978737999487,35.90101019454415],[129.2287805836321,35.90101019454415],[129.2287805836321,35.8920169909069],[129.21978737999487,35.8920169909069]]]}},{"type":"Feature","properties":{"jobs":1586,"pop":234,"pointCount":2,"homeWorkCommuteMedian":18877,"workHomeCommuteMedian":17524},"geometry":{"type":"Polygon","coordinates":[[[129.21978737999487,35.99094223091661],[129.21978737999487,35.999935434553855],[129.2287805836321,35.999935434553855],[129.2287805836321,35.99094223091661],[129.21978737999487,35.99094223091661]]]}},{"type":"Feature","properties":{"jobs":882,"pop":78,"pointCount":1,"homeWorkCommuteMedian":22801,"workHomeCommuteMedian":22388},"geometry":{"type":"Polygon","coordinates":[[[129.21978737999487,36.02691504546559],[129.21978737999487,36.03590824910284],[129.2287805836321,36.03590824910284],[129.2287805836321,36.02691504546559],[129.21978737999487,36.02691504546559]]]}},{"type":"Feature","properties":{"jobs":19679,"pop":9062,"pointCount":3,"homeWorkCommuteMedian":7991,"workHomeCommuteMedian":8391},"geometry":{"type":"Polygon","coordinates":[[[129.2287805836321,35.83805776908343],[129.2287805836321,35.84705097272067],[129.23777378726933,35.84705097272067],[129.23777378726933,35.83805776908343],[129.2287805836321,35.83805776908343]]]}},{"type":"Feature","properties":{"jobs":25,"pop":708,"pointCount":1,"homeWorkCommuteMedian":26606,"workHomeCommuteMedian":-1},"geometry":{"type":"Polygon","coordinates":[[[129.2287805836321,35.84705097272067],[129.2287805836321,35.85604417635792],[129.23777378726933,35.85604417635792],[129.23777378726933,35.84705097272067],[129.2287805836321,35.84705097272067]]]}},{"type":"Feature","properties":{"jobs":3569,"pop":1001,"pointCount":1,"homeWorkCommuteMedian":4623,"workHomeCommuteMedian":5461},"geometry":{"type":"Polygon","coordinates":[[[129.2287805836321,35.865037379995165],[129.2287805836321,35.87403058363241],[129.23777378726933,35.87403058363241],[129.23777378726933,35.865037379995165],[129.2287805836321,35.865037379995165]]]}},{"type":"Feature","properties":{"jobs":4415,"pop":771,"pointCount":3,"homeWorkCommuteMedian":4972,"workHomeCommuteMedian":4739},"geometry":{"type":"Polygon","coordinates":[[[129.2287805836321,35.87403058363241],[129.2287805836321,35.88302378726966],[129.23777378726933,35.88302378726966],[129.23777378726933,35.87403058363241],[129.2287805836321,35.87403058363241]]]}},{"type":"Feature","properties":{"jobs":641,"pop":23,"pointCount":1,"homeWorkCommuteMedian":11311,"workHomeCommuteMedian":15526},"geometry":{"type":"Polygon","coordinates":[[[129.24676699090656,35.820071361808935],[129.24676699090656,35.82906456544618],[129.2557601945438,35.82906456544618],[129.2557601945438,35.820071361808935],[129.24676699090656,35.820071361808935]]]}},{"type":"Feature","properties":{"jobs":577,"pop":106,"pointCount":1,"homeWorkCommuteMedian":28797,"workHomeCommuteMedian":28338},"geometry":{"type":"Polygon","coordinates":[[[129.24676699090656,36.10785387820081],[129.24676699090656,36.11684708183805],[129.2557601945438,36.11684708183805],[129.2557601945438,36.10785387820081],[129.24676699090656,36.10785387820081]]]}},{"type":"Feature","properties":{"jobs":907,"pop":210,"pointCount":1,"homeWorkCommuteMedian":29095,"workHomeCommuteMedian":28637},"geometry":{"type":"Polygon","coordinates":[[[129.2557601945438,36.09886067456356],[129.2557601945438,36.10785387820081],[129.26475339818103,36.10785387820081],[129.26475339818103,36.09886067456356],[129.2557601945438,36.09886067456356]]]}},{"type":"Feature","properties":{"jobs":533,"pop":276,"pointCount":1,"homeWorkCommuteMedian":30187,"workHomeCommuteMedian":35278},"geometry":{"type":"Polygon","coordinates":[[[129.2557601945438,36.1258402854753],[129.2557601945438,36.134833489112545],[129.26475339818103,36.134833489112545],[129.26475339818103,36.1258402854753],[129.2557601945438,36.1258402854753]]]}},{"type":"Feature","properties":{"jobs":934,"pop":412,"pointCount":1,"homeWorkCommuteMedian":10696,"workHomeCommuteMedian":10453},"geometry":{"type":"Polygon","coordinates":[[[129.26475339818103,35.7930917508972],[129.26475339818103,35.80208495453444],[129.27374660181826,35.80208495453444],[129.27374660181826,35.7930917508972],[129.26475339818103,35.7930917508972]]]}},{"type":"Feature","properties":{"jobs":1378,"pop":254,"pointCount":1,"homeWorkCommuteMedian":9511,"workHomeCommuteMedian":9171},"geometry":{"type":"Polygon","coordinates":[[[129.26475339818103,35.8920169909069],[129.26475339818103,35.90101019454415],[129.27374660181826,35.90101019454415],[129.27374660181826,35.8920169909069],[129.26475339818103,35.8920169909069]]]}},{"type":"Feature","properties":{"jobs":313,"pop":46,"pointCount":1,"homeWorkCommuteMedian":33856,"workHomeCommuteMedian":33906},"geometry":{"type":"Polygon","coordinates":[[[129.26475339818103,36.1258402854753],[129.26475339818103,36.134833489112545],[129.27374660181826,36.134833489112545],[129.27374660181826,36.1258402854753],[129.26475339818103,36.1258402854753]]]}},{"type":"Feature","properties":{"jobs":823,"pop":73,"pointCount":1,"homeWorkCommuteMedian":22630,"workHomeCommuteMedian":24325},"geometry":{"type":"Polygon","coordinates":[[[129.27374660181826,35.730139325436475],[129.27374660181826,35.73913252907372],[129.2827398054555,35.73913252907372],[129.2827398054555,35.730139325436475],[129.27374660181826,35.730139325436475]]]}},{"type":"Feature","properties":{"jobs":1256,"pop":0,"pointCount":1,"homeWorkCommuteMedian":-1,"workHomeCommuteMedian":14689},"geometry":{"type":"Polygon","coordinates":[[[129.27374660181826,36.0089286381911],[129.27374660181826,36.01792184182835],[129.2827398054555,36.01792184182835],[129.2827398054555,36.0089286381911],[129.27374660181826,36.0089286381911]]]}},{"type":"Feature","properties":{"jobs":889,"pop":79,"pointCount":1,"homeWorkCommuteMedian":26360,"workHomeCommuteMedian":26360},"geometry":{"type":"Polygon","coordinates":[[[129.2827398054555,35.72114612179923],[129.2827398054555,35.730139325436475],[129.29173300909272,35.730139325436475],[129.29173300909272,35.72114612179923],[129.2827398054555,35.72114612179923]]]}},{"type":"Feature","properties":{"jobs":851,"pop":75,"pointCount":1,"homeWorkCommuteMedian":20955,"workHomeCommuteMedian":24893},"geometry":{"type":"Polygon","coordinates":[[[129.2827398054555,35.999935434553855],[129.2827398054555,36.0089286381911],[129.29173300909272,36.0089286381911],[129.29173300909272,35.999935434553855],[129.2827398054555,35.999935434553855]]]}},{"type":"Feature","properties":{"jobs":626,"pop":22,"pointCount":1,"homeWorkCommuteMedian":32835,"workHomeCommuteMedian":35506},"geometry":{"type":"Polygon","coordinates":[[[129.29173300909272,35.685173307250246],[129.29173300909272,35.69416651088749],[129.30072621272996,35.69416651088749],[129.30072621272996,35.685173307250246],[129.29173300909272,35.685173307250246]]]}},{"type":"Feature","properties":{"jobs":1182,"pop":149,"pointCount":1,"homeWorkCommuteMedian":14834,"workHomeCommuteMedian":15336},"geometry":{"type":"Polygon","coordinates":[[[129.29173300909272,35.76611213998546],[129.29173300909272,35.775105343622705],[129.30072621272996,35.775105343622705],[129.30072621272996,35.76611213998546],[129.29173300909272,35.76611213998546]]]}},{"type":"Feature","properties":{"jobs":1063,"pop":420,"pointCount":1,"homeWorkCommuteMedian":16969,"workHomeCommuteMedian":18791},"geometry":{"type":"Polygon","coordinates":[[[129.29173300909272,36.01792184182835],[129.29173300909272,36.02691504546559],[129.30072621272996,36.02691504546559],[129.30072621272996,36.01792184182835],[129.29173300909272,36.01792184182835]]]}},{"type":"Feature","properties":{"jobs":2318,"pop":173,"pointCount":3,"homeWorkCommuteMedian":16245,"workHomeCommuteMedian":16733},"geometry":{"type":"Polygon","coordinates":[[[129.30072621272996,35.76611213998546],[129.30072621272996,35.775105343622705],[129.3097194163672,35.775105343622705],[129.3097194163672,35.76611213998546],[129.30072621272996,35.76611213998546]]]}},{"type":"Feature","properties":{"jobs":212,"pop":200,"pointCount":1,"homeWorkCommuteMedian":28014,"workHomeCommuteMedian":-1},"geometry":{"type":"Polygon","coordinates":[[[129.30072621272996,35.99094223091661],[129.30072621272996,35.999935434553855],[129.3097194163672,35.999935434553855],[129.3097194163672,35.99094223091661],[129.30072621272996,35.99094223091661]]]}},{"type":"Feature","properties":{"jobs":435,"pop":264,"pointCount":1,"homeWorkCommuteMedian":16899,"workHomeCommuteMedian":13249},"geometry":{"type":"Polygon","coordinates":[[[129.30072621272996,35.999935434553855],[129.30072621272996,36.0089286381911],[129.3097194163672,36.0089286381911],[129.3097194163672,35.999935434553855],[129.30072621272996,35.999935434553855]]]}},{"type":"Feature","properties":{"jobs":83,"pop":200,"pointCount":1,"homeWorkCommuteMedian":22659,"workHomeCommuteMedian":-1},"geometry":{"type":"Polygon","coordinates":[[[129.3097194163672,35.954969416367625],[129.3097194163672,35.96396262000487],[129.31871262000442,35.96396262000487],[129.31871262000442,35.954969416367625],[129.3097194163672,35.954969416367625]]]}},{"type":"Feature","properties":{"jobs":1017,"pop":131,"pointCount":2,"homeWorkCommuteMedian":13902,"workHomeCommuteMedian":13139},"geometry":{"type":"Polygon","coordinates":[[[129.3097194163672,35.98194902727936],[129.3097194163672,35.99094223091661],[129.31871262000442,35.99094223091661],[129.31871262000442,35.98194902727936],[129.3097194163672,35.98194902727936]]]}},{"type":"Feature","properties":{"jobs":33772,"pop":25207,"pointCount":3,"homeWorkCommuteMedian":7653,"workHomeCommuteMedian":7440},"geometry":{"type":"Polygon","coordinates":[[[129.3097194163672,35.999935434553855],[129.3097194163672,36.0089286381911],[129.31871262000442,36.0089286381911],[129.31871262000442,35.999935434553855],[129.3097194163672,35.999935434553855]]]}},{"type":"Feature","properties":{"jobs":1248,"pop":209,"pointCount":2,"homeWorkCommuteMedian":13948,"workHomeCommuteMedian":14086},"geometry":{"type":"Polygon","coordinates":[[[129.3097194163672,36.01792184182835],[129.3097194163672,36.02691504546559],[129.31871262000442,36.02691504546559],[129.31871262000442,36.01792184182835],[129.3097194163672,36.01792184182835]]]}},{"type":"Feature","properties":{"jobs":24035,"pop":15516,"pointCount":4,"homeWorkCommuteMedian":7300,"workHomeCommuteMedian":6853},"geometry":{"type":"Polygon","coordinates":[[[129.3097194163672,36.02691504546559],[129.3097194163672,36.03590824910284],[129.31871262000442,36.03590824910284],[129.31871262000442,36.02691504546559],[129.3097194163672,36.02691504546559]]]}},{"type":"Feature","properties":{"jobs":354,"pop":51,"pointCount":1,"homeWorkCommuteMedian":19527,"workHomeCommuteMedian":19779},"geometry":{"type":"Polygon","coordinates":[[[129.3097194163672,36.044901452740085],[129.3097194163672,36.05389465637733],[129.31871262000442,36.05389465637733],[129.31871262000442,36.044901452740085],[129.3097194163672,36.044901452740085]]]}},{"type":"Feature","properties":{"jobs":307,"pop":45,"pointCount":1,"homeWorkCommuteMedian":30361,"workHomeCommuteMedian":29485},"geometry":{"type":"Polygon","coordinates":[[[129.3097194163672,36.11684708183805],[129.3097194163672,36.1258402854753],[129.31871262000442,36.1258402854753],[129.31871262000442,36.11684708183805],[129.3097194163672,36.11684708183805]]]}},{"type":"Feature","properties":{"jobs":1719,"pop":401,"pointCount":1,"homeWorkCommuteMedian":26765,"workHomeCommuteMedian":31389},"geometry":{"type":"Polygon","coordinates":[[[129.31871262000442,35.69416651088749],[129.31871262000442,35.70315971452474],[129.32770582364165,35.70315971452474],[129.32770582364165,35.69416651088749],[129.31871262000442,35.69416651088749]]]}},{"type":"Feature","properties":{"jobs":7717,"pop":1930,"pointCount":4,"homeWorkCommuteMedian":23598,"workHomeCommuteMedian":29511},"geometry":{"type":"Polygon","coordinates":[[[129.31871262000442,35.70315971452474],[129.31871262000442,35.71215291816198],[129.32770582364165,35.71215291816198],[129.32770582364165,35.70315971452474],[129.31871262000442,35.70315971452474]]]}},{"type":"Feature","properties":{"jobs":744,"pop":47,"pointCount":1,"homeWorkCommuteMedian":24555,"workHomeCommuteMedian":20750},"geometry":{"type":"Polygon","coordinates":[[[129.31871262000442,35.82906456544618],[129.31871262000442,35.83805776908343],[129.32770582364165,35.83805776908343],[129.32770582364165,35.82906456544618],[129.31871262000442,35.82906456544618]]]}},{"type":"Feature","properties":{"jobs":3512,"pop":848,"pointCount":3,"homeWorkCommuteMedian":10436,"workHomeCommuteMedian":10284},"geometry":{"type":"Polygon","coordinates":[[[129.31871262000442,35.98194902727936],[129.31871262000442,35.99094223091661],[129.32770582364165,35.99094223091661],[129.32770582364165,35.98194902727936],[129.31871262000442,35.98194902727936]]]}},{"type":"Feature","properties":{"jobs":318,"pop":47,"pointCount":1,"homeWorkCommuteMedian":10872,"workHomeCommuteMedian":13138},"geometry":{"type":"Polygon","coordinates":[[[129.31871262000442,35.99094223091661],[129.31871262000442,35.999935434553855],[129.32770582364165,35.999935434553855],[129.32770582364165,35.99094223091661],[129.31871262000442,35.99094223091661]]]}},{"type":"Feature","properties":{"jobs":13765,"pop":8442,"pointCount":2,"homeWorkCommuteMedian":6033,"workHomeCommuteMedian":5246},"geometry":{"type":"Polygon","coordinates":[[[129.31871262000442,35.999935434553855],[129.31871262000442,36.0089286381911],[129.32770582364165,36.0089286381911],[129.32770582364165,35.999935434553855],[129.31871262000442,35.999935434553855]]]}},{"type":"Feature","properties":{"jobs":4249,"pop":1485,"pointCount":3,"homeWorkCommuteMedian":14551,"workHomeCommuteMedian":14965},"geometry":{"type":"Polygon","coordinates":[[[129.31871262000442,36.0089286381911],[129.31871262000442,36.01792184182835],[129.32770582364165,36.01792184182835],[129.32770582364165,36.0089286381911],[129.31871262000442,36.0089286381911]]]}},{"type":"Feature","properties":{"jobs":2452,"pop":746,"pointCount":3,"homeWorkCommuteMedian":13682,"workHomeCommuteMedian":13179},"geometry":{"type":"Polygon","coordinates":[[[129.31871262000442,36.01792184182835],[129.31871262000442,36.02691504546559],[129.32770582364165,36.02691504546559],[129.32770582364165,36.01792184182835],[129.31871262000442,36.01792184182835]]]}},{"type":"Feature","properties":{"jobs":9670,"pop":5586,"pointCount":3,"homeWorkCommuteMedian":7027,"workHomeCommuteMedian":6573},"geometry":{"type":"Polygon","coordinates":[[[129.31871262000442,36.02691504546559],[129.31871262000442,36.03590824910284],[129.32770582364165,36.03590824910284],[129.32770582364165,36.02691504546559],[129.31871262000442,36.02691504546559]]]}},{"type":"Feature","properties":{"jobs":739,"pop":134,"pointCount":1,"homeWorkCommuteMedian":21094,"workHomeCommuteMedian":20275},"geometry":{"type":"Polygon","coordinates":[[[129.31871262000442,36.06288786001458],[129.31871262000442,36.07188106365182],[129.32770582364165,36.07188106365182],[129.32770582364165,36.06288786001458],[129.31871262000442,36.06288786001458]]]}},{"type":"Feature","properties":{"jobs":657,"pop":717,"pointCount":1,"homeWorkCommuteMedian":22311,"workHomeCommuteMedian":22862},"geometry":{"type":"Polygon","coordinates":[[[129.31871262000442,36.07188106365182],[129.31871262000442,36.08087426728907],[129.32770582364165,36.08087426728907],[129.32770582364165,36.07188106365182],[129.31871262000442,36.07188106365182]]]}},{"type":"Feature","properties":{"jobs":307,"pop":45,"pointCount":1,"homeWorkCommuteMedian":27646,"workHomeCommuteMedian":27867},"geometry":{"type":"Polygon","coordinates":[[[129.31871262000442,36.10785387820081],[129.31871262000442,36.11684708183805],[129.32770582364165,36.11684708183805],[129.32770582364165,36.10785387820081],[129.31871262000442,36.10785387820081]]]}},{"type":"Feature","properties":{"jobs":413,"pop":260,"pointCount":1,"homeWorkCommuteMedian":30037,"workHomeCommuteMedian":29111},"geometry":{"type":"Polygon","coordinates":[[[129.31871262000442,36.1258402854753],[129.31871262000442,36.134833489112545],[129.32770582364165,36.134833489112545],[129.32770582364165,36.1258402854753],[129.31871262000442,36.1258402854753]]]}},{"type":"Feature","properties":{"jobs":225,"pop":200,"pointCount":1,"homeWorkCommuteMedian":50626,"workHomeCommuteMedian":-1},"geometry":{"type":"Polygon","coordinates":[[[129.31871262000442,36.134833489112545],[129.31871262000442,36.14382669274979],[129.32770582364165,36.14382669274979],[129.32770582364165,36.134833489112545],[129.31871262000442,36.134833489112545]]]}},{"type":"Feature","properties":{"jobs":4102,"pop":1041,"pointCount":2,"homeWorkCommuteMedian":26015,"workHomeCommuteMedian":27558},"geometry":{"type":"Polygon","coordinates":[[[129.32770582364165,35.70315971452474],[129.32770582364165,35.71215291816198],[129.33669902727888,35.71215291816198],[129.33669902727888,35.70315971452474],[129.32770582364165,35.70315971452474]]]}},{"type":"Feature","properties":{"jobs":558,"pop":20,"pointCount":1,"homeWorkCommuteMedian":23329,"workHomeCommuteMedian":23367},"geometry":{"type":"Polygon","coordinates":[[[129.32770582364165,35.775105343622705],[129.32770582364165,35.78409854725995],[129.33669902727888,35.78409854725995],[129.33669902727888,35.775105343622705],[129.32770582364165,35.775105343622705]]]}},{"type":"Feature","properties":{"jobs":3877,"pop":1157,"pointCount":2,"homeWorkCommuteMedian":10923,"workHomeCommuteMedian":11297},"geometry":{"type":"Polygon","coordinates":[[[129.32770582364165,35.98194902727936],[129.32770582364165,35.99094223091661],[129.33669902727888,35.99094223091661],[129.33669902727888,35.98194902727936],[129.32770582364165,35.98194902727936]]]}},{"type":"Feature","properties":{"jobs":6628,"pop":10906,"pointCount":3,"homeWorkCommuteMedian":5637,"workHomeCommuteMedian":5974},"geometry":{"type":"Polygon","coordinates":[[[129.32770582364165,36.0089286381911],[129.32770582364165,36.01792184182835],[129.33669902727888,36.01792184182835],[129.33669902727888,36.0089286381911],[129.32770582364165,36.0089286381911]]]}},{"type":"Feature","properties":{"jobs":898,"pop":429,"pointCount":1,"homeWorkCommuteMedian":10903,"workHomeCommuteMedian":10915},"geometry":{"type":"Polygon","coordinates":[[[129.32770582364165,36.01792184182835],[129.32770582364165,36.02691504546559],[129.33669902727888,36.02691504546559],[129.33669902727888,36.01792184182835],[129.32770582364165,36.01792184182835]]]}},{"type":"Feature","properties":{"jobs":539,"pop":66,"pointCount":2,"homeWorkCommuteMedian":16325,"workHomeCommuteMedian":12577},"geometry":{"type":"Polygon","coordinates":[[[129.32770582364165,36.02691504546559],[129.32770582364165,36.03590824910284],[129.33669902727888,36.03590824910284],[129.33669902727888,36.02691504546559],[129.32770582364165,36.02691504546559]]]}},{"type":"Feature","properties":{"jobs":3509,"pop":2120,"pointCount":2,"homeWorkCommuteMedian":11731,"workHomeCommuteMedian":20387},"geometry":{"type":"Polygon","coordinates":[[[129.32770582364165,36.06288786001458],[129.32770582364165,36.07188106365182],[129.33669902727888,36.07188106365182],[129.33669902727888,36.06288786001458],[129.32770582364165,36.06288786001458]]]}},{"type":"Feature","properties":{"jobs":3988,"pop":1334,"pointCount":3,"homeWorkCommuteMedian":21854,"workHomeCommuteMedian":21553},"geometry":{"type":"Polygon","coordinates":[[[129.32770582364165,36.07188106365182],[129.32770582364165,36.08087426728907],[129.33669902727888,36.08087426728907],[129.33669902727888,36.07188106365182],[129.32770582364165,36.07188106365182]]]}},{"type":"Feature","properties":{"jobs":8115,"pop":3797,"pointCount":4,"homeWorkCommuteMedian":14949,"workHomeCommuteMedian":14348},"geometry":{"type":"Polygon","coordinates":[[[129.32770582364165,36.089867470926315],[129.32770582364165,36.09886067456356],[129.33669902727888,36.09886067456356],[129.33669902727888,36.089867470926315],[129.32770582364165,36.089867470926315]]]}},{"type":"Feature","properties":{"jobs":930,"pop":255,"pointCount":1,"homeWorkCommuteMedian":22681,"workHomeCommuteMedian":22507},"geometry":{"type":"Polygon","coordinates":[[[129.32770582364165,36.10785387820081],[129.32770582364165,36.11684708183805],[129.33669902727888,36.11684708183805],[129.33669902727888,36.10785387820081],[129.32770582364165,36.10785387820081]]]}},{"type":"Feature","properties":{"jobs":696,"pop":45,"pointCount":1,"homeWorkCommuteMedian":36796,"workHomeCommuteMedian":37203},"geometry":{"type":"Polygon","coordinates":[[[129.33669902727888,35.71215291816198],[129.33669902727888,35.72114612179923],[129.34569223091611,35.72114612179923],[129.34569223091611,35.71215291816198],[129.33669902727888,35.71215291816198]]]}},{"type":"Feature","properties":{"jobs":121,"pop":195,"pointCount":1,"homeWorkCommuteMedian":9408,"workHomeCommuteMedian":-1},"geometry":{"type":"Polygon","coordinates":[[[129.33669902727888,35.954969416367625],[129.33669902727888,35.96396262000487],[129.34569223091611,35.96396262000487],[129.34569223091611,35.954969416367625],[129.33669902727888,35.954969416367625]]]}},{"type":"Feature","properties":{"jobs":599,"pop":108,"pointCount":1,"homeWorkCommuteMedian":9169,"workHomeCommuteMedian":10012},"geometry":{"type":"Polygon","coordinates":[[[129.33669902727888,35.96396262000487],[129.33669902727888,35.97295582364212],[129.34569223091611,35.97295582364212],[129.34569223091611,35.96396262000487],[129.33669902727888,35.96396262000487]]]}},{"type":"Feature","properties":{"jobs":303,"pop":44,"pointCount":1,"homeWorkCommuteMedian":10651,"workHomeCommuteMedian":11575},"geometry":{"type":"Polygon","coordinates":[[[129.33669902727888,35.98194902727936],[129.33669902727888,35.99094223091661],[129.34569223091611,35.99094223091661],[129.34569223091611,35.98194902727936],[129.33669902727888,35.98194902727936]]]}},{"type":"Feature","properties":{"jobs":6631,"pop":3403,"pointCount":3,"homeWorkCommuteMedian":6993,"workHomeCommuteMedian":6993},"geometry":{"type":"Polygon","coordinates":[[[129.33669902727888,35.99094223091661],[129.33669902727888,35.999935434553855],[129.34569223091611,35.999935434553855],[129.34569223091611,35.99094223091661],[129.33669902727888,35.99094223091661]]]}},{"type":"Feature","properties":{"jobs":6061,"pop":3233,"pointCount":3,"homeWorkCommuteMedian":5568,"workHomeCommuteMedian":5444},"geometry":{"type":"Polygon","coordinates":[[[129.33669902727888,35.999935434553855],[129.33669902727888,36.0089286381911],[129.34569223091611,36.0089286381911],[129.34569223091611,35.999935434553855],[129.33669902727888,35.999935434553855]]]}},{"type":"Feature","properties":{"jobs":5121,"pop":1553,"pointCount":5,"homeWorkCommuteMedian":4851,"workHomeCommuteMedian":6137},"geometry":{"type":"Polygon","coordinates":[[[129.33669902727888,36.0089286381911],[129.33669902727888,36.01792184182835],[129.34569223091611,36.01792184182835],[129.34569223091611,36.0089286381911],[129.33669902727888,36.0089286381911]]]}},{"type":"Feature","properties":{"jobs":5744,"pop":2602,"pointCount":4,"homeWorkCommuteMedian":4944,"workHomeCommuteMedian":4691},"geometry":{"type":"Polygon","coordinates":[[[129.33669902727888,36.01792184182835],[129.33669902727888,36.02691504546559],[129.34569223091611,36.02691504546559],[129.34569223091611,36.01792184182835],[129.33669902727888,36.01792184182835]]]}},{"type":"Feature","properties":{"jobs":7506,"pop":3439,"pointCount":4,"homeWorkCommuteMedian":7572,"workHomeCommuteMedian":6447},"geometry":{"type":"Polygon","coordinates":[[[129.33669902727888,36.02691504546559],[129.33669902727888,36.03590824910284],[129.34569223091611,36.03590824910284],[129.34569223091611,36.02691504546559],[129.33669902727888,36.02691504546559]]]}},{"type":"Feature","properties":{"jobs":1273,"pop":632,"pointCount":2,"homeWorkCommuteMedian":14562,"workHomeCommuteMedian":16099},"geometry":{"type":"Polygon","coordinates":[[[129.33669902727888,36.03590824910284],[129.33669902727888,36.044901452740085],[129.34569223091611,36.044901452740085],[129.34569223091611,36.03590824910284],[129.33669902727888,36.03590824910284]]]}},{"type":"Feature","properties":{"jobs":424,"pop":62,"pointCount":1,"homeWorkCommuteMedian":20237,"workHomeCommuteMedian":20356},"geometry":{"type":"Polygon","coordinates":[[[129.33669902727888,36.044901452740085],[129.33669902727888,36.05389465637733],[129.34569223091611,36.05389465637733],[129.34569223091611,36.044901452740085],[129.33669902727888,36.044901452740085]]]}},{"type":"Feature","properties":{"jobs":8374,"pop":0,"pointCount":1,"homeWorkCommuteMedian":-1,"workHomeCommuteMedian":12124},"geometry":{"type":"Polygon","coordinates":[[[129.33669902727888,36.06288786001458],[129.33669902727888,36.07188106365182],[129.34569223091611,36.07188106365182],[129.34569223091611,36.06288786001458],[129.33669902727888,36.06288786001458]]]}},{"type":"Feature","properties":{"jobs":375,"pop":55,"pointCount":1,"homeWorkCommuteMedian":23159,"workHomeCommuteMedian":21852},"geometry":{"type":"Polygon","coordinates":[[[129.33669902727888,36.07188106365182],[129.33669902727888,36.08087426728907],[129.34569223091611,36.08087426728907],[129.34569223091611,36.07188106365182],[129.33669902727888,36.07188106365182]]]}},{"type":"Feature","properties":{"jobs":488,"pop":72,"pointCount":1,"homeWorkCommuteMedian":23631,"workHomeCommuteMedian":24082},"geometry":{"type":"Polygon","coordinates":[[[129.33669902727888,36.089867470926315],[129.33669902727888,36.09886067456356],[129.34569223091611,36.09886067456356],[129.34569223091611,36.089867470926315],[129.33669902727888,36.089867470926315]]]}},{"type":"Feature","properties":{"jobs":523,"pop":77,"pointCount":1,"homeWorkCommuteMedian":25987,"workHomeCommuteMedian":25954},"geometry":{"type":"Polygon","coordinates":[[[129.33669902727888,36.09886067456356],[129.33669902727888,36.10785387820081],[129.34569223091611,36.10785387820081],[129.34569223091611,36.09886067456356],[129.33669902727888,36.09886067456356]]]}},{"type":"Feature","properties":{"jobs":348,"pop":51,"pointCount":1,"homeWorkCommuteMedian":26004,"workHomeCommuteMedian":26360},"geometry":{"type":"Polygon","coordinates":[[[129.33669902727888,36.10785387820081],[129.33669902727888,36.11684708183805],[129.34569223091611,36.11684708183805],[129.34569223091611,36.10785387820081],[129.33669902727888,36.10785387820081]]]}},{"type":"Feature","properties":{"jobs":352,"pop":51,"pointCount":1,"homeWorkCommuteMedian":8845,"workHomeCommuteMedian":7672},"geometry":{"type":"Polygon","coordinates":[[[129.34569223091611,35.96396262000487],[129.34569223091611,35.97295582364212],[129.35468543455335,35.97295582364212],[129.35468543455335,35.96396262000487],[129.34569223091611,35.96396262000487]]]}},{"type":"Feature","properties":{"jobs":913,"pop":341,"pointCount":2,"homeWorkCommuteMedian":7973,"workHomeCommuteMedian":8185},"geometry":{"type":"Polygon","coordinates":[[[129.34569223091611,35.97295582364212],[129.34569223091611,35.98194902727936],[129.35468543455335,35.98194902727936],[129.35468543455335,35.97295582364212],[129.34569223091611,35.97295582364212]]]}},{"type":"Feature","properties":{"jobs":6780,"pop":2855,"pointCount":4,"homeWorkCommuteMedian":6993,"workHomeCommuteMedian":7433},"geometry":{"type":"Polygon","coordinates":[[[129.34569223091611,35.99094223091661],[129.34569223091611,35.999935434553855],[129.35468543455335,35.999935434553855],[129.35468543455335,35.99094223091661],[129.34569223091611,35.99094223091661]]]}},{"type":"Feature","properties":{"jobs":13999,"pop":2756,"pointCount":5,"homeWorkCommuteMedian":6332,"workHomeCommuteMedian":6519},"geometry":{"type":"Polygon","coordinates":[[[129.34569223091611,36.0089286381911],[129.34569223091611,36.01792184182835],[129.35468543455335,36.01792184182835],[129.35468543455335,36.0089286381911],[129.34569223091611,36.0089286381911]]]}},{"type":"Feature","properties":{"jobs":5610,"pop":1883,"pointCount":4,"homeWorkCommuteMedian":4817,"workHomeCommuteMedian":5637},"geometry":{"type":"Polygon","coordinates":[[[129.34569223091611,36.01792184182835],[129.34569223091611,36.02691504546559],[129.35468543455335,36.02691504546559],[129.35468543455335,36.01792184182835],[129.34569223091611,36.01792184182835]]]}},{"type":"Feature","properties":{"jobs":4536,"pop":1740,"pointCount":4,"homeWorkCommuteMedian":12067,"workHomeCommuteMedian":12071},"geometry":{"type":"Polygon","coordinates":[[[129.34569223091611,36.02691504546559],[129.34569223091611,36.03590824910284],[129.35468543455335,36.03590824910284],[129.35468543455335,36.02691504546559],[129.34569223091611,36.02691504546559]]]}},{"type":"Feature","properties":{"jobs":5576,"pop":2753,"pointCount":4,"homeWorkCommuteMedian":8202,"workHomeCommuteMedian":8254},"geometry":{"type":"Polygon","coordinates":[[[129.34569223091611,36.03590824910284],[129.34569223091611,36.044901452740085],[129.35468543455335,36.044901452740085],[129.35468543455335,36.03590824910284],[129.34569223091611,36.03590824910284]]]}},{"type":"Feature","properties":{"jobs":597,"pop":255,"pointCount":2,"homeWorkCommuteMedian":14701,"workHomeCommuteMedian":17271},"geometry":{"type":"Polygon","coordinates":[[[129.34569223091611,36.044901452740085],[129.34569223091611,36.05389465637733],[129.35468543455335,36.05389465637733],[129.35468543455335,36.044901452740085],[129.34569223091611,36.044901452740085]]]}},{"type":"Feature","properties":{"jobs":252,"pop":20,"pointCount":1,"homeWorkCommuteMedian":26133,"workHomeCommuteMedian":25454},"geometry":{"type":"Polygon","coordinates":[[[129.34569223091611,36.09886067456356],[129.34569223091611,36.10785387820081],[129.35468543455335,36.10785387820081],[129.35468543455335,36.09886067456356],[129.34569223091611,36.09886067456356]]]}},{"type":"Feature","properties":{"jobs":272,"pop":21,"pointCount":1,"homeWorkCommuteMedian":26236,"workHomeCommuteMedian":26435},"geometry":{"type":"Polygon","coordinates":[[[129.34569223091611,36.10785387820081],[129.34569223091611,36.11684708183805],[129.35468543455335,36.11684708183805],[129.35468543455335,36.10785387820081],[129.34569223091611,36.10785387820081]]]}},{"type":"Feature","properties":{"jobs":276,"pop":21,"pointCount":1,"homeWorkCommuteMedian":5586,"workHomeCommuteMedian":5560},"geometry":{"type":"Polygon","coordinates":[[[129.35468543455335,35.94597621273038],[129.35468543455335,35.954969416367625],[129.36367863819058,35.954969416367625],[129.36367863819058,35.94597621273038],[129.35468543455335,35.94597621273038]]]}},{"type":"Feature","properties":{"jobs":1916,"pop":603,"pointCount":2,"homeWorkCommuteMedian":8185,"workHomeCommuteMedian":7531},"geometry":{"type":"Polygon","coordinates":[[[129.35468543455335,35.96396262000487],[129.35468543455335,35.97295582364212],[129.36367863819058,35.97295582364212],[129.36367863819058,35.96396262000487],[129.35468543455335,35.96396262000487]]]}},{"type":"Feature","properties":{"jobs":897,"pop":229,"pointCount":1,"homeWorkCommuteMedian":7112,"workHomeCommuteMedian":7233},"geometry":{"type":"Polygon","coordinates":[[[129.35468543455335,35.97295582364212],[129.35468543455335,35.98194902727936],[129.36367863819058,35.98194902727936],[129.36367863819058,35.97295582364212],[129.35468543455335,35.97295582364212]]]}},{"type":"Feature","properties":{"jobs":1358,"pop":335,"pointCount":2,"homeWorkCommuteMedian":6993,"workHomeCommuteMedian":7564},"geometry":{"type":"Polygon","coordinates":[[[129.35468543455335,35.98194902727936],[129.35468543455335,35.99094223091661],[129.36367863819058,35.99094223091661],[129.36367863819058,35.98194902727936],[129.35468543455335,35.98194902727936]]]}},{"type":"Feature","properties":{"jobs":7824,"pop":3348,"pointCount":5,"homeWorkCommuteMedian":7818,"workHomeCommuteMedian":7818},"geometry":{"type":"Polygon","coordinates":[[[129.35468543455335,36.0089286381911],[129.35468543455335,36.01792184182835],[129.36367863819058,36.01792184182835],[129.36367863819058,36.0089286381911],[129.35468543455335,36.0089286381911]]]}},{"type":"Feature","properties":{"jobs":8799,"pop":4209,"pointCount":4,"homeWorkCommuteMedian":7762,"workHomeCommuteMedian":7131},"geometry":{"type":"Polygon","coordinates":[[[129.35468543455335,36.01792184182835],[129.35468543455335,36.02691504546559],[129.36367863819058,36.02691504546559],[129.36367863819058,36.01792184182835],[129.35468543455335,36.01792184182835]]]}},{"type":"Feature","properties":{"jobs":9556,"pop":4963,"pointCount":5,"homeWorkCommuteMedian":7352,"workHomeCommuteMedian":7564},"geometry":{"type":"Polygon","coordinates":[[[129.35468543455335,36.02691504546559],[129.35468543455335,36.03590824910284],[129.36367863819058,36.03590824910284],[129.36367863819058,36.02691504546559],[129.35468543455335,36.02691504546559]]]}},{"type":"Feature","properties":{"jobs":259,"pop":20,"pointCount":1,"homeWorkCommuteMedian":15352,"workHomeCommuteMedian":15352},"geometry":{"type":"Polygon","coordinates":[[[129.35468543455335,36.03590824910284],[129.35468543455335,36.044901452740085],[129.36367863819058,36.044901452740085],[129.36367863819058,36.03590824910284],[129.35468543455335,36.03590824910284]]]}},{"type":"Feature","properties":{"jobs":633,"pop":92,"pointCount":2,"homeWorkCommuteMedian":16265,"workHomeCommuteMedian":15585},"geometry":{"type":"Polygon","coordinates":[[[129.35468543455335,36.044901452740085],[129.35468543455335,36.05389465637733],[129.36367863819058,36.05389465637733],[129.36367863819058,36.044901452740085],[129.35468543455335,36.044901452740085]]]}},{"type":"Feature","properties":{"jobs":430,"pop":263,"pointCount":1,"homeWorkCommuteMedian":15874,"workHomeCommuteMedian":17828},"geometry":{"type":"Polygon","coordinates":[[[129.35468543455335,36.05389465637733],[129.35468543455335,36.06288786001458],[129.36367863819058,36.06288786001458],[129.36367863819058,36.05389465637733],[129.35468543455335,36.05389465637733]]]}},{"type":"Feature","properties":{"jobs":216,"pop":200,"pointCount":1,"homeWorkCommuteMedian":6519,"workHomeCommuteMedian":-1},"geometry":{"type":"Polygon","coordinates":[[[129.35468543455335,36.06288786001458],[129.35468543455335,36.07188106365182],[129.36367863819058,36.07188106365182],[129.36367863819058,36.06288786001458],[129.35468543455335,36.06288786001458]]]}},{"type":"Feature","properties":{"jobs":511,"pop":75,"pointCount":1,"homeWorkCommuteMedian":6332,"workHomeCommuteMedian":6241},"geometry":{"type":"Polygon","coordinates":[[[129.36367863819058,35.94597621273038],[129.36367863819058,35.954969416367625],[129.3726718418278,35.954969416367625],[129.3726718418278,35.94597621273038],[129.36367863819058,35.94597621273038]]]}},{"type":"Feature","properties":{"jobs":1696,"pop":781,"pointCount":3,"homeWorkCommuteMedian":6533,"workHomeCommuteMedian":6624},"geometry":{"type":"Polygon","coordinates":[[[129.36367863819058,35.98194902727936],[129.36367863819058,35.99094223091661],[129.3726718418278,35.99094223091661],[129.3726718418278,35.98194902727936],[129.36367863819058,35.98194902727936]]]}},{"type":"Feature","properties":{"jobs":264,"pop":20,"pointCount":1,"homeWorkCommuteMedian":7521,"workHomeCommuteMedian":7521},"geometry":{"type":"Polygon","coordinates":[[[129.36367863819058,35.99094223091661],[129.36367863819058,35.999935434553855],[129.3726718418278,35.999935434553855],[129.3726718418278,35.99094223091661],[129.36367863819058,35.99094223091661]]]}},{"type":"Feature","properties":{"jobs":5034,"pop":2185,"pointCount":3,"homeWorkCommuteMedian":9761,"workHomeCommuteMedian":9994},"geometry":{"type":"Polygon","coordinates":[[[129.36367863819058,36.0089286381911],[129.36367863819058,36.01792184182835],[129.3726718418278,36.01792184182835],[129.3726718418278,36.0089286381911],[129.36367863819058,36.0089286381911]]]}},{"type":"Feature","properties":{"jobs":12749,"pop":6027,"pointCount":4,"homeWorkCommuteMedian":9117,"workHomeCommuteMedian":8482},"geometry":{"type":"Polygon","coordinates":[[[129.36367863819058,36.01792184182835],[129.36367863819058,36.02691504546559],[129.3726718418278,36.02691504546559],[129.3726718418278,36.01792184182835],[129.36367863819058,36.01792184182835]]]}},{"type":"Feature","properties":{"jobs":4498,"pop":1752,"pointCount":2,"homeWorkCommuteMedian":9740,"workHomeCommuteMedian":9090},"geometry":{"type":"Polygon","coordinates":[[[129.36367863819058,36.02691504546559],[129.36367863819058,36.03590824910284],[129.3726718418278,36.03590824910284],[129.3726718418278,36.02691504546559],[129.36367863819058,36.02691504546559]]]}},{"type":"Feature","properties":{"jobs":361,"pop":1677,"pointCount":2,"homeWorkCommuteMedian":11508,"workHomeCommuteMedian":13763},"geometry":{"type":"Polygon","coordinates":[[[129.36367863819058,36.044901452740085],[129.36367863819058,36.05389465637733],[129.3726718418278,36.05389465637733],[129.3726718418278,36.044901452740085],[129.36367863819058,36.044901452740085]]]}},{"type":"Feature","properties":{"jobs":1593,"pop":707,"pointCount":3,"homeWorkCommuteMedian":15833,"workHomeCommuteMedian":15917},"geometry":{"type":"Polygon","coordinates":[[[129.36367863819058,36.05389465637733],[129.36367863819058,36.06288786001458],[129.3726718418278,36.06288786001458],[129.3726718418278,36.05389465637733],[129.36367863819058,36.05389465637733]]]}},{"type":"Feature","properties":{"jobs":2930,"pop":599,"pointCount":4,"homeWorkCommuteMedian":16437,"workHomeCommuteMedian":16651},"geometry":{"type":"Polygon","coordinates":[[[129.36367863819058,36.06288786001458],[129.36367863819058,36.07188106365182],[129.3726718418278,36.07188106365182],[129.3726718418278,36.06288786001458],[129.36367863819058,36.06288786001458]]]}},{"type":"Feature","properties":{"jobs":4593,"pop":1834,"pointCount":1,"homeWorkCommuteMedian":19341,"workHomeCommuteMedian":18997},"geometry":{"type":"Polygon","coordinates":[[[129.3726718418278,35.90101019454415],[129.3726718418278,35.910003398181395],[129.38166504546504,35.910003398181395],[129.38166504546504,35.90101019454415],[129.3726718418278,35.90101019454415]]]}},{"type":"Feature","properties":{"jobs":582,"pop":69,"pointCount":2,"homeWorkCommuteMedian":6447,"workHomeCommuteMedian":6686},"geometry":{"type":"Polygon","coordinates":[[[129.3726718418278,35.98194902727936],[129.3726718418278,35.99094223091661],[129.38166504546504,35.99094223091661],[129.38166504546504,35.98194902727936],[129.3726718418278,35.98194902727936]]]}},{"type":"Feature","properties":{"jobs":1891,"pop":643,"pointCount":1,"homeWorkCommuteMedian":7531,"workHomeCommuteMedian":9197},"geometry":{"type":"Polygon","coordinates":[[[129.3726718418278,36.01792184182835],[129.3726718418278,36.02691504546559],[129.38166504546504,36.02691504546559],[129.38166504546504,36.01792184182835],[129.3726718418278,36.01792184182835]]]}},{"type":"Feature","properties":{"jobs":619,"pop":72,"pointCount":2,"homeWorkCommuteMedian":12731,"workHomeCommuteMedian":13209},"geometry":{"type":"Polygon","coordinates":[[[129.3726718418278,36.02691504546559],[129.3726718418278,36.03590824910284],[129.38166504546504,36.03590824910284],[129.38166504546504,36.02691504546559],[129.3726718418278,36.02691504546559]]]}},{"type":"Feature","properties":{"jobs":288,"pop":189,"pointCount":1,"homeWorkCommuteMedian":13551,"workHomeCommuteMedian":14315},"geometry":{"type":"Polygon","coordinates":[[[129.3726718418278,36.03590824910284],[129.3726718418278,36.044901452740085],[129.38166504546504,36.044901452740085],[129.38166504546504,36.03590824910284],[129.3726718418278,36.03590824910284]]]}},{"type":"Feature","properties":{"jobs":395,"pop":58,"pointCount":1,"homeWorkCommuteMedian":16812,"workHomeCommuteMedian":16419},"geometry":{"type":"Polygon","coordinates":[[[129.3726718418278,36.05389465637733],[129.3726718418278,36.06288786001458],[129.38166504546504,36.06288786001458],[129.38166504546504,36.05389465637733],[129.3726718418278,36.05389465637733]]]}},{"type":"Feature","properties":{"jobs":1917,"pop":303,"pointCount":4,"homeWorkCommuteMedian":16905,"workHomeCommuteMedian":17531},"geometry":{"type":"Polygon","coordinates":[[[129.3726718418278,36.06288786001458],[129.3726718418278,36.07188106365182],[129.38166504546504,36.07188106365182],[129.38166504546504,36.06288786001458],[129.3726718418278,36.06288786001458]]]}},{"type":"Feature","properties":{"jobs":604,"pop":111,"pointCount":1,"homeWorkCommuteMedian":18090,"workHomeCommuteMedian":17767},"geometry":{"type":"Polygon","coordinates":[[[129.3726718418278,36.07188106365182],[129.3726718418278,36.08087426728907],[129.38166504546504,36.08087426728907],[129.38166504546504,36.07188106365182],[129.3726718418278,36.07188106365182]]]}},{"type":"Feature","properties":{"jobs":409,"pop":60,"pointCount":1,"homeWorkCommuteMedian":20435,"workHomeCommuteMedian":21394},"geometry":{"type":"Polygon","coordinates":[[[129.3726718418278,36.08087426728907],[129.3726718418278,36.089867470926315],[129.38166504546504,36.089867470926315],[129.38166504546504,36.08087426728907],[129.3726718418278,36.08087426728907]]]}},{"type":"Feature","properties":{"jobs":549,"pop":5820,"pointCount":1,"homeWorkCommuteMedian":14940,"workHomeCommuteMedian":14477},"geometry":{"type":"Polygon","coordinates":[[[129.38166504546504,35.92798980545589],[129.38166504546504,35.93698300909313],[129.39065824910227,35.93698300909313],[129.39065824910227,35.92798980545589],[129.38166504546504,35.92798980545589]]]}},{"type":"Feature","properties":{"jobs":784,"pop":183,"pointCount":1,"homeWorkCommuteMedian":17538,"workHomeCommuteMedian":17425},"geometry":{"type":"Polygon","coordinates":[[[129.38166504546504,36.06288786001458],[129.38166504546504,36.07188106365182],[129.39065824910227,36.07188106365182],[129.39065824910227,36.06288786001458],[129.38166504546504,36.06288786001458]]]}},{"type":"Feature","properties":{"jobs":561,"pop":424,"pointCount":2,"homeWorkCommuteMedian":19631,"workHomeCommuteMedian":20471},"geometry":{"type":"Polygon","coordinates":[[[129.38166504546504,36.08087426728907],[129.38166504546504,36.089867470926315],[129.39065824910227,36.089867470926315],[129.39065824910227,36.08087426728907],[129.38166504546504,36.08087426728907]]]}},{"type":"Feature","properties":{"jobs":508,"pop":0,"pointCount":1,"homeWorkCommuteMedian":-1,"workHomeCommuteMedian":11508},"geometry":{"type":"Polygon","coordinates":[[[129.38166504546504,36.09886067456356],[129.38166504546504,36.10785387820081],[129.39065824910227,36.10785387820081],[129.39065824910227,36.09886067456356],[129.38166504546504,36.09886067456356]]]}},{"type":"Feature","properties":{"jobs":760,"pop":223,"pointCount":2,"homeWorkCommuteMedian":24995,"workHomeCommuteMedian":18047},"geometry":{"type":"Polygon","coordinates":[[[129.39065824910227,35.92798980545589],[129.39065824910227,35.93698300909313],[129.3996514527395,35.93698300909313],[129.3996514527395,35.92798980545589],[129.39065824910227,35.92798980545589]]]}},{"type":"Feature","properties":{"jobs":11822,"pop":5226,"pointCount":3,"homeWorkCommuteMedian":15306,"workHomeCommuteMedian":15009},"geometry":{"type":"Polygon","coordinates":[[[129.39065824910227,35.93698300909313],[129.39065824910227,35.94597621273038],[129.3996514527395,35.94597621273038],[129.3996514527395,35.93698300909313],[129.39065824910227,35.93698300909313]]]}},{"type":"Feature","properties":{"jobs":13200,"pop":7475,"pointCount":2,"homeWorkCommuteMedian":11908,"workHomeCommuteMedian":11888},"geometry":{"type":"Polygon","coordinates":[[[129.39065824910227,35.954969416367625],[129.39065824910227,35.96396262000487],[129.3996514527395,35.96396262000487],[129.3996514527395,35.954969416367625],[129.39065824910227,35.954969416367625]]]}},{"type":"Feature","properties":{"jobs":1853,"pop":670,"pointCount":2,"homeWorkCommuteMedian":4750,"workHomeCommuteMedian":4422},"geometry":{"type":"Polygon","coordinates":[[[129.39065824910227,35.96396262000487],[129.39065824910227,35.97295582364212],[129.3996514527395,35.97295582364212],[129.3996514527395,35.96396262000487],[129.39065824910227,35.96396262000487]]]}},{"type":"Feature","properties":{"jobs":423,"pop":62,"pointCount":1,"homeWorkCommuteMedian":3073,"workHomeCommuteMedian":3765},"geometry":{"type":"Polygon","coordinates":[[[129.39065824910227,35.97295582364212],[129.39065824910227,35.98194902727936],[129.3996514527395,35.98194902727936],[129.3996514527395,35.97295582364212],[129.39065824910227,35.97295582364212]]]}},{"type":"Feature","properties":{"jobs":1819,"pop":713,"pointCount":2,"homeWorkCommuteMedian":9801,"workHomeCommuteMedian":9788},"geometry":{"type":"Polygon","coordinates":[[[129.39065824910227,35.98194902727936],[129.39065824910227,35.99094223091661],[129.3996514527395,35.99094223091661],[129.3996514527395,35.98194902727936],[129.39065824910227,35.98194902727936]]]}},{"type":"Feature","properties":{"jobs":309,"pop":45,"pointCount":1,"homeWorkCommuteMedian":6634,"workHomeCommuteMedian":7683},"geometry":{"type":"Polygon","coordinates":[[[129.39065824910227,35.99094223091661],[129.39065824910227,35.999935434553855],[129.3996514527395,35.999935434553855],[129.3996514527395,35.99094223091661],[129.39065824910227,35.99094223091661]]]}},{"type":"Feature","properties":{"jobs":1793,"pop":402,"pointCount":3,"homeWorkCommuteMedian":19697,"workHomeCommuteMedian":19773},"geometry":{"type":"Polygon","coordinates":[[[129.39065824910227,36.08087426728907],[129.39065824910227,36.089867470926315],[129.3996514527395,36.089867470926315],[129.3996514527395,36.08087426728907],[129.39065824910227,36.08087426728907]]]}},{"type":"Feature","properties":{"jobs":9656,"pop":3996,"pointCount":2,"homeWorkCommuteMedian":14701,"workHomeCommuteMedian":14443},"geometry":{"type":"Polygon","coordinates":[[[129.3996514527395,35.93698300909313],[129.3996514527395,35.94597621273038],[129.40864465637674,35.94597621273038],[129.40864465637674,35.93698300909313],[129.3996514527395,35.93698300909313]]]}},{"type":"Feature","properties":{"jobs":3266,"pop":27240,"pointCount":2,"homeWorkCommuteMedian":13375,"workHomeCommuteMedian":13792},"geometry":{"type":"Polygon","coordinates":[[[129.3996514527395,35.94597621273038],[129.3996514527395,35.954969416367625],[129.40864465637674,35.954969416367625],[129.40864465637674,35.94597621273038],[129.3996514527395,35.94597621273038]]]}},{"type":"Feature","properties":{"jobs":35438,"pop":23458,"pointCount":3,"homeWorkCommuteMedian":13007,"workHomeCommuteMedian":12654},"geometry":{"type":"Polygon","coordinates":[[[129.3996514527395,35.954969416367625],[129.3996514527395,35.96396262000487],[129.40864465637674,35.96396262000487],[129.40864465637674,35.954969416367625],[129.3996514527395,35.954969416367625]]]}},{"type":"Feature","properties":{"jobs":943,"pop":319,"pointCount":3,"homeWorkCommuteMedian":2164,"workHomeCommuteMedian":1678},"geometry":{"type":"Polygon","coordinates":[[[129.3996514527395,35.96396262000487],[129.3996514527395,35.97295582364212],[129.40864465637674,35.97295582364212],[129.40864465637674,35.96396262000487],[129.3996514527395,35.96396262000487]]]}},{"type":"Feature","properties":{"jobs":574,"pop":65,"pointCount":2,"homeWorkCommuteMedian":3565,"workHomeCommuteMedian":3125},"geometry":{"type":"Polygon","coordinates":[[[129.3996514527395,35.97295582364212],[129.3996514527395,35.98194902727936],[129.40864465637674,35.98194902727936],[129.40864465637674,35.97295582364212],[129.3996514527395,35.97295582364212]]]}},{"type":"Feature","properties":{"jobs":349,"pop":51,"pointCount":1,"homeWorkCommuteMedian":3849,"workHomeCommuteMedian":4895},"geometry":{"type":"Polygon","coordinates":[[[129.3996514527395,35.98194902727936],[129.3996514527395,35.99094223091661],[129.40864465637674,35.99094223091661],[129.40864465637674,35.98194902727936],[129.3996514527395,35.98194902727936]]]}},{"type":"Feature","properties":{"jobs":13,"pop":8,"pointCount":1,"homeWorkCommuteMedian":10255,"workHomeCommuteMedian":-1},"geometry":{"type":"Polygon","coordinates":[[[129.3996514527395,36.07188106365182],[129.3996514527395,36.08087426728907],[129.40864465637674,36.08087426728907],[129.40864465637674,36.07188106365182],[129.3996514527395,36.07188106365182]]]}},{"type":"Feature","properties":{"jobs":713,"pop":130,"pointCount":1,"homeWorkCommuteMedian":19580,"workHomeCommuteMedian":19580},"geometry":{"type":"Polygon","coordinates":[[[129.3996514527395,36.08087426728907],[129.3996514527395,36.089867470926315],[129.40864465637674,36.089867470926315],[129.40864465637674,36.08087426728907],[129.3996514527395,36.08087426728907]]]}},{"type":"Feature","properties":{"jobs":341,"pop":49,"pointCount":1,"homeWorkCommuteMedian":1884,"workHomeCommuteMedian":1884},"geometry":{"type":"Polygon","coordinates":[[[129.40864465637674,35.96396262000487],[129.40864465637674,35.97295582364212],[129.41763786001397,35.97295582364212],[129.41763786001397,35.96396262000487],[129.40864465637674,35.96396262000487]]]}},{"type":"Feature","properties":{"jobs":773,"pop":167,"pointCount":2,"homeWorkCommuteMedian":2883,"workHomeCommuteMedian":2769},"geometry":{"type":"Polygon","coordinates":[[[129.40864465637674,35.97295582364212],[129.40864465637674,35.98194902727936],[129.41763786001397,35.98194902727936],[129.41763786001397,35.97295582364212],[129.40864465637674,35.97295582364212]]]}},{"type":"Feature","properties":{"jobs":372,"pop":199,"pointCount":1,"homeWorkCommuteMedian":14669,"workHomeCommuteMedian":-1},"geometry":{"type":"Polygon","coordinates":[[[129.41763786001397,35.94597621273038],[129.41763786001397,35.954969416367625],[129.4266310636512,35.954969416367625],[129.4266310636512,35.94597621273038],[129.41763786001397,35.94597621273038]]]}},{"type":"Feature","properties":{"jobs":608,"pop":0,"pointCount":1,"homeWorkCommuteMedian":-1,"workHomeCommuteMedian":12103},"geometry":{"type":"Polygon","coordinates":[[[129.41763786001397,35.98194902727936],[129.41763786001397,35.99094223091661],[129.4266310636512,35.99094223091661],[129.4266310636512,35.98194902727936],[129.41763786001397,35.98194902727936]]]}},{"type":"Feature","properties":{"jobs":310,"pop":45,"pointCount":1,"homeWorkCommuteMedian":7199,"workHomeCommuteMedian":7199},"geometry":{"type":"Polygon","coordinates":[[[129.43562426728843,35.97295582364212],[129.43562426728843,35.98194902727936],[129.44461747092566,35.98194902727936],[129.44461747092566,35.97295582364212],[129.43562426728843,35.97295582364212]]]}},{"type":"Feature","properties":{"jobs":2451,"pop":716,"pointCount":1,"homeWorkCommuteMedian":34718,"workHomeCommuteMedian":33932},"geometry":{"type":"Polygon","coordinates":[[[129.44461747092566,35.775105343622705],[129.44461747092566,35.78409854725995],[129.4536106745629,35.78409854725995],[129.4536106745629,35.775105343622705],[129.44461747092566,35.775105343622705]]]}},{"type":"Feature","properties":{"jobs":273,"pop":21,"pointCount":1,"homeWorkCommuteMedian":5708,"workHomeCommuteMedian":6332},"geometry":{"type":"Polygon","coordinates":[[[129.44461747092566,35.94597621273038],[129.44461747092566,35.954969416367625],[129.4536106745629,35.954969416367625],[129.4536106745629,35.94597621273038],[129.44461747092566,35.94597621273038]]]}},{"type":"Feature","properties":{"jobs":952,"pop":140,"pointCount":2,"homeWorkCommuteMedian":7192,"workHomeCommuteMedian":6734},"geometry":{"type":"Polygon","coordinates":[[[129.44461747092566,35.96396262000487],[129.44461747092566,35.97295582364212],[129.4536106745629,35.97295582364212],[129.4536106745629,35.96396262000487],[129.44461747092566,35.96396262000487]]]}},{"type":"Feature","properties":{"jobs":2837,"pop":1469,"pointCount":2,"homeWorkCommuteMedian":14178,"workHomeCommuteMedian":12174},"geometry":{"type":"Polygon","coordinates":[[[129.44461747092566,35.98194902727936],[129.44461747092566,35.99094223091661],[129.4536106745629,35.99094223091661],[129.4536106745629,35.98194902727936],[129.44461747092566,35.98194902727936]]]}},{"type":"Feature","properties":{"jobs":2438,"pop":1172,"pointCount":1,"homeWorkCommuteMedian":15527,"workHomeCommuteMedian":13700},"geometry":{"type":"Polygon","coordinates":[[[129.44461747092566,35.99094223091661],[129.44461747092566,35.999935434553855],[129.4536106745629,35.999935434553855],[129.4536106745629,35.99094223091661],[129.44461747092566,35.99094223091661]]]}},{"type":"Feature","properties":{"jobs":506,"pop":182,"pointCount":2,"homeWorkCommuteMedian":19543,"workHomeCommuteMedian":19408},"geometry":{"type":"Polygon","coordinates":[[[129.4536106745629,35.88302378726966],[129.4536106745629,35.8920169909069],[129.46260387820013,35.8920169909069],[129.46260387820013,35.88302378726966],[129.4536106745629,35.88302378726966]]]}},{"type":"Feature","properties":{"jobs":640,"pop":117,"pointCount":1,"homeWorkCommuteMedian":9740,"workHomeCommuteMedian":8788},"geometry":{"type":"Polygon","coordinates":[[[129.4536106745629,35.92798980545589],[129.4536106745629,35.93698300909313],[129.46260387820013,35.93698300909313],[129.46260387820013,35.92798980545589],[129.4536106745629,35.92798980545589]]]}},{"type":"Feature","properties":{"jobs":286,"pop":42,"pointCount":1,"homeWorkCommuteMedian":8762,"workHomeCommuteMedian":8762},"geometry":{"type":"Polygon","coordinates":[[[129.4536106745629,35.97295582364212],[129.4536106745629,35.98194902727936],[129.46260387820013,35.98194902727936],[129.46260387820013,35.97295582364212],[129.4536106745629,35.97295582364212]]]}},{"type":"Feature","properties":{"jobs":405,"pop":190,"pointCount":2,"homeWorkCommuteMedian":11014,"workHomeCommuteMedian":9441},"geometry":{"type":"Polygon","coordinates":[[[129.4536106745629,35.98194902727936],[129.4536106745629,35.99094223091661],[129.46260387820013,35.99094223091661],[129.46260387820013,35.98194902727936],[129.4536106745629,35.98194902727936]]]}},{"type":"Feature","properties":{"jobs":319,"pop":158,"pointCount":1,"homeWorkCommuteMedian":10395,"workHomeCommuteMedian":11134},"geometry":{"type":"Polygon","coordinates":[[[129.4536106745629,35.99094223091661],[129.4536106745629,35.999935434553855],[129.46260387820013,35.999935434553855],[129.46260387820013,35.99094223091661],[129.4536106745629,35.99094223091661]]]}},{"type":"Feature","properties":{"jobs":632,"pop":22,"pointCount":1,"homeWorkCommuteMedian":54889,"workHomeCommuteMedian":54213},"geometry":{"type":"Polygon","coordinates":[[[129.46260387820013,35.685173307250246],[129.46260387820013,35.69416651088749],[129.47159708183736,35.69416651088749],[129.47159708183736,35.685173307250246],[129.46260387820013,35.685173307250246]]]}},{"type":"Feature","properties":{"jobs":901,"pop":80,"pointCount":1,"homeWorkCommuteMedian":45878,"workHomeCommuteMedian":47413},"geometry":{"type":"Polygon","coordinates":[[[129.46260387820013,35.69416651088749],[129.46260387820013,35.70315971452474],[129.47159708183736,35.70315971452474],[129.47159708183736,35.69416651088749],[129.46260387820013,35.69416651088749]]]}},{"type":"Feature","properties":{"jobs":253,"pop":41,"pointCount":1,"homeWorkCommuteMedian":14348,"workHomeCommuteMedian":14467},"geometry":{"type":"Polygon","coordinates":[[[129.46260387820013,35.999935434553855],[129.46260387820013,36.0089286381911],[129.47159708183736,36.0089286381911],[129.47159708183736,35.999935434553855],[129.46260387820013,35.999935434553855]]]}},{"type":"Feature","properties":{"jobs":319,"pop":32,"pointCount":2,"homeWorkCommuteMedian":18181,"workHomeCommuteMedian":13540},"geometry":{"type":"Polygon","coordinates":[[[129.47159708183736,35.90101019454415],[129.47159708183736,35.910003398181395],[129.4805902854746,35.910003398181395],[129.4805902854746,35.90101019454415],[129.47159708183736,35.90101019454415]]]}},{"type":"Feature","properties":{"jobs":4237,"pop":2797,"pointCount":1,"homeWorkCommuteMedian":21025,"workHomeCommuteMedian":19405},"geometry":{"type":"Polygon","coordinates":[[[129.47159708183736,35.98194902727936],[129.47159708183736,35.99094223091661],[129.4805902854746,35.99094223091661],[129.4805902854746,35.98194902727936],[129.47159708183736,35.98194902727936]]]}},{"type":"Feature","properties":{"jobs":949,"pop":347,"pointCount":3,"homeWorkCommuteMedian":16538,"workHomeCommuteMedian":16403},"geometry":{"type":"Polygon","coordinates":[[[129.4805902854746,35.88302378726966],[129.4805902854746,35.8920169909069],[129.48958348911182,35.8920169909069],[129.48958348911182,35.88302378726966],[129.4805902854746,35.88302378726966]]]}},{"type":"Feature","properties":{"jobs":259,"pop":20,"pointCount":1,"homeWorkCommuteMedian":12606,"workHomeCommuteMedian":11432},"geometry":{"type":"Polygon","coordinates":[[[129.4805902854746,35.97295582364212],[129.4805902854746,35.98194902727936],[129.48958348911182,35.98194902727936],[129.48958348911182,35.97295582364212],[129.4805902854746,35.97295582364212]]]}},{"type":"Feature","properties":{"jobs":1132,"pop":143,"pointCount":1,"homeWorkCommuteMedian":41735,"workHomeCommuteMedian":43424},"geometry":{"type":"Polygon","coordinates":[[[129.48958348911182,35.7930917508972],[129.48958348911182,35.80208495453444],[129.49857669274905,35.80208495453444],[129.49857669274905,35.7930917508972],[129.48958348911182,35.7930917508972]]]}},{"type":"Feature","properties":{"jobs":976,"pop":546,"pointCount":1,"homeWorkCommuteMedian":17072,"workHomeCommuteMedian":17072},"geometry":{"type":"Polygon","coordinates":[[[129.48958348911182,35.88302378726966],[129.48958348911182,35.8920169909069],[129.49857669274905,35.8920169909069],[129.49857669274905,35.88302378726966],[129.48958348911182,35.88302378726966]]]}},{"type":"Feature","properties":{"jobs":1639,"pop":559,"pointCount":1,"homeWorkCommuteMedian":27653,"workHomeCommuteMedian":25565},"geometry":{"type":"Polygon","coordinates":[[[129.48958348911182,35.954969416367625],[129.48958348911182,35.96396262000487],[129.49857669274905,35.96396262000487],[129.49857669274905,35.954969416367625],[129.48958348911182,35.954969416367625]]]}},{"type":"Feature","properties":{"jobs":692,"pop":127,"pointCount":1,"homeWorkCommuteMedian":14942,"workHomeCommuteMedian":14774},"geometry":{"type":"Polygon","coordinates":[[[129.48958348911182,35.96396262000487],[129.48958348911182,35.97295582364212],[129.49857669274905,35.97295582364212],[129.49857669274905,35.96396262000487],[129.48958348911182,35.96396262000487]]]}},{"type":"Feature","properties":{"jobs":599,"pop":108,"pointCount":1,"homeWorkCommuteMedian":13067,"workHomeCommuteMedian":13037},"geometry":{"type":"Polygon","coordinates":[[[129.48958348911182,35.98194902727936],[129.48958348911182,35.99094223091661],[129.49857669274905,35.99094223091661],[129.49857669274905,35.98194902727936],[129.48958348911182,35.98194902727936]]]}}],"properties":{"residentWeightedNearestNeighborKm":{"p10":0.40465243397643497,"p25":0.40474488277756093,"p50":0.40504506544940344,"p75":0.40557512328918527,"p90":0.5003778610509171,"mean":0.49467733860684515},"workerWeightedNearestNeighborKm":{"p10":0.4044674165679746,"p25":0.4046986633697676,"p50":0.40504506544940344,"p75":0.4055981392732264,"p90":0.5003778610509171,"mean":0.5566307569834644},"commuteDistanceKm":{"p10":3765,"p25":5869,"p50":11614,"p75":17200,"p90":24634,"mean":12974.924113334655},"residentCellDensity":{"p10":42,"p25":75,"p50":234,"p75":1041,"p90":3403,"mean":1450.55},"workerCellDensity":{"p10":309,"p25":561,"p50":976,"p75":3569,"p90":7932,"mean":3048.6682926829267},"detail":{"radiusKm":0.40504506544940344,"expectedPointSpacingKm":0.7413486731814404,"normalizedRadius":0.546362433901964,"activityPerPoint":1151.279607498522,"playableAreaKm2":564,"playableAreaPerPointKm2":1.5120643431635388,"playableCatchmentRadiusKm":0.6937615072739005,"localityScore":0.5284621468663051,"deaggregationScore":0.7157570215488488,"score":0.6150207250510643},"polycentrism":{"activity":{"score":0.9487888382958144,"continuousScore":0.8018292149831237,"detectedCenterCount":3,"effectiveCenterCount":2.721280163054815,"largestCenterShare":0.479023646071701,"bandwidthKm":1.3,"reliabilityScore":1,"supportLevel":"high","usedFallback":false,"topCenters":[{"longitude":129.33056836862946,"latitude":36.02305983201428,"massShare":0.479023646071701,"assignedMass":442740,"assignedPointCount":193,"prominenceRatio":0.9999999999969892},{"longitude":129.2119229870974,"latitude":35.844680188327786,"massShare":0.2944165841677892,"assignedMass":272116,"assignedPointCount":103,"prominenceRatio":1},{"longitude":129.41191365783024,"latitude":35.9461008673585,"massShare":0.22655976976050982,"assignedMass":209399,"assignedPointCount":77,"prominenceRatio":1}],"debug":{"rawPeakCount":28,"mergedPeakCount":26,"filteredPeakCount":3,"prominenceThreshold":0.22,"minPointsPerCenter":10,"rejectedCenters":[{"longitude":129.17122255117576,"latitude":35.88775668245644,"massShare":0.038372527062336695,"assignedMass":35466,"assignedPointCount":7,"prominenceRatio":0.9973834844082184,"strongestCompetitorDistanceKm":4.760735447221841,"strongestCompetitorPotential":71041.38023198541,"localConsolidatedShare":0.038372527062336695,"localConsolidatedMass":35466,"localContributorCount":1,"localContributorDistancesKm":[],"rejectionReasons":["below_min_points_per_center"]},{"longitude":129.34813245708537,"latitude":36.076418924807804,"massShare":0.0634705790068758,"assignedMass":58663,"assignedPointCount":53,"prominenceRatio":0.9999978268439268,"strongestCompetitorDistanceKm":7.051970988792166,"strongestCompetitorPotential":119256.01393132107,"localConsolidatedShare":0.0634705790068758,"localConsolidatedMass":58663,"localContributorCount":1,"localContributorDistancesKm":[],"rejectionReasons":["not_dominant_local_peak","below_relative_share_floor","too_close_for_low_share_center"]},{"longitude":129.32280763065762,"latitude":35.706841143965924,"massShare":0.025649847715186826,"assignedMass":23707,"assignedPointCount":14,"prominenceRatio":1,"strongestCompetitorDistanceKm":20.03014552246507,"strongestCompetitorPotential":71041.38023198541,"localConsolidatedShare":0.025649847715186826,"localConsolidatedMass":23707,"localContributorCount":1,"localContributorDistancesKm":[],"rejectionReasons":["below_secondary_share_floor"]},{"longitude":129.4675257834193,"latitude":35.98190777469257,"massShare":0.024548420078874335,"assignedMass":22689,"assignedPointCount":17,"prominenceRatio":0.9999769372198416,"strongestCompetitorDistanceKm":6.614295046387927,"strongestCompetitorPotential":121299.66304305318,"localConsolidatedShare":0.024548420078874335,"localConsolidatedMass":22689,"localContributorCount":1,"localContributorDistancesKm":[],"rejectionReasons":["below_secondary_share_floor"]},{"longitude":129.13890960737865,"latitude":35.80227864466019,"massShare":0.013930138327626034,"assignedMass":12875,"assignedPointCount":6,"prominenceRatio":0.9999999999997442,"strongestCompetitorDistanceKm":10.218225205896983,"strongestCompetitorPotential":71041.38023198541,"localConsolidatedShare":0.013930138327626034,"localConsolidatedMass":12875,"localContributorCount":1,"localContributorDistancesKm":[],"rejectionReasons":["below_min_points_per_center"]},{"longitude":129.20252034162388,"latitude":35.99420653240233,"massShare":0.01874915472461604,"assignedMass":17329,"assignedPointCount":11,"prominenceRatio":0.9999999999999986,"strongestCompetitorDistanceKm":11.11753594246216,"strongestCompetitorPotential":119256.01393132107,"localConsolidatedShare":0.01874915472461604,"localConsolidatedMass":17329,"localContributorCount":1,"localContributorDistancesKm":[],"rejectionReasons":["below_secondary_share_floor"]},{"longitude":129.10582089032147,"latitude":35.84747865667741,"massShare":0.012419732649539359,"assignedMass":11479,"assignedPointCount":9,"prominenceRatio":0.9999999999998556,"strongestCompetitorDistanceKm":10.321736649089653,"strongestCompetitorPotential":71041.38023198541,"localConsolidatedShare":0.012419732649539359,"localConsolidatedMass":11479,"localContributorCount":1,"localContributorDistancesKm":[],"rejectionReasons":["below_min_points_per_center"]},{"longitude":129.30679534090908,"latitude":35.77368681818182,"massShare":0.004760590962450839,"assignedMass":4400,"assignedPointCount":5,"prominenceRatio":1,"strongestCompetitorDistanceKm":12.624333641847592,"strongestCompetitorPotential":71041.38023198541,"localConsolidatedShare":0.004760590962450839,"localConsolidatedMass":4400,"localContributorCount":1,"localContributorDistancesKm":[],"rejectionReasons":["below_min_points_per_center"]},{"longitude":129.447,"latitude":35.7795,"massShare":0.003426543540473138,"assignedMass":3167,"assignedPointCount":1,"prominenceRatio":1,"strongestCompetitorDistanceKm":19.440961638587595,"strongestCompetitorPotential":121299.66304305318,"localConsolidatedShare":0.003426543540473138,"localConsolidatedMass":3167,"localContributorCount":1,"localContributorDistancesKm":[],"rejectionReasons":["below_min_points_per_center"]},{"longitude":129.4833115115375,"latitude":35.89190782991963,"massShare":0.004173090759584747,"assignedMass":3857,"assignedPointCount":8,"prominenceRatio":0.9999999999962123,"strongestCompetitorDistanceKm":10.0765311995749,"strongestCompetitorPotential":121299.66304305318,"localConsolidatedShare":0.004173090759584747,"localConsolidatedMass":3857,"localContributorCount":1,"localContributorDistancesKm":[],"rejectionReasons":["below_min_points_per_center"]},{"longitude":129.49897189819723,"latitude":35.80297189819725,"massShare":0.0030608435983575963,"assignedMass":2829,"assignedPointCount":3,"prominenceRatio":1,"strongestCompetitorDistanceKm":18.763330764547145,"strongestCompetitorPotential":121299.66304305318,"localConsolidatedShare":0.0030608435983575963,"localConsolidatedMass":2829,"localContributorCount":1,"localContributorDistancesKm":[],"rejectionReasons":["below_min_points_per_center"]},{"longitude":129.501,"latitude":36.0225,"massShare":0.0022959031868910636,"assignedMass":2122,"assignedPointCount":1,"prominenceRatio":1,"strongestCompetitorDistanceKm":11.979052725050098,"strongestCompetitorPotential":121299.66304305318,"localConsolidatedShare":0.0022959031868910636,"localConsolidatedMass":2122,"localContributorCount":1,"localContributorDistancesKm":[],"rejectionReasons":["below_min_points_per_center"]},{"longitude":129.1905,"latitude":36.063,"massShare":0.002202855272624979,"assignedMass":2036,"assignedPointCount":1,"prominenceRatio":1,"strongestCompetitorDistanceKm":13.553626808932567,"strongestCompetitorPotential":119256.01393132107,"localConsolidatedShare":0.002202855272624979,"localConsolidatedMass":2036,"localContributorCount":1,"localContributorDistancesKm":[],"rejectionReasons":["below_min_points_per_center"]},{"longitude":129.2688112254999,"latitude":36.124675212829146,"massShare":0.00546494203439527,"assignedMass":5051,"assignedPointCount":7,"prominenceRatio":1,"strongestCompetitorDistanceKm":14.191886002864068,"strongestCompetitorPotential":119256.01393132107,"localConsolidatedShare":0.00546494203439527,"localConsolidatedMass":5051,"localContributorCount":1,"localContributorDistancesKm":[],"rejectionReasons":["below_min_points_per_center"]},{"longitude":129.204,"latitude":35.928,"massShare":0.0018090245657313188,"assignedMass":1672,"assignedPointCount":1,"prominenceRatio":0.9999864149784317,"strongestCompetitorDistanceKm":7.109891168076356,"strongestCompetitorPotential":71041.38023198541,"localConsolidatedShare":0.0018090245657313188,"localConsolidatedMass":1672,"localContributorCount":1,"localContributorDistancesKm":[],"rejectionReasons":["below_min_points_per_center"]},{"longitude":129.4677,"latitude":35.694900000000004,"massShare":0.001768992323547073,"assignedMass":1635,"assignedPointCount":2,"prominenceRatio":1,"strongestCompetitorDistanceKm":28.672234161145226,"strongestCompetitorPotential":121299.66304305318,"localConsolidatedShare":0.001768992323547073,"localConsolidatedMass":1635,"localContributorCount":1,"localContributorDistancesKm":[],"rejectionReasons":["below_min_points_per_center"]},{"longitude":129.267,"latitude":35.7975,"massShare":0.0014563080535133703,"assignedMass":1346,"assignedPointCount":1,"prominenceRatio":0.9999999916121707,"strongestCompetitorDistanceKm":8.728418222334872,"strongestCompetitorPotential":71041.38023198541,"localConsolidatedShare":0.0014563080535133703,"localConsolidatedMass":1346,"localContributorCount":1,"localContributorDistancesKm":[],"rejectionReasons":["below_min_points_per_center"]},{"longitude":129.105,"latitude":35.766,"massShare":0.0012280160778140232,"assignedMass":1135,"assignedPointCount":1,"prominenceRatio":1,"strongestCompetitorDistanceKm":14.957110457757091,"strongestCompetitorPotential":71041.38023198541,"localConsolidatedShare":0.0012280160778140232,"localConsolidatedMass":1135,"localContributorCount":1,"localContributorDistancesKm":[],"rejectionReasons":["below_min_points_per_center"]},{"longitude":129.222,"latitude":36.027,"massShare":0.0010386743918074557,"assignedMass":960,"assignedPointCount":1,"prominenceRatio":0.9999999997410455,"strongestCompetitorDistanceKm":9.528342018763205,"strongestCompetitorPotential":119256.01393132107,"localConsolidatedShare":0.0010386743918074557,"localConsolidatedMass":960,"localContributorCount":1,"localContributorDistancesKm":[],"rejectionReasons":["below_min_points_per_center"]},{"longitude":129.321,"latitude":35.8335,"massShare":0.0008558244207496849,"assignedMass":791,"assignedPointCount":1,"prominenceRatio":0.9999999999831646,"strongestCompetitorDistanceKm":9.952475860455351,"strongestCompetitorPotential":71041.38023198541,"localConsolidatedShare":0.0008558244207496849,"localConsolidatedMass":791,"localContributorCount":1,"localContributorDistancesKm":[],"rejectionReasons":["below_min_points_per_center"]},{"longitude":129.195,"latitude":35.748,"massShare":0.0007497930765860071,"assignedMass":693,"assignedPointCount":1,"prominenceRatio":1,"strongestCompetitorDistanceKm":13.166503657565036,"strongestCompetitorPotential":71041.38023198541,"localConsolidatedShare":0.0007497930765860071,"localConsolidatedMass":693,"localContributorCount":1,"localContributorDistancesKm":[],"rejectionReasons":["below_min_points_per_center"]},{"longitude":129.0555,"latitude":35.6985,"massShare":0.0006415978274393971,"assignedMass":593,"assignedPointCount":1,"prominenceRatio":1,"strongestCompetitorDistanceKm":23.56646464580693,"strongestCompetitorPotential":71041.38023198541,"localConsolidatedShare":0.0006415978274393971,"localConsolidatedMass":593,"localContributorCount":1,"localContributorDistancesKm":[],"rejectionReasons":["below_min_points_per_center"]},{"longitude":129.0375,"latitude":35.748,"massShare":0.000050851767098906685,"assignedMass":47,"assignedPointCount":1,"prominenceRatio":1,"strongestCompetitorDistanceKm":20.77830505677059,"strongestCompetitorPotential":71041.38023198541,"localConsolidatedShare":0.000050851767098906685,"localConsolidatedMass":47,"localContributorCount":1,"localContributorDistancesKm":[],"rejectionReasons":["below_min_points_per_center"]}]}}}}}
