{"type":"FeatureCollection","features":[{"type":"Feature","properties":{"jobs":96,"pop":1643,"pointCount":1,"homeWorkCommuteMedian":25649,"workHomeCommuteMedian":-1},"geometry":{"type":"Polygon","coordinates":[[[127.27776021452473,36.63610339818139],[127.27776021452473,36.645096601818636],[127.28675341816198,36.645096601818636],[127.28675341816198,36.63610339818139],[127.27776021452473,36.63610339818139]]]}},{"type":"Feature","properties":{"jobs":1270,"pop":0,"pointCount":1,"homeWorkCommuteMedian":-1,"workHomeCommuteMedian":25266},"geometry":{"type":"Polygon","coordinates":[[[127.27776021452473,36.762008249102834],[127.27776021452473,36.77100145274008],[127.28675341816198,36.77100145274008],[127.28675341816198,36.762008249102834],[127.27776021452473,36.762008249102834]]]}},{"type":"Feature","properties":{"jobs":3345,"pop":0,"pointCount":1,"homeWorkCommuteMedian":-1,"workHomeCommuteMedian":23100},"geometry":{"type":"Polygon","coordinates":[[[127.28675341816198,36.6181169909069],[127.28675341816198,36.627110194544144],[127.29574662179922,36.627110194544144],[127.29574662179922,36.6181169909069],[127.28675341816198,36.6181169909069]]]}},{"type":"Feature","properties":{"jobs":29,"pop":812,"pointCount":1,"homeWorkCommuteMedian":19918,"workHomeCommuteMedian":-1},"geometry":{"type":"Polygon","coordinates":[[[127.29574662179922,36.60013058363241],[127.29574662179922,36.60912378726965],[127.30473982543647,36.60912378726965],[127.30473982543647,36.60013058363241],[127.29574662179922,36.60013058363241]]]}},{"type":"Feature","properties":{"jobs":26,"pop":1034,"pointCount":1,"homeWorkCommuteMedian":22415,"workHomeCommuteMedian":-1},"geometry":{"type":"Polygon","coordinates":[[[127.30473982543647,36.582144176357914],[127.30473982543647,36.59113737999516],[127.31373302907372,36.59113737999516],[127.31373302907372,36.582144176357914],[127.30473982543647,36.582144176357914]]]}},{"type":"Feature","properties":{"jobs":1146,"pop":27,"pointCount":1,"homeWorkCommuteMedian":17301,"workHomeCommuteMedian":19892},"geometry":{"type":"Polygon","coordinates":[[[127.30473982543647,36.60013058363241],[127.30473982543647,36.60912378726965],[127.31373302907372,36.60912378726965],[127.31373302907372,36.60013058363241],[127.30473982543647,36.60013058363241]]]}},{"type":"Feature","properties":{"jobs":13061,"pop":6134,"pointCount":3,"homeWorkCommuteMedian":15744,"workHomeCommuteMedian":17607},"geometry":{"type":"Polygon","coordinates":[[[127.30473982543647,36.60912378726965],[127.30473982543647,36.6181169909069],[127.31373302907372,36.6181169909069],[127.31373302907372,36.60912378726965],[127.30473982543647,36.60912378726965]]]}},{"type":"Feature","properties":{"jobs":9798,"pop":6260,"pointCount":1,"homeWorkCommuteMedian":14933,"workHomeCommuteMedian":15274},"geometry":{"type":"Polygon","coordinates":[[[127.30473982543647,36.6181169909069],[127.30473982543647,36.627110194544144],[127.31373302907372,36.627110194544144],[127.31373302907372,36.6181169909069],[127.30473982543647,36.6181169909069]]]}},{"type":"Feature","properties":{"jobs":344,"pop":1007,"pointCount":1,"homeWorkCommuteMedian":21389,"workHomeCommuteMedian":-1},"geometry":{"type":"Polygon","coordinates":[[[127.31373302907372,36.582144176357914],[127.31373302907372,36.59113737999516],[127.32272623271096,36.59113737999516],[127.32272623271096,36.582144176357914],[127.31373302907372,36.582144176357914]]]}},{"type":"Feature","properties":{"jobs":19070,"pop":10121,"pointCount":3,"homeWorkCommuteMedian":14041,"workHomeCommuteMedian":13533},"geometry":{"type":"Polygon","coordinates":[[[127.31373302907372,36.60912378726965],[127.31373302907372,36.6181169909069],[127.32272623271096,36.6181169909069],[127.32272623271096,36.60912378726965],[127.31373302907372,36.60912378726965]]]}},{"type":"Feature","properties":{"jobs":9082,"pop":4182,"pointCount":2,"homeWorkCommuteMedian":16090,"workHomeCommuteMedian":13909},"geometry":{"type":"Polygon","coordinates":[[[127.31373302907372,36.6181169909069],[127.31373302907372,36.627110194544144],[127.32272623271096,36.627110194544144],[127.32272623271096,36.6181169909069],[127.31373302907372,36.6181169909069]]]}},{"type":"Feature","properties":{"jobs":2594,"pop":2768,"pointCount":1,"homeWorkCommuteMedian":14186,"workHomeCommuteMedian":13596},"geometry":{"type":"Polygon","coordinates":[[[127.31373302907372,36.627110194544144],[127.31373302907372,36.63610339818139],[127.32272623271096,36.63610339818139],[127.32272623271096,36.627110194544144],[127.31373302907372,36.627110194544144]]]}},{"type":"Feature","properties":{"jobs":15,"pop":0,"pointCount":1,"homeWorkCommuteMedian":-1,"workHomeCommuteMedian":16387},"geometry":{"type":"Polygon","coordinates":[[[127.31373302907372,36.63610339818139],[127.31373302907372,36.645096601818636],[127.32272623271096,36.645096601818636],[127.32272623271096,36.63610339818139],[127.31373302907372,36.63610339818139]]]}},{"type":"Feature","properties":{"jobs":33,"pop":521,"pointCount":1,"homeWorkCommuteMedian":25238,"workHomeCommuteMedian":-1},"geometry":{"type":"Polygon","coordinates":[[[127.31373302907372,36.70804902727936],[127.31373302907372,36.717042230916604],[127.32272623271096,36.717042230916604],[127.32272623271096,36.70804902727936],[127.31373302907372,36.70804902727936]]]}},{"type":"Feature","properties":{"jobs":40,"pop":7118,"pointCount":1,"homeWorkCommuteMedian":24003,"workHomeCommuteMedian":-1},"geometry":{"type":"Polygon","coordinates":[[[127.31373302907372,36.717042230916604],[127.31373302907372,36.72603543455385],[127.32272623271096,36.72603543455385],[127.32272623271096,36.717042230916604],[127.31373302907372,36.717042230916604]]]}},{"type":"Feature","properties":{"jobs":1315,"pop":31,"pointCount":1,"homeWorkCommuteMedian":15724,"workHomeCommuteMedian":22224},"geometry":{"type":"Polygon","coordinates":[[[127.32272623271096,36.60013058363241],[127.32272623271096,36.60912378726965],[127.33171943634821,36.60912378726965],[127.33171943634821,36.60013058363241],[127.32272623271096,36.60013058363241]]]}},{"type":"Feature","properties":{"jobs":56832,"pop":12407,"pointCount":5,"homeWorkCommuteMedian":13803,"workHomeCommuteMedian":18551},"geometry":{"type":"Polygon","coordinates":[[[127.32272623271096,36.6181169909069],[127.32272623271096,36.627110194544144],[127.33171943634821,36.627110194544144],[127.33171943634821,36.6181169909069],[127.32272623271096,36.6181169909069]]]}},{"type":"Feature","properties":{"jobs":4837,"pop":1140,"pointCount":2,"homeWorkCommuteMedian":12812,"workHomeCommuteMedian":12714},"geometry":{"type":"Polygon","coordinates":[[[127.32272623271096,36.627110194544144],[127.32272623271096,36.63610339818139],[127.33171943634821,36.63610339818139],[127.33171943634821,36.627110194544144],[127.32272623271096,36.627110194544144]]]}},{"type":"Feature","properties":{"jobs":26,"pop":1129,"pointCount":1,"homeWorkCommuteMedian":24686,"workHomeCommuteMedian":-1},"geometry":{"type":"Polygon","coordinates":[[[127.33171943634821,36.55516456544618],[127.33171943634821,36.56415776908342],[127.34071263998545,36.56415776908342],[127.34071263998545,36.55516456544618],[127.33171943634821,36.55516456544618]]]}},{"type":"Feature","properties":{"jobs":2450,"pop":57,"pointCount":2,"homeWorkCommuteMedian":15458,"workHomeCommuteMedian":15845},"geometry":{"type":"Polygon","coordinates":[[[127.33171943634821,36.6181169909069],[127.33171943634821,36.627110194544144],[127.34071263998545,36.627110194544144],[127.34071263998545,36.6181169909069],[127.33171943634821,36.6181169909069]]]}},{"type":"Feature","properties":{"jobs":1746,"pop":817,"pointCount":1,"homeWorkCommuteMedian":8791,"workHomeCommuteMedian":9991},"geometry":{"type":"Polygon","coordinates":[[[127.3497058436227,36.60013058363241],[127.3497058436227,36.60912378726965],[127.35869904725995,36.60912378726965],[127.35869904725995,36.60013058363241],[127.3497058436227,36.60013058363241]]]}},{"type":"Feature","properties":{"jobs":56,"pop":303,"pointCount":1,"homeWorkCommuteMedian":22856,"workHomeCommuteMedian":-1},"geometry":{"type":"Polygon","coordinates":[[[127.3497058436227,36.68106941636762],[127.3497058436227,36.690062620004866],[127.35869904725995,36.690062620004866],[127.35869904725995,36.68106941636762],[127.3497058436227,36.68106941636762]]]}},{"type":"Feature","properties":{"jobs":13,"pop":61,"pointCount":1,"homeWorkCommuteMedian":10898,"workHomeCommuteMedian":-1},"geometry":{"type":"Polygon","coordinates":[[[127.3497058436227,36.74402184182834],[127.3497058436227,36.75301504546559],[127.35869904725995,36.75301504546559],[127.35869904725995,36.74402184182834],[127.3497058436227,36.74402184182834]]]}},{"type":"Feature","properties":{"jobs":7942,"pop":3766,"pointCount":2,"homeWorkCommuteMedian":8543,"workHomeCommuteMedian":8391},"geometry":{"type":"Polygon","coordinates":[[[127.35869904725995,36.6181169909069],[127.35869904725995,36.627110194544144],[127.36769225089719,36.627110194544144],[127.36769225089719,36.6181169909069],[127.35869904725995,36.6181169909069]]]}},{"type":"Feature","properties":{"jobs":43,"pop":976,"pointCount":1,"homeWorkCommuteMedian":21890,"workHomeCommuteMedian":-1},"geometry":{"type":"Polygon","coordinates":[[[127.35869904725995,36.75301504546559],[127.35869904725995,36.762008249102834],[127.36769225089719,36.762008249102834],[127.36769225089719,36.75301504546559],[127.35869904725995,36.75301504546559]]]}},{"type":"Feature","properties":{"jobs":3580,"pop":1597,"pointCount":1,"homeWorkCommuteMedian":7973,"workHomeCommuteMedian":7973},"geometry":{"type":"Polygon","coordinates":[[[127.36769225089719,36.6181169909069],[127.36769225089719,36.627110194544144],[127.37668545453444,36.627110194544144],[127.37668545453444,36.6181169909069],[127.36769225089719,36.6181169909069]]]}},{"type":"Feature","properties":{"jobs":5544,"pop":1973,"pointCount":2,"homeWorkCommuteMedian":8420,"workHomeCommuteMedian":8347},"geometry":{"type":"Polygon","coordinates":[[[127.36769225089719,36.627110194544144],[127.36769225089719,36.63610339818139],[127.37668545453444,36.63610339818139],[127.37668545453444,36.627110194544144],[127.36769225089719,36.627110194544144]]]}},{"type":"Feature","properties":{"jobs":2062,"pop":671,"pointCount":1,"homeWorkCommuteMedian":9332,"workHomeCommuteMedian":9520},"geometry":{"type":"Polygon","coordinates":[[[127.36769225089719,36.645096601818636],[127.36769225089719,36.65408980545588],[127.37668545453444,36.65408980545588],[127.37668545453444,36.645096601818636],[127.36769225089719,36.645096601818636]]]}},{"type":"Feature","properties":{"jobs":4873,"pop":746,"pointCount":3,"homeWorkCommuteMedian":9591,"workHomeCommuteMedian":9382},"geometry":{"type":"Polygon","coordinates":[[[127.36769225089719,36.65408980545588],[127.36769225089719,36.66308300909313],[127.37668545453444,36.66308300909313],[127.37668545453444,36.65408980545588],[127.36769225089719,36.65408980545588]]]}},{"type":"Feature","properties":{"jobs":1168,"pop":27,"pointCount":1,"homeWorkCommuteMedian":10238,"workHomeCommuteMedian":10271},"geometry":{"type":"Polygon","coordinates":[[[127.36769225089719,36.66308300909313],[127.36769225089719,36.672076212730374],[127.37668545453444,36.672076212730374],[127.37668545453444,36.66308300909313],[127.36769225089719,36.66308300909313]]]}},{"type":"Feature","properties":{"jobs":1774,"pop":246,"pointCount":1,"homeWorkCommuteMedian":9117,"workHomeCommuteMedian":12248},"geometry":{"type":"Polygon","coordinates":[[[127.37668545453444,36.6181169909069],[127.37668545453444,36.627110194544144],[127.38567865817168,36.627110194544144],[127.38567865817168,36.6181169909069],[127.37668545453444,36.6181169909069]]]}},{"type":"Feature","properties":{"jobs":2045,"pop":48,"pointCount":2,"homeWorkCommuteMedian":12568,"workHomeCommuteMedian":13860},"geometry":{"type":"Polygon","coordinates":[[[127.37668545453444,36.627110194544144],[127.37668545453444,36.63610339818139],[127.38567865817168,36.63610339818139],[127.38567865817168,36.627110194544144],[127.37668545453444,36.627110194544144]]]}},{"type":"Feature","properties":{"jobs":7927,"pop":2725,"pointCount":3,"homeWorkCommuteMedian":10618,"workHomeCommuteMedian":10489},"geometry":{"type":"Polygon","coordinates":[[[127.37668545453444,36.66308300909313],[127.37668545453444,36.672076212730374],[127.38567865817168,36.672076212730374],[127.38567865817168,36.66308300909313],[127.37668545453444,36.66308300909313]]]}},{"type":"Feature","properties":{"jobs":1527,"pop":103,"pointCount":1,"homeWorkCommuteMedian":12296,"workHomeCommuteMedian":11179},"geometry":{"type":"Polygon","coordinates":[[[127.38567865817168,36.59113737999516],[127.38567865817168,36.60013058363241],[127.39467186180893,36.60013058363241],[127.39467186180893,36.59113737999516],[127.38567865817168,36.59113737999516]]]}},{"type":"Feature","properties":{"jobs":2340,"pop":121,"pointCount":2,"homeWorkCommuteMedian":9117,"workHomeCommuteMedian":9238},"geometry":{"type":"Polygon","coordinates":[[[127.38567865817168,36.627110194544144],[127.38567865817168,36.63610339818139],[127.39467186180893,36.63610339818139],[127.39467186180893,36.627110194544144],[127.38567865817168,36.627110194544144]]]}},{"type":"Feature","properties":{"jobs":3277,"pop":1392,"pointCount":1,"homeWorkCommuteMedian":7157,"workHomeCommuteMedian":6926},"geometry":{"type":"Polygon","coordinates":[[[127.38567865817168,36.63610339818139],[127.38567865817168,36.645096601818636],[127.39467186180893,36.645096601818636],[127.39467186180893,36.63610339818139],[127.38567865817168,36.63610339818139]]]}},{"type":"Feature","properties":{"jobs":1158,"pop":27,"pointCount":1,"homeWorkCommuteMedian":7935,"workHomeCommuteMedian":10012},"geometry":{"type":"Polygon","coordinates":[[[127.38567865817168,36.645096601818636],[127.38567865817168,36.65408980545588],[127.39467186180893,36.65408980545588],[127.39467186180893,36.645096601818636],[127.38567865817168,36.645096601818636]]]}},{"type":"Feature","properties":{"jobs":5370,"pop":2094,"pointCount":2,"homeWorkCommuteMedian":9714,"workHomeCommuteMedian":9374},"geometry":{"type":"Polygon","coordinates":[[[127.38567865817168,36.66308300909313],[127.38567865817168,36.672076212730374],[127.39467186180893,36.672076212730374],[127.39467186180893,36.66308300909313],[127.38567865817168,36.66308300909313]]]}},{"type":"Feature","properties":{"jobs":9815,"pop":5728,"pointCount":2,"homeWorkCommuteMedian":10470,"workHomeCommuteMedian":10295},"geometry":{"type":"Polygon","coordinates":[[[127.38567865817168,36.672076212730374],[127.38567865817168,36.68106941636762],[127.39467186180893,36.68106941636762],[127.39467186180893,36.672076212730374],[127.38567865817168,36.672076212730374]]]}},{"type":"Feature","properties":{"jobs":169,"pop":0,"pointCount":1,"homeWorkCommuteMedian":-1,"workHomeCommuteMedian":19358},"geometry":{"type":"Polygon","coordinates":[[[127.39467186180893,36.51919175089719],[127.39467186180893,36.52818495453444],[127.40366506544618,36.52818495453444],[127.40366506544618,36.51919175089719],[127.39467186180893,36.51919175089719]]]}},{"type":"Feature","properties":{"jobs":510,"pop":45,"pointCount":1,"homeWorkCommuteMedian":16349,"workHomeCommuteMedian":14965},"geometry":{"type":"Polygon","coordinates":[[[127.39467186180893,36.56415776908342],[127.39467186180893,36.57315097272067],[127.40366506544618,36.57315097272067],[127.40366506544618,36.56415776908342],[127.39467186180893,36.56415776908342]]]}},{"type":"Feature","properties":{"jobs":3819,"pop":700,"pointCount":2,"homeWorkCommuteMedian":11297,"workHomeCommuteMedian":11417},"geometry":{"type":"Polygon","coordinates":[[[127.39467186180893,36.59113737999516],[127.39467186180893,36.60013058363241],[127.40366506544618,36.60013058363241],[127.40366506544618,36.59113737999516],[127.39467186180893,36.59113737999516]]]}},{"type":"Feature","properties":{"jobs":3030,"pop":442,"pointCount":2,"homeWorkCommuteMedian":10123,"workHomeCommuteMedian":9963},"geometry":{"type":"Polygon","coordinates":[[[127.39467186180893,36.60013058363241],[127.39467186180893,36.60912378726965],[127.40366506544618,36.60912378726965],[127.40366506544618,36.60013058363241],[127.39467186180893,36.60013058363241]]]}},{"type":"Feature","properties":{"jobs":616,"pop":81,"pointCount":1,"homeWorkCommuteMedian":12342,"workHomeCommuteMedian":-1},"geometry":{"type":"Polygon","coordinates":[[[127.39467186180893,36.6181169909069],[127.39467186180893,36.627110194544144],[127.40366506544618,36.627110194544144],[127.40366506544618,36.6181169909069],[127.39467186180893,36.6181169909069]]]}},{"type":"Feature","properties":{"jobs":3080,"pop":302,"pointCount":2,"homeWorkCommuteMedian":8150,"workHomeCommuteMedian":7964},"geometry":{"type":"Polygon","coordinates":[[[127.39467186180893,36.63610339818139],[127.39467186180893,36.645096601818636],[127.40366506544618,36.645096601818636],[127.40366506544618,36.63610339818139],[127.39467186180893,36.63610339818139]]]}},{"type":"Feature","properties":{"jobs":4607,"pop":1665,"pointCount":2,"homeWorkCommuteMedian":6887,"workHomeCommuteMedian":6765},"geometry":{"type":"Polygon","coordinates":[[[127.39467186180893,36.645096601818636],[127.39467186180893,36.65408980545588],[127.40366506544618,36.65408980545588],[127.40366506544618,36.645096601818636],[127.39467186180893,36.645096601818636]]]}},{"type":"Feature","properties":{"jobs":504,"pop":44,"pointCount":1,"homeWorkCommuteMedian":14262,"workHomeCommuteMedian":12777},"geometry":{"type":"Polygon","coordinates":[[[127.40366506544618,36.57315097272067],[127.40366506544618,36.582144176357914],[127.41265826908342,36.582144176357914],[127.41265826908342,36.57315097272067],[127.40366506544618,36.57315097272067]]]}},{"type":"Feature","properties":{"jobs":2735,"pop":982,"pointCount":1,"homeWorkCommuteMedian":5461,"workHomeCommuteMedian":5461},"geometry":{"type":"Polygon","coordinates":[[[127.40366506544618,36.60912378726965],[127.40366506544618,36.6181169909069],[127.41265826908342,36.6181169909069],[127.41265826908342,36.60912378726965],[127.40366506544618,36.60912378726965]]]}},{"type":"Feature","properties":{"jobs":2488,"pop":100,"pointCount":2,"homeWorkCommuteMedian":9938,"workHomeCommuteMedian":8770},"geometry":{"type":"Polygon","coordinates":[[[127.40366506544618,36.6181169909069],[127.40366506544618,36.627110194544144],[127.41265826908342,36.627110194544144],[127.41265826908342,36.6181169909069],[127.40366506544618,36.6181169909069]]]}},{"type":"Feature","properties":{"jobs":3721,"pop":712,"pointCount":2,"homeWorkCommuteMedian":6392,"workHomeCommuteMedian":6769},"geometry":{"type":"Polygon","coordinates":[[[127.40366506544618,36.63610339818139],[127.40366506544618,36.645096601818636],[127.41265826908342,36.645096601818636],[127.41265826908342,36.63610339818139],[127.40366506544618,36.63610339818139]]]}},{"type":"Feature","properties":{"jobs":911,"pop":21,"pointCount":1,"homeWorkCommuteMedian":5906,"workHomeCommuteMedian":7531},"geometry":{"type":"Polygon","coordinates":[[[127.40366506544618,36.645096601818636],[127.40366506544618,36.65408980545588],[127.41265826908342,36.65408980545588],[127.41265826908342,36.645096601818636],[127.40366506544618,36.645096601818636]]]}},{"type":"Feature","properties":{"jobs":2160,"pop":481,"pointCount":1,"homeWorkCommuteMedian":15170,"workHomeCommuteMedian":15448},"geometry":{"type":"Polygon","coordinates":[[[127.40366506544618,36.70804902727936],[127.40366506544618,36.717042230916604],[127.41265826908342,36.717042230916604],[127.41265826908342,36.70804902727936],[127.40366506544618,36.70804902727936]]]}},{"type":"Feature","properties":{"jobs":1207,"pop":48,"pointCount":1,"homeWorkCommuteMedian":12197,"workHomeCommuteMedian":13577},"geometry":{"type":"Polygon","coordinates":[[[127.41265826908342,36.60013058363241],[127.41265826908342,36.60912378726965],[127.42165147272067,36.60912378726965],[127.42165147272067,36.60013058363241],[127.41265826908342,36.60013058363241]]]}},{"type":"Feature","properties":{"jobs":4497,"pop":1151,"pointCount":2,"homeWorkCommuteMedian":4422,"workHomeCommuteMedian":4253},"geometry":{"type":"Polygon","coordinates":[[[127.41265826908342,36.6181169909069],[127.41265826908342,36.627110194544144],[127.42165147272067,36.627110194544144],[127.42165147272067,36.6181169909069],[127.41265826908342,36.6181169909069]]]}},{"type":"Feature","properties":{"jobs":10402,"pop":3829,"pointCount":3,"homeWorkCommuteMedian":5657,"workHomeCommuteMedian":5974},"geometry":{"type":"Polygon","coordinates":[[[127.41265826908342,36.627110194544144],[127.41265826908342,36.63610339818139],[127.42165147272067,36.63610339818139],[127.42165147272067,36.627110194544144],[127.41265826908342,36.627110194544144]]]}},{"type":"Feature","properties":{"jobs":5552,"pop":2437,"pointCount":1,"homeWorkCommuteMedian":5157,"workHomeCommuteMedian":5461},"geometry":{"type":"Polygon","coordinates":[[[127.41265826908342,36.63610339818139],[127.41265826908342,36.645096601818636],[127.42165147272067,36.645096601818636],[127.42165147272067,36.63610339818139],[127.41265826908342,36.63610339818139]]]}},{"type":"Feature","properties":{"jobs":23703,"pop":9047,"pointCount":3,"homeWorkCommuteMedian":12894,"workHomeCommuteMedian":12605},"geometry":{"type":"Polygon","coordinates":[[[127.41265826908342,36.69905582364211],[127.41265826908342,36.70804902727936],[127.42165147272067,36.70804902727936],[127.42165147272067,36.69905582364211],[127.41265826908342,36.69905582364211]]]}},{"type":"Feature","properties":{"jobs":7004,"pop":2022,"pointCount":2,"homeWorkCommuteMedian":12822,"workHomeCommuteMedian":14055},"geometry":{"type":"Polygon","coordinates":[[[127.41265826908342,36.70804902727936],[127.41265826908342,36.717042230916604],[127.42165147272067,36.717042230916604],[127.42165147272067,36.70804902727936],[127.41265826908342,36.70804902727936]]]}},{"type":"Feature","properties":{"jobs":358,"pop":155,"pointCount":1,"homeWorkCommuteMedian":13859,"workHomeCommuteMedian":-1},"geometry":{"type":"Polygon","coordinates":[[[127.42165147272067,36.55516456544618],[127.42165147272067,36.56415776908342],[127.43064467635791,36.56415776908342],[127.43064467635791,36.55516456544618],[127.42165147272067,36.55516456544618]]]}},{"type":"Feature","properties":{"jobs":6346,"pop":3383,"pointCount":2,"homeWorkCommuteMedian":12136,"workHomeCommuteMedian":12606},"geometry":{"type":"Polygon","coordinates":[[[127.42165147272067,36.56415776908342],[127.42165147272067,36.57315097272067],[127.43064467635791,36.57315097272067],[127.43064467635791,36.56415776908342],[127.42165147272067,36.56415776908342]]]}},{"type":"Feature","properties":{"jobs":3490,"pop":1172,"pointCount":1,"homeWorkCommuteMedian":5743,"workHomeCommuteMedian":5594},"geometry":{"type":"Polygon","coordinates":[[[127.42165147272067,36.60013058363241],[127.42165147272067,36.60912378726965],[127.43064467635791,36.60912378726965],[127.43064467635791,36.60013058363241],[127.42165147272067,36.60013058363241]]]}},{"type":"Feature","properties":{"jobs":17807,"pop":7484,"pointCount":4,"homeWorkCommuteMedian":6503,"workHomeCommuteMedian":6748},"geometry":{"type":"Polygon","coordinates":[[[127.42165147272067,36.60912378726965],[127.42165147272067,36.6181169909069],[127.43064467635791,36.6181169909069],[127.43064467635791,36.60912378726965],[127.42165147272067,36.60912378726965]]]}},{"type":"Feature","properties":{"jobs":31669,"pop":7093,"pointCount":5,"homeWorkCommuteMedian":6408,"workHomeCommuteMedian":9714},"geometry":{"type":"Polygon","coordinates":[[[127.42165147272067,36.6181169909069],[127.42165147272067,36.627110194544144],[127.43064467635791,36.627110194544144],[127.43064467635791,36.6181169909069],[127.42165147272067,36.6181169909069]]]}},{"type":"Feature","properties":{"jobs":22715,"pop":10381,"pointCount":4,"homeWorkCommuteMedian":5877,"workHomeCommuteMedian":5837},"geometry":{"type":"Polygon","coordinates":[[[127.42165147272067,36.627110194544144],[127.42165147272067,36.63610339818139],[127.43064467635791,36.63610339818139],[127.43064467635791,36.627110194544144],[127.42165147272067,36.627110194544144]]]}},{"type":"Feature","properties":{"jobs":25943,"pop":13240,"pointCount":4,"homeWorkCommuteMedian":5463,"workHomeCommuteMedian":5637},"geometry":{"type":"Polygon","coordinates":[[[127.42165147272067,36.63610339818139],[127.42165147272067,36.645096601818636],[127.43064467635791,36.645096601818636],[127.43064467635791,36.63610339818139],[127.42165147272067,36.63610339818139]]]}},{"type":"Feature","properties":{"jobs":41301,"pop":17579,"pointCount":3,"homeWorkCommuteMedian":11973,"workHomeCommuteMedian":12318},"geometry":{"type":"Polygon","coordinates":[[[127.42165147272067,36.69905582364211],[127.42165147272067,36.70804902727936],[127.43064467635791,36.70804902727936],[127.43064467635791,36.69905582364211],[127.42165147272067,36.69905582364211]]]}},{"type":"Feature","properties":{"jobs":19765,"pop":4818,"pointCount":4,"homeWorkCommuteMedian":12487,"workHomeCommuteMedian":13296},"geometry":{"type":"Polygon","coordinates":[[[127.42165147272067,36.70804902727936],[127.42165147272067,36.717042230916604],[127.43064467635791,36.717042230916604],[127.43064467635791,36.70804902727936],[127.42165147272067,36.70804902727936]]]}},{"type":"Feature","properties":{"jobs":2916,"pop":1041,"pointCount":2,"homeWorkCommuteMedian":14360,"workHomeCommuteMedian":13778},"geometry":{"type":"Polygon","coordinates":[[[127.42165147272067,36.717042230916604],[127.42165147272067,36.72603543455385],[127.43064467635791,36.72603543455385],[127.43064467635791,36.717042230916604],[127.42165147272067,36.717042230916604]]]}},{"type":"Feature","properties":{"jobs":552,"pop":49,"pointCount":1,"homeWorkCommuteMedian":12031,"workHomeCommuteMedian":11975},"geometry":{"type":"Polygon","coordinates":[[[127.43064467635791,36.54617136180893],[127.43064467635791,36.55516456544618],[127.43963787999516,36.55516456544618],[127.43963787999516,36.54617136180893],[127.43064467635791,36.54617136180893]]]}},{"type":"Feature","properties":{"jobs":2118,"pop":405,"pointCount":3,"homeWorkCommuteMedian":11946,"workHomeCommuteMedian":10849},"geometry":{"type":"Polygon","coordinates":[[[127.43064467635791,36.55516456544618],[127.43064467635791,36.56415776908342],[127.43963787999516,36.56415776908342],[127.43963787999516,36.55516456544618],[127.43064467635791,36.55516456544618]]]}},{"type":"Feature","properties":{"jobs":7858,"pop":2866,"pointCount":2,"homeWorkCommuteMedian":5293,"workHomeCommuteMedian":6980},"geometry":{"type":"Polygon","coordinates":[[[127.43064467635791,36.60912378726965],[127.43064467635791,36.6181169909069],[127.43963787999516,36.6181169909069],[127.43963787999516,36.60912378726965],[127.43064467635791,36.60912378726965]]]}},{"type":"Feature","properties":{"jobs":16932,"pop":7801,"pointCount":5,"homeWorkCommuteMedian":6426,"workHomeCommuteMedian":6447},"geometry":{"type":"Polygon","coordinates":[[[127.43064467635791,36.6181169909069],[127.43064467635791,36.627110194544144],[127.43963787999516,36.627110194544144],[127.43963787999516,36.6181169909069],[127.43064467635791,36.6181169909069]]]}},{"type":"Feature","properties":{"jobs":25846,"pop":12456,"pointCount":4,"homeWorkCommuteMedian":5637,"workHomeCommuteMedian":5550},"geometry":{"type":"Polygon","coordinates":[[[127.43064467635791,36.627110194544144],[127.43064467635791,36.63610339818139],[127.43963787999516,36.63610339818139],[127.43963787999516,36.627110194544144],[127.43064467635791,36.627110194544144]]]}},{"type":"Feature","properties":{"jobs":9109,"pop":4757,"pointCount":2,"homeWorkCommuteMedian":4912,"workHomeCommuteMedian":4691},"geometry":{"type":"Polygon","coordinates":[[[127.43064467635791,36.63610339818139],[127.43064467635791,36.645096601818636],[127.43963787999516,36.645096601818636],[127.43963787999516,36.63610339818139],[127.43064467635791,36.63610339818139]]]}},{"type":"Feature","properties":{"jobs":16403,"pop":6128,"pointCount":2,"homeWorkCommuteMedian":15434,"workHomeCommuteMedian":12303},"geometry":{"type":"Polygon","coordinates":[[[127.43064467635791,36.69905582364211],[127.43064467635791,36.70804902727936],[127.43963787999516,36.70804902727936],[127.43963787999516,36.69905582364211],[127.43064467635791,36.69905582364211]]]}},{"type":"Feature","properties":{"jobs":2326,"pop":398,"pointCount":1,"homeWorkCommuteMedian":12031,"workHomeCommuteMedian":12126},"geometry":{"type":"Polygon","coordinates":[[[127.43064467635791,36.70804902727936],[127.43064467635791,36.717042230916604],[127.43963787999516,36.717042230916604],[127.43963787999516,36.70804902727936],[127.43064467635791,36.70804902727936]]]}},{"type":"Feature","properties":{"jobs":1715,"pop":139,"pointCount":1,"homeWorkCommuteMedian":15384,"workHomeCommuteMedian":14159},"geometry":{"type":"Polygon","coordinates":[[[127.43064467635791,36.717042230916604],[127.43064467635791,36.72603543455385],[127.43963787999516,36.72603543455385],[127.43963787999516,36.717042230916604],[127.43064467635791,36.717042230916604]]]}},{"type":"Feature","properties":{"jobs":425,"pop":20,"pointCount":1,"homeWorkCommuteMedian":8536,"workHomeCommuteMedian":9173},"geometry":{"type":"Polygon","coordinates":[[[127.43963787999516,36.57315097272067],[127.43963787999516,36.582144176357914],[127.4486310836324,36.582144176357914],[127.4486310836324,36.57315097272067],[127.43963787999516,36.57315097272067]]]}},{"type":"Feature","properties":{"jobs":19219,"pop":10256,"pointCount":3,"homeWorkCommuteMedian":6922,"workHomeCommuteMedian":6517},"geometry":{"type":"Polygon","coordinates":[[[127.43963787999516,36.60912378726965],[127.43963787999516,36.6181169909069],[127.4486310836324,36.6181169909069],[127.4486310836324,36.60912378726965],[127.43963787999516,36.60912378726965]]]}},{"type":"Feature","properties":{"jobs":20676,"pop":10005,"pointCount":4,"homeWorkCommuteMedian":5239,"workHomeCommuteMedian":5042},"geometry":{"type":"Polygon","coordinates":[[[127.43963787999516,36.6181169909069],[127.43963787999516,36.627110194544144],[127.4486310836324,36.627110194544144],[127.4486310836324,36.6181169909069],[127.43963787999516,36.6181169909069]]]}},{"type":"Feature","properties":{"jobs":10917,"pop":4471,"pointCount":3,"homeWorkCommuteMedian":4823,"workHomeCommuteMedian":4793},"geometry":{"type":"Polygon","coordinates":[[[127.43963787999516,36.627110194544144],[127.43963787999516,36.63610339818139],[127.4486310836324,36.63610339818139],[127.4486310836324,36.627110194544144],[127.43963787999516,36.627110194544144]]]}},{"type":"Feature","properties":{"jobs":5320,"pop":1307,"pointCount":1,"homeWorkCommuteMedian":12664,"workHomeCommuteMedian":12630},"geometry":{"type":"Polygon","coordinates":[[[127.43963787999516,36.72603543455385],[127.43963787999516,36.735028638191096],[127.4486310836324,36.735028638191096],[127.4486310836324,36.72603543455385],[127.43963787999516,36.72603543455385]]]}},{"type":"Feature","properties":{"jobs":692,"pop":60,"pointCount":1,"homeWorkCommuteMedian":7783,"workHomeCommuteMedian":9090},"geometry":{"type":"Polygon","coordinates":[[[127.4486310836324,36.56415776908342],[127.4486310836324,36.57315097272067],[127.45762428726965,36.57315097272067],[127.45762428726965,36.56415776908342],[127.4486310836324,36.56415776908342]]]}},{"type":"Feature","properties":{"jobs":1309,"pop":53,"pointCount":1,"homeWorkCommuteMedian":19087,"workHomeCommuteMedian":19087},"geometry":{"type":"Polygon","coordinates":[[[127.4486310836324,36.60013058363241],[127.4486310836324,36.60912378726965],[127.45762428726965,36.60912378726965],[127.45762428726965,36.60013058363241],[127.4486310836324,36.60013058363241]]]}},{"type":"Feature","properties":{"jobs":12787,"pop":7369,"pointCount":4,"homeWorkCommuteMedian":5461,"workHomeCommuteMedian":5090},"geometry":{"type":"Polygon","coordinates":[[[127.4486310836324,36.60912378726965],[127.4486310836324,36.6181169909069],[127.45762428726965,36.6181169909069],[127.45762428726965,36.60912378726965],[127.4486310836324,36.60912378726965]]]}},{"type":"Feature","properties":{"jobs":5567,"pop":1851,"pointCount":2,"homeWorkCommuteMedian":4699,"workHomeCommuteMedian":5090},"geometry":{"type":"Polygon","coordinates":[[[127.4486310836324,36.6181169909069],[127.4486310836324,36.627110194544144],[127.45762428726965,36.627110194544144],[127.45762428726965,36.6181169909069],[127.4486310836324,36.6181169909069]]]}},{"type":"Feature","properties":{"jobs":13813,"pop":747,"pointCount":5,"homeWorkCommuteMedian":4398,"workHomeCommuteMedian":5077},"geometry":{"type":"Polygon","coordinates":[[[127.4486310836324,36.627110194544144],[127.4486310836324,36.63610339818139],[127.45762428726965,36.63610339818139],[127.45762428726965,36.627110194544144],[127.4486310836324,36.627110194544144]]]}},{"type":"Feature","properties":{"jobs":6072,"pop":2392,"pointCount":2,"homeWorkCommuteMedian":4195,"workHomeCommuteMedian":4221},"geometry":{"type":"Polygon","coordinates":[[[127.4486310836324,36.63610339818139],[127.4486310836324,36.645096601818636],[127.45762428726965,36.645096601818636],[127.45762428726965,36.63610339818139],[127.4486310836324,36.63610339818139]]]}},{"type":"Feature","properties":{"jobs":1535,"pop":388,"pointCount":2,"homeWorkCommuteMedian":13230,"workHomeCommuteMedian":14803},"geometry":{"type":"Polygon","coordinates":[[[127.4486310836324,36.645096601818636],[127.4486310836324,36.65408980545588],[127.45762428726965,36.65408980545588],[127.45762428726965,36.645096601818636],[127.4486310836324,36.645096601818636]]]}},{"type":"Feature","properties":{"jobs":4514,"pop":2189,"pointCount":1,"homeWorkCommuteMedian":6922,"workHomeCommuteMedian":7106},"geometry":{"type":"Polygon","coordinates":[[[127.4486310836324,36.65408980545588],[127.4486310836324,36.66308300909313],[127.45762428726965,36.66308300909313],[127.45762428726965,36.65408980545588],[127.4486310836324,36.65408980545588]]]}},{"type":"Feature","properties":{"jobs":23389,"pop":17098,"pointCount":2,"homeWorkCommuteMedian":8420,"workHomeCommuteMedian":8223},"geometry":{"type":"Polygon","coordinates":[[[127.4486310836324,36.66308300909313],[127.4486310836324,36.672076212730374],[127.45762428726965,36.672076212730374],[127.45762428726965,36.66308300909313],[127.4486310836324,36.66308300909313]]]}},{"type":"Feature","properties":{"jobs":1230,"pop":281,"pointCount":1,"homeWorkCommuteMedian":19711,"workHomeCommuteMedian":4158},"geometry":{"type":"Polygon","coordinates":[[[127.4486310836324,36.69905582364211],[127.4486310836324,36.70804902727936],[127.45762428726965,36.70804902727936],[127.45762428726965,36.69905582364211],[127.4486310836324,36.69905582364211]]]}},{"type":"Feature","properties":{"jobs":528,"pop":22,"pointCount":1,"homeWorkCommuteMedian":5755,"workHomeCommuteMedian":3920},"geometry":{"type":"Polygon","coordinates":[[[127.4486310836324,36.70804902727936],[127.4486310836324,36.717042230916604],[127.45762428726965,36.717042230916604],[127.45762428726965,36.70804902727936],[127.4486310836324,36.70804902727936]]]}},{"type":"Feature","properties":{"jobs":24632,"pop":10392,"pointCount":2,"homeWorkCommuteMedian":13176,"workHomeCommuteMedian":13187},"geometry":{"type":"Polygon","coordinates":[[[127.4486310836324,36.72603543455385],[127.4486310836324,36.735028638191096],[127.45762428726965,36.735028638191096],[127.45762428726965,36.72603543455385],[127.4486310836324,36.72603543455385]]]}},{"type":"Feature","properties":{"jobs":9737,"pop":2290,"pointCount":3,"homeWorkCommuteMedian":11888,"workHomeCommuteMedian":11730},"geometry":{"type":"Polygon","coordinates":[[[127.4486310836324,36.735028638191096],[127.4486310836324,36.74402184182834],[127.45762428726965,36.74402184182834],[127.45762428726965,36.735028638191096],[127.4486310836324,36.735028638191096]]]}},{"type":"Feature","properties":{"jobs":8530,"pop":4255,"pointCount":2,"homeWorkCommuteMedian":4253,"workHomeCommuteMedian":4477},"geometry":{"type":"Polygon","coordinates":[[[127.45762428726965,36.60013058363241],[127.45762428726965,36.60912378726965],[127.4666174909069,36.60912378726965],[127.4666174909069,36.60013058363241],[127.45762428726965,36.60013058363241]]]}},{"type":"Feature","properties":{"jobs":12069,"pop":5592,"pointCount":3,"homeWorkCommuteMedian":4359,"workHomeCommuteMedian":4195},"geometry":{"type":"Polygon","coordinates":[[[127.45762428726965,36.60912378726965],[127.45762428726965,36.6181169909069],[127.4666174909069,36.6181169909069],[127.4666174909069,36.60912378726965],[127.45762428726965,36.60912378726965]]]}},{"type":"Feature","properties":{"jobs":5514,"pop":2230,"pointCount":3,"homeWorkCommuteMedian":3134,"workHomeCommuteMedian":3393},"geometry":{"type":"Polygon","coordinates":[[[127.45762428726965,36.6181169909069],[127.45762428726965,36.627110194544144],[127.4666174909069,36.627110194544144],[127.4666174909069,36.6181169909069],[127.45762428726965,36.6181169909069]]]}},{"type":"Feature","properties":{"jobs":12171,"pop":6577,"pointCount":4,"homeWorkCommuteMedian":3838,"workHomeCommuteMedian":4238},"geometry":{"type":"Polygon","coordinates":[[[127.45762428726965,36.627110194544144],[127.45762428726965,36.63610339818139],[127.4666174909069,36.63610339818139],[127.4666174909069,36.627110194544144],[127.45762428726965,36.627110194544144]]]}},{"type":"Feature","properties":{"jobs":8131,"pop":2047,"pointCount":4,"homeWorkCommuteMedian":4984,"workHomeCommuteMedian":4983},"geometry":{"type":"Polygon","coordinates":[[[127.45762428726965,36.63610339818139],[127.45762428726965,36.645096601818636],[127.4666174909069,36.645096601818636],[127.4666174909069,36.63610339818139],[127.45762428726965,36.63610339818139]]]}},{"type":"Feature","properties":{"jobs":6620,"pop":1796,"pointCount":3,"homeWorkCommuteMedian":5409,"workHomeCommuteMedian":5251},"geometry":{"type":"Polygon","coordinates":[[[127.45762428726965,36.645096601818636],[127.45762428726965,36.65408980545588],[127.4666174909069,36.65408980545588],[127.4666174909069,36.645096601818636],[127.45762428726965,36.645096601818636]]]}},{"type":"Feature","properties":{"jobs":1593,"pop":447,"pointCount":1,"homeWorkCommuteMedian":9511,"workHomeCommuteMedian":9804},"geometry":{"type":"Polygon","coordinates":[[[127.45762428726965,36.66308300909313],[127.45762428726965,36.672076212730374],[127.4666174909069,36.672076212730374],[127.4666174909069,36.66308300909313],[127.45762428726965,36.66308300909313]]]}},{"type":"Feature","properties":{"jobs":898,"pop":172,"pointCount":1,"homeWorkCommuteMedian":9708,"workHomeCommuteMedian":8649},"geometry":{"type":"Polygon","coordinates":[[[127.45762428726965,36.672076212730374],[127.45762428726965,36.68106941636762],[127.4666174909069,36.68106941636762],[127.4666174909069,36.672076212730374],[127.45762428726965,36.672076212730374]]]}},{"type":"Feature","properties":{"jobs":868,"pop":167,"pointCount":1,"homeWorkCommuteMedian":7973,"workHomeCommuteMedian":8105},"geometry":{"type":"Polygon","coordinates":[[[127.45762428726965,36.68106941636762],[127.45762428726965,36.690062620004866],[127.4666174909069,36.690062620004866],[127.4666174909069,36.68106941636762],[127.45762428726965,36.68106941636762]]]}},{"type":"Feature","properties":{"jobs":1185,"pop":270,"pointCount":1,"homeWorkCommuteMedian":5325,"workHomeCommuteMedian":5207},"geometry":{"type":"Polygon","coordinates":[[[127.45762428726965,36.717042230916604],[127.45762428726965,36.72603543455385],[127.4666174909069,36.72603543455385],[127.4666174909069,36.717042230916604],[127.45762428726965,36.717042230916604]]]}},{"type":"Feature","properties":{"jobs":3548,"pop":1798,"pointCount":1,"homeWorkCommuteMedian":8344,"workHomeCommuteMedian":9726},"geometry":{"type":"Polygon","coordinates":[[[127.45762428726965,36.72603543455385],[127.45762428726965,36.735028638191096],[127.4666174909069,36.735028638191096],[127.4666174909069,36.72603543455385],[127.45762428726965,36.72603543455385]]]}},{"type":"Feature","properties":{"jobs":5085,"pop":2038,"pointCount":2,"homeWorkCommuteMedian":4691,"workHomeCommuteMedian":4895},"geometry":{"type":"Polygon","coordinates":[[[127.4666174909069,36.59113737999516],[127.4666174909069,36.60013058363241],[127.47561069454414,36.60013058363241],[127.47561069454414,36.59113737999516],[127.4666174909069,36.59113737999516]]]}},{"type":"Feature","properties":{"jobs":15998,"pop":9564,"pointCount":2,"homeWorkCommuteMedian":4422,"workHomeCommuteMedian":4253},"geometry":{"type":"Polygon","coordinates":[[[127.4666174909069,36.60013058363241],[127.4666174909069,36.60912378726965],[127.47561069454414,36.60912378726965],[127.47561069454414,36.60013058363241],[127.4666174909069,36.60013058363241]]]}},{"type":"Feature","properties":{"jobs":23186,"pop":12043,"pointCount":4,"homeWorkCommuteMedian":3757,"workHomeCommuteMedian":3935},"geometry":{"type":"Polygon","coordinates":[[[127.4666174909069,36.60912378726965],[127.4666174909069,36.6181169909069],[127.47561069454414,36.6181169909069],[127.47561069454414,36.60912378726965],[127.4666174909069,36.60912378726965]]]}},{"type":"Feature","properties":{"jobs":16503,"pop":6909,"pointCount":4,"homeWorkCommuteMedian":3936,"workHomeCommuteMedian":3878},"geometry":{"type":"Polygon","coordinates":[[[127.4666174909069,36.6181169909069],[127.4666174909069,36.627110194544144],[127.47561069454414,36.627110194544144],[127.47561069454414,36.6181169909069],[127.4666174909069,36.6181169909069]]]}},{"type":"Feature","properties":{"jobs":13218,"pop":5595,"pointCount":4,"homeWorkCommuteMedian":4420,"workHomeCommuteMedian":4044},"geometry":{"type":"Polygon","coordinates":[[[127.4666174909069,36.627110194544144],[127.4666174909069,36.63610339818139],[127.47561069454414,36.63610339818139],[127.47561069454414,36.627110194544144],[127.4666174909069,36.627110194544144]]]}},{"type":"Feature","properties":{"jobs":4299,"pop":788,"pointCount":5,"homeWorkCommuteMedian":4895,"workHomeCommuteMedian":4183},"geometry":{"type":"Polygon","coordinates":[[[127.4666174909069,36.63610339818139],[127.4666174909069,36.645096601818636],[127.47561069454414,36.645096601818636],[127.47561069454414,36.63610339818139],[127.4666174909069,36.63610339818139]]]}},{"type":"Feature","properties":{"jobs":4635,"pop":2426,"pointCount":3,"homeWorkCommuteMedian":6380,"workHomeCommuteMedian":6442},"geometry":{"type":"Polygon","coordinates":[[[127.4666174909069,36.645096601818636],[127.4666174909069,36.65408980545588],[127.47561069454414,36.65408980545588],[127.47561069454414,36.645096601818636],[127.4666174909069,36.645096601818636]]]}},{"type":"Feature","properties":{"jobs":2722,"pop":770,"pointCount":3,"homeWorkCommuteMedian":10923,"workHomeCommuteMedian":10950},"geometry":{"type":"Polygon","coordinates":[[[127.4666174909069,36.65408980545588],[127.4666174909069,36.66308300909313],[127.47561069454414,36.66308300909313],[127.47561069454414,36.65408980545588],[127.4666174909069,36.65408980545588]]]}},{"type":"Feature","properties":{"jobs":1200,"pop":274,"pointCount":1,"homeWorkCommuteMedian":9429,"workHomeCommuteMedian":9229},"geometry":{"type":"Polygon","coordinates":[[[127.4666174909069,36.672076212730374],[127.4666174909069,36.68106941636762],[127.47561069454414,36.68106941636762],[127.47561069454414,36.672076212730374],[127.4666174909069,36.672076212730374]]]}},{"type":"Feature","properties":{"jobs":1456,"pop":200,"pointCount":2,"homeWorkCommuteMedian":8449,"workHomeCommuteMedian":8868},"geometry":{"type":"Polygon","coordinates":[[[127.4666174909069,36.68106941636762],[127.4666174909069,36.690062620004866],[127.47561069454414,36.690062620004866],[127.47561069454414,36.68106941636762],[127.4666174909069,36.68106941636762]]]}},{"type":"Feature","properties":{"jobs":6095,"pop":2449,"pointCount":3,"homeWorkCommuteMedian":3410,"workHomeCommuteMedian":3328},"geometry":{"type":"Polygon","coordinates":[[[127.47561069454414,36.60013058363241],[127.47561069454414,36.60912378726965],[127.48460389818139,36.60912378726965],[127.48460389818139,36.60013058363241],[127.47561069454414,36.60013058363241]]]}},{"type":"Feature","properties":{"jobs":14125,"pop":6497,"pointCount":4,"homeWorkCommuteMedian":2966,"workHomeCommuteMedian":3199},"geometry":{"type":"Polygon","coordinates":[[[127.47561069454414,36.60912378726965],[127.47561069454414,36.6181169909069],[127.48460389818139,36.6181169909069],[127.48460389818139,36.60912378726965],[127.47561069454414,36.60912378726965]]]}},{"type":"Feature","properties":{"jobs":57086,"pop":32023,"pointCount":5,"homeWorkCommuteMedian":4477,"workHomeCommuteMedian":4612},"geometry":{"type":"Polygon","coordinates":[[[127.47561069454414,36.6181169909069],[127.47561069454414,36.627110194544144],[127.48460389818139,36.627110194544144],[127.48460389818139,36.6181169909069],[127.47561069454414,36.6181169909069]]]}},{"type":"Feature","properties":{"jobs":21484,"pop":12044,"pointCount":4,"homeWorkCommuteMedian":4526,"workHomeCommuteMedian":4522},"geometry":{"type":"Polygon","coordinates":[[[127.47561069454414,36.627110194544144],[127.47561069454414,36.63610339818139],[127.48460389818139,36.63610339818139],[127.48460389818139,36.627110194544144],[127.47561069454414,36.627110194544144]]]}},{"type":"Feature","properties":{"jobs":2677,"pop":733,"pointCount":2,"homeWorkCommuteMedian":4895,"workHomeCommuteMedian":4599},"geometry":{"type":"Polygon","coordinates":[[[127.47561069454414,36.63610339818139],[127.47561069454414,36.645096601818636],[127.48460389818139,36.645096601818636],[127.48460389818139,36.63610339818139],[127.47561069454414,36.63610339818139]]]}},{"type":"Feature","properties":{"jobs":2924,"pop":801,"pointCount":3,"homeWorkCommuteMedian":10863,"workHomeCommuteMedian":10223},"geometry":{"type":"Polygon","coordinates":[[[127.47561069454414,36.645096601818636],[127.47561069454414,36.65408980545588],[127.48460389818139,36.65408980545588],[127.48460389818139,36.645096601818636],[127.47561069454414,36.645096601818636]]]}},{"type":"Feature","properties":{"jobs":1630,"pop":280,"pointCount":2,"homeWorkCommuteMedian":11520,"workHomeCommuteMedian":11065},"geometry":{"type":"Polygon","coordinates":[[[127.47561069454414,36.65408980545588],[127.47561069454414,36.66308300909313],[127.48460389818139,36.66308300909313],[127.48460389818139,36.65408980545588],[127.47561069454414,36.65408980545588]]]}},{"type":"Feature","properties":{"jobs":4227,"pop":1430,"pointCount":3,"homeWorkCommuteMedian":10098,"workHomeCommuteMedian":9790},"geometry":{"type":"Polygon","coordinates":[[[127.47561069454414,36.66308300909313],[127.47561069454414,36.672076212730374],[127.48460389818139,36.672076212730374],[127.48460389818139,36.66308300909313],[127.47561069454414,36.66308300909313]]]}},{"type":"Feature","properties":{"jobs":1615,"pop":432,"pointCount":1,"homeWorkCommuteMedian":9140,"workHomeCommuteMedian":9097},"geometry":{"type":"Polygon","coordinates":[[[127.47561069454414,36.672076212730374],[127.47561069454414,36.68106941636762],[127.48460389818139,36.68106941636762],[127.48460389818139,36.672076212730374],[127.47561069454414,36.672076212730374]]]}},{"type":"Feature","properties":{"jobs":1215,"pop":111,"pointCount":2,"homeWorkCommuteMedian":7798,"workHomeCommuteMedian":7279},"geometry":{"type":"Polygon","coordinates":[[[127.47561069454414,36.68106941636762],[127.47561069454414,36.690062620004866],[127.48460389818139,36.690062620004866],[127.48460389818139,36.68106941636762],[127.47561069454414,36.68106941636762]]]}},{"type":"Feature","properties":{"jobs":4135,"pop":1475,"pointCount":3,"homeWorkCommuteMedian":7368,"workHomeCommuteMedian":7945},"geometry":{"type":"Polygon","coordinates":[[[127.47561069454414,36.690062620004866],[127.47561069454414,36.69905582364211],[127.48460389818139,36.69905582364211],[127.48460389818139,36.690062620004866],[127.47561069454414,36.690062620004866]]]}},{"type":"Feature","properties":{"jobs":868,"pop":255,"pointCount":1,"homeWorkCommuteMedian":7884,"workHomeCommuteMedian":6814},"geometry":{"type":"Polygon","coordinates":[[[127.47561069454414,36.70804902727936],[127.47561069454414,36.717042230916604],[127.48460389818139,36.717042230916604],[127.48460389818139,36.70804902727936],[127.47561069454414,36.70804902727936]]]}},{"type":"Feature","properties":{"jobs":152,"pop":20,"pointCount":1,"homeWorkCommuteMedian":11491,"workHomeCommuteMedian":11451},"geometry":{"type":"Polygon","coordinates":[[[127.48460389818139,36.537178158171685],[127.48460389818139,36.54617136180893],[127.49359710181864,36.54617136180893],[127.49359710181864,36.537178158171685],[127.48460389818139,36.537178158171685]]]}},{"type":"Feature","properties":{"jobs":290,"pop":38,"pointCount":1,"homeWorkCommuteMedian":10027,"workHomeCommuteMedian":9382},"geometry":{"type":"Polygon","coordinates":[[[127.48460389818139,36.55516456544618],[127.48460389818139,36.56415776908342],[127.49359710181864,36.56415776908342],[127.49359710181864,36.55516456544618],[127.48460389818139,36.55516456544618]]]}},{"type":"Feature","properties":{"jobs":21,"pop":752,"pointCount":1,"homeWorkCommuteMedian":7763,"workHomeCommuteMedian":-1},"geometry":{"type":"Polygon","coordinates":[[[127.48460389818139,36.59113737999516],[127.48460389818139,36.60013058363241],[127.49359710181864,36.60013058363241],[127.49359710181864,36.59113737999516],[127.48460389818139,36.59113737999516]]]}},{"type":"Feature","properties":{"jobs":23472,"pop":12111,"pointCount":4,"homeWorkCommuteMedian":3904,"workHomeCommuteMedian":3992},"geometry":{"type":"Polygon","coordinates":[[[127.48460389818139,36.60013058363241],[127.48460389818139,36.60912378726965],[127.49359710181864,36.60912378726965],[127.49359710181864,36.60013058363241],[127.48460389818139,36.60013058363241]]]}},{"type":"Feature","properties":{"jobs":9967,"pop":4504,"pointCount":4,"homeWorkCommuteMedian":3127,"workHomeCommuteMedian":3095},"geometry":{"type":"Polygon","coordinates":[[[127.48460389818139,36.60912378726965],[127.48460389818139,36.6181169909069],[127.49359710181864,36.6181169909069],[127.49359710181864,36.60912378726965],[127.48460389818139,36.60912378726965]]]}},{"type":"Feature","properties":{"jobs":4028,"pop":1071,"pointCount":4,"homeWorkCommuteMedian":4185,"workHomeCommuteMedian":3698},"geometry":{"type":"Polygon","coordinates":[[[127.48460389818139,36.6181169909069],[127.48460389818139,36.627110194544144],[127.49359710181864,36.627110194544144],[127.49359710181864,36.6181169909069],[127.48460389818139,36.6181169909069]]]}},{"type":"Feature","properties":{"jobs":3932,"pop":2091,"pointCount":4,"homeWorkCommuteMedian":4424,"workHomeCommuteMedian":4049},"geometry":{"type":"Polygon","coordinates":[[[127.48460389818139,36.627110194544144],[127.48460389818139,36.63610339818139],[127.49359710181864,36.63610339818139],[127.49359710181864,36.627110194544144],[127.48460389818139,36.627110194544144]]]}},{"type":"Feature","properties":{"jobs":14730,"pop":8158,"pointCount":4,"homeWorkCommuteMedian":5358,"workHomeCommuteMedian":5461},"geometry":{"type":"Polygon","coordinates":[[[127.48460389818139,36.63610339818139],[127.48460389818139,36.645096601818636],[127.49359710181864,36.645096601818636],[127.49359710181864,36.63610339818139],[127.48460389818139,36.63610339818139]]]}},{"type":"Feature","properties":{"jobs":16740,"pop":11823,"pointCount":4,"homeWorkCommuteMedian":11482,"workHomeCommuteMedian":11285},"geometry":{"type":"Polygon","coordinates":[[[127.48460389818139,36.645096601818636],[127.48460389818139,36.65408980545588],[127.49359710181864,36.65408980545588],[127.49359710181864,36.645096601818636],[127.48460389818139,36.645096601818636]]]}},{"type":"Feature","properties":{"jobs":4605,"pop":1604,"pointCount":3,"homeWorkCommuteMedian":11060,"workHomeCommuteMedian":10703},"geometry":{"type":"Polygon","coordinates":[[[127.48460389818139,36.65408980545588],[127.48460389818139,36.66308300909313],[127.49359710181864,36.66308300909313],[127.49359710181864,36.65408980545588],[127.48460389818139,36.65408980545588]]]}},{"type":"Feature","properties":{"jobs":9994,"pop":4478,"pointCount":4,"homeWorkCommuteMedian":9938,"workHomeCommuteMedian":9511},"geometry":{"type":"Polygon","coordinates":[[[127.48460389818139,36.66308300909313],[127.48460389818139,36.672076212730374],[127.49359710181864,36.672076212730374],[127.49359710181864,36.66308300909313],[127.48460389818139,36.66308300909313]]]}},{"type":"Feature","properties":{"jobs":2890,"pop":1427,"pointCount":3,"homeWorkCommuteMedian":9408,"workHomeCommuteMedian":9889},"geometry":{"type":"Polygon","coordinates":[[[127.48460389818139,36.672076212730374],[127.48460389818139,36.68106941636762],[127.49359710181864,36.68106941636762],[127.49359710181864,36.672076212730374],[127.48460389818139,36.672076212730374]]]}},{"type":"Feature","properties":{"jobs":739,"pop":125,"pointCount":1,"homeWorkCommuteMedian":7905,"workHomeCommuteMedian":7888},"geometry":{"type":"Polygon","coordinates":[[[127.48460389818139,36.690062620004866],[127.48460389818139,36.69905582364211],[127.49359710181864,36.69905582364211],[127.49359710181864,36.690062620004866],[127.48460389818139,36.690062620004866]]]}},{"type":"Feature","properties":{"jobs":3096,"pop":1038,"pointCount":4,"homeWorkCommuteMedian":14949,"workHomeCommuteMedian":13974},"geometry":{"type":"Polygon","coordinates":[[[127.49359710181864,36.51019854725995],[127.49359710181864,36.51919175089719],[127.50259030545588,36.51919175089719],[127.50259030545588,36.51019854725995],[127.49359710181864,36.51019854725995]]]}},{"type":"Feature","properties":{"jobs":193,"pop":25,"pointCount":1,"homeWorkCommuteMedian":12894,"workHomeCommuteMedian":12894},"geometry":{"type":"Polygon","coordinates":[[[127.49359710181864,36.52818495453444],[127.49359710181864,36.537178158171685],[127.50259030545588,36.537178158171685],[127.50259030545588,36.52818495453444],[127.49359710181864,36.52818495453444]]]}},{"type":"Feature","properties":{"jobs":172,"pop":23,"pointCount":1,"homeWorkCommuteMedian":11351,"workHomeCommuteMedian":11310},"geometry":{"type":"Polygon","coordinates":[[[127.49359710181864,36.537178158171685],[127.49359710181864,36.54617136180893],[127.50259030545588,36.54617136180893],[127.50259030545588,36.537178158171685],[127.49359710181864,36.537178158171685]]]}},{"type":"Feature","properties":{"jobs":5250,"pop":2339,"pointCount":2,"homeWorkCommuteMedian":4266,"workHomeCommuteMedian":4253},"geometry":{"type":"Polygon","coordinates":[[[127.49359710181864,36.60013058363241],[127.49359710181864,36.60912378726965],[127.50259030545588,36.60912378726965],[127.50259030545588,36.60013058363241],[127.49359710181864,36.60013058363241]]]}},{"type":"Feature","properties":{"jobs":2351,"pop":872,"pointCount":3,"homeWorkCommuteMedian":3108,"workHomeCommuteMedian":2948},"geometry":{"type":"Polygon","coordinates":[[[127.49359710181864,36.60912378726965],[127.49359710181864,36.6181169909069],[127.50259030545588,36.6181169909069],[127.50259030545588,36.60912378726965],[127.49359710181864,36.60912378726965]]]}},{"type":"Feature","properties":{"jobs":7953,"pop":3521,"pointCount":6,"homeWorkCommuteMedian":3127,"workHomeCommuteMedian":3127},"geometry":{"type":"Polygon","coordinates":[[[127.49359710181864,36.6181169909069],[127.49359710181864,36.627110194544144],[127.50259030545588,36.627110194544144],[127.50259030545588,36.6181169909069],[127.49359710181864,36.6181169909069]]]}},{"type":"Feature","properties":{"jobs":11021,"pop":5381,"pointCount":4,"homeWorkCommuteMedian":3516,"workHomeCommuteMedian":3565},"geometry":{"type":"Polygon","coordinates":[[[127.49359710181864,36.627110194544144],[127.49359710181864,36.63610339818139],[127.50259030545588,36.63610339818139],[127.50259030545588,36.627110194544144],[127.49359710181864,36.627110194544144]]]}},{"type":"Feature","properties":{"jobs":845,"pop":9524,"pointCount":2,"homeWorkCommuteMedian":4886,"workHomeCommuteMedian":4886},"geometry":{"type":"Polygon","coordinates":[[[127.49359710181864,36.63610339818139],[127.49359710181864,36.645096601818636],[127.50259030545588,36.645096601818636],[127.50259030545588,36.63610339818139],[127.49359710181864,36.63610339818139]]]}},{"type":"Feature","properties":{"jobs":9878,"pop":276,"pointCount":3,"homeWorkCommuteMedian":6122,"workHomeCommuteMedian":5927},"geometry":{"type":"Polygon","coordinates":[[[127.49359710181864,36.645096601818636],[127.49359710181864,36.65408980545588],[127.50259030545588,36.65408980545588],[127.50259030545588,36.645096601818636],[127.49359710181864,36.645096601818636]]]}},{"type":"Feature","properties":{"jobs":4233,"pop":1725,"pointCount":3,"homeWorkCommuteMedian":11149,"workHomeCommuteMedian":11115},"geometry":{"type":"Polygon","coordinates":[[[127.49359710181864,36.65408980545588],[127.49359710181864,36.66308300909313],[127.50259030545588,36.66308300909313],[127.50259030545588,36.65408980545588],[127.49359710181864,36.65408980545588]]]}},{"type":"Feature","properties":{"jobs":9987,"pop":4821,"pointCount":4,"homeWorkCommuteMedian":10125,"workHomeCommuteMedian":10085},"geometry":{"type":"Polygon","coordinates":[[[127.49359710181864,36.66308300909313],[127.49359710181864,36.672076212730374],[127.50259030545588,36.672076212730374],[127.50259030545588,36.66308300909313],[127.49359710181864,36.66308300909313]]]}},{"type":"Feature","properties":{"jobs":12792,"pop":0,"pointCount":1,"homeWorkCommuteMedian":-1,"workHomeCommuteMedian":17876},"geometry":{"type":"Polygon","coordinates":[[[127.49359710181864,36.70804902727936],[127.49359710181864,36.717042230916604],[127.50259030545588,36.717042230916604],[127.50259030545588,36.70804902727936],[127.49359710181864,36.70804902727936]]]}},{"type":"Feature","properties":{"jobs":281,"pop":60,"pointCount":1,"homeWorkCommuteMedian":8465,"workHomeCommuteMedian":8507},"geometry":{"type":"Polygon","coordinates":[[[127.50259030545588,36.55516456544618],[127.50259030545588,36.56415776908342],[127.51158350909313,36.56415776908342],[127.51158350909313,36.55516456544618],[127.50259030545588,36.55516456544618]]]}},{"type":"Feature","properties":{"jobs":606,"pop":101,"pointCount":2,"homeWorkCommuteMedian":5766,"workHomeCommuteMedian":5841},"geometry":{"type":"Polygon","coordinates":[[[127.50259030545588,36.57315097272067],[127.50259030545588,36.582144176357914],[127.51158350909313,36.582144176357914],[127.51158350909313,36.57315097272067],[127.50259030545588,36.57315097272067]]]}},{"type":"Feature","properties":{"jobs":2920,"pop":1198,"pointCount":3,"homeWorkCommuteMedian":4895,"workHomeCommuteMedian":4734},"geometry":{"type":"Polygon","coordinates":[[[127.50259030545588,36.582144176357914],[127.50259030545588,36.59113737999516],[127.51158350909313,36.59113737999516],[127.51158350909313,36.582144176357914],[127.50259030545588,36.582144176357914]]]}},{"type":"Feature","properties":{"jobs":318,"pop":10299,"pointCount":1,"homeWorkCommuteMedian":5854,"workHomeCommuteMedian":6015},"geometry":{"type":"Polygon","coordinates":[[[127.50259030545588,36.59113737999516],[127.50259030545588,36.60013058363241],[127.51158350909313,36.60013058363241],[127.51158350909313,36.59113737999516],[127.50259030545588,36.59113737999516]]]}},{"type":"Feature","properties":{"jobs":4567,"pop":20657,"pointCount":4,"homeWorkCommuteMedian":5348,"workHomeCommuteMedian":5167},"geometry":{"type":"Polygon","coordinates":[[[127.50259030545588,36.60013058363241],[127.50259030545588,36.60912378726965],[127.51158350909313,36.60912378726965],[127.51158350909313,36.60013058363241],[127.50259030545588,36.60013058363241]]]}},{"type":"Feature","properties":{"jobs":5322,"pop":1560,"pointCount":4,"homeWorkCommuteMedian":2211,"workHomeCommuteMedian":2363},"geometry":{"type":"Polygon","coordinates":[[[127.50259030545588,36.60912378726965],[127.50259030545588,36.6181169909069],[127.51158350909313,36.6181169909069],[127.51158350909313,36.60912378726965],[127.50259030545588,36.60912378726965]]]}},{"type":"Feature","properties":{"jobs":16532,"pop":7110,"pointCount":4,"homeWorkCommuteMedian":2875,"workHomeCommuteMedian":2661},"geometry":{"type":"Polygon","coordinates":[[[127.50259030545588,36.6181169909069],[127.50259030545588,36.627110194544144],[127.51158350909313,36.627110194544144],[127.51158350909313,36.6181169909069],[127.50259030545588,36.6181169909069]]]}},{"type":"Feature","properties":{"jobs":16696,"pop":7700,"pointCount":4,"homeWorkCommuteMedian":3496,"workHomeCommuteMedian":3299},"geometry":{"type":"Polygon","coordinates":[[[127.50259030545588,36.627110194544144],[127.50259030545588,36.63610339818139],[127.51158350909313,36.63610339818139],[127.51158350909313,36.627110194544144],[127.50259030545588,36.627110194544144]]]}},{"type":"Feature","properties":{"jobs":4019,"pop":1132,"pointCount":3,"homeWorkCommuteMedian":12877,"workHomeCommuteMedian":12226},"geometry":{"type":"Polygon","coordinates":[[[127.50259030545588,36.65408980545588],[127.50259030545588,36.66308300909313],[127.51158350909313,36.66308300909313],[127.51158350909313,36.65408980545588],[127.50259030545588,36.65408980545588]]]}},{"type":"Feature","properties":{"jobs":12342,"pop":6196,"pointCount":3,"homeWorkCommuteMedian":9964,"workHomeCommuteMedian":10003},"geometry":{"type":"Polygon","coordinates":[[[127.50259030545588,36.69905582364211],[127.50259030545588,36.70804902727936],[127.51158350909313,36.70804902727936],[127.51158350909313,36.69905582364211],[127.50259030545588,36.69905582364211]]]}},{"type":"Feature","properties":{"jobs":172,"pop":23,"pointCount":1,"homeWorkCommuteMedian":12672,"workHomeCommuteMedian":12850},"geometry":{"type":"Polygon","coordinates":[[[127.51158350909313,36.51919175089719],[127.51158350909313,36.52818495453444],[127.52057671273037,36.52818495453444],[127.52057671273037,36.51919175089719],[127.51158350909313,36.51919175089719]]]}},{"type":"Feature","properties":{"jobs":411,"pop":247,"pointCount":2,"homeWorkCommuteMedian":21604,"workHomeCommuteMedian":7027},"geometry":{"type":"Polygon","coordinates":[[[127.51158350909313,36.56415776908342],[127.51158350909313,36.57315097272067],[127.52057671273037,36.57315097272067],[127.52057671273037,36.56415776908342],[127.51158350909313,36.56415776908342]]]}},{"type":"Feature","properties":{"jobs":1949,"pop":735,"pointCount":2,"homeWorkCommuteMedian":6189,"workHomeCommuteMedian":5732},"geometry":{"type":"Polygon","coordinates":[[[127.51158350909313,36.57315097272067],[127.51158350909313,36.582144176357914],[127.52057671273037,36.582144176357914],[127.52057671273037,36.57315097272067],[127.51158350909313,36.57315097272067]]]}},{"type":"Feature","properties":{"jobs":571,"pop":75,"pointCount":2,"homeWorkCommuteMedian":4644,"workHomeCommuteMedian":6454},"geometry":{"type":"Polygon","coordinates":[[[127.51158350909313,36.582144176357914],[127.51158350909313,36.59113737999516],[127.52057671273037,36.59113737999516],[127.52057671273037,36.582144176357914],[127.51158350909313,36.582144176357914]]]}},{"type":"Feature","properties":{"jobs":162,"pop":21,"pointCount":1,"homeWorkCommuteMedian":3473,"workHomeCommuteMedian":2797},"geometry":{"type":"Polygon","coordinates":[[[127.51158350909313,36.59113737999516],[127.51158350909313,36.60013058363241],[127.52057671273037,36.60013058363241],[127.52057671273037,36.59113737999516],[127.51158350909313,36.59113737999516]]]}},{"type":"Feature","properties":{"jobs":16843,"pop":8619,"pointCount":4,"homeWorkCommuteMedian":3923,"workHomeCommuteMedian":3899},"geometry":{"type":"Polygon","coordinates":[[[127.51158350909313,36.60013058363241],[127.51158350909313,36.60912378726965],[127.52057671273037,36.60912378726965],[127.52057671273037,36.60013058363241],[127.51158350909313,36.60013058363241]]]}},{"type":"Feature","properties":{"jobs":82124,"pop":42468,"pointCount":4,"homeWorkCommuteMedian":6293,"workHomeCommuteMedian":5921},"geometry":{"type":"Polygon","coordinates":[[[127.51158350909313,36.60912378726965],[127.51158350909313,36.6181169909069],[127.52057671273037,36.6181169909069],[127.52057671273037,36.60912378726965],[127.51158350909313,36.60912378726965]]]}},{"type":"Feature","properties":{"jobs":28380,"pop":13482,"pointCount":3,"homeWorkCommuteMedian":4055,"workHomeCommuteMedian":3774},"geometry":{"type":"Polygon","coordinates":[[[127.51158350909313,36.6181169909069],[127.51158350909313,36.627110194544144],[127.52057671273037,36.627110194544144],[127.52057671273037,36.6181169909069],[127.51158350909313,36.6181169909069]]]}},{"type":"Feature","properties":{"jobs":19328,"pop":8972,"pointCount":3,"homeWorkCommuteMedian":4429,"workHomeCommuteMedian":4422},"geometry":{"type":"Polygon","coordinates":[[[127.51158350909313,36.627110194544144],[127.51158350909313,36.63610339818139],[127.52057671273037,36.63610339818139],[127.52057671273037,36.627110194544144],[127.51158350909313,36.627110194544144]]]}},{"type":"Feature","properties":{"jobs":1110,"pop":650,"pointCount":1,"homeWorkCommuteMedian":13369,"workHomeCommuteMedian":13191},"geometry":{"type":"Polygon","coordinates":[[[127.51158350909313,36.65408980545588],[127.51158350909313,36.66308300909313],[127.52057671273037,36.66308300909313],[127.52057671273037,36.65408980545588],[127.51158350909313,36.65408980545588]]]}},{"type":"Feature","properties":{"jobs":512,"pop":21,"pointCount":1,"homeWorkCommuteMedian":10395,"workHomeCommuteMedian":11171},"geometry":{"type":"Polygon","coordinates":[[[127.51158350909313,36.70804902727936],[127.51158350909313,36.717042230916604],[127.52057671273037,36.717042230916604],[127.52057671273037,36.70804902727936],[127.51158350909313,36.70804902727936]]]}},{"type":"Feature","properties":{"jobs":187,"pop":25,"pointCount":1,"homeWorkCommuteMedian":16144,"workHomeCommuteMedian":15946},"geometry":{"type":"Polygon","coordinates":[[[127.52057671273037,36.51019854725995],[127.52057671273037,36.51919175089719],[127.52956991636762,36.51919175089719],[127.52956991636762,36.51019854725995],[127.52057671273037,36.51019854725995]]]}},{"type":"Feature","properties":{"jobs":175,"pop":23,"pointCount":1,"homeWorkCommuteMedian":14056,"workHomeCommuteMedian":12547},"geometry":{"type":"Polygon","coordinates":[[[127.52057671273037,36.51919175089719],[127.52057671273037,36.52818495453444],[127.52956991636762,36.52818495453444],[127.52956991636762,36.51919175089719],[127.52057671273037,36.51919175089719]]]}},{"type":"Feature","properties":{"jobs":160,"pop":21,"pointCount":1,"homeWorkCommuteMedian":12606,"workHomeCommuteMedian":12606},"geometry":{"type":"Polygon","coordinates":[[[127.52057671273037,36.52818495453444],[127.52057671273037,36.537178158171685],[127.52956991636762,36.537178158171685],[127.52956991636762,36.52818495453444],[127.52057671273037,36.52818495453444]]]}},{"type":"Feature","properties":{"jobs":213,"pop":57,"pointCount":1,"homeWorkCommuteMedian":10512,"workHomeCommuteMedian":11337},"geometry":{"type":"Polygon","coordinates":[[[127.52057671273037,36.54617136180893],[127.52057671273037,36.55516456544618],[127.52956991636762,36.55516456544618],[127.52956991636762,36.54617136180893],[127.52057671273037,36.54617136180893]]]}},{"type":"Feature","properties":{"jobs":152,"pop":20,"pointCount":1,"homeWorkCommuteMedian":9004,"workHomeCommuteMedian":8963},"geometry":{"type":"Polygon","coordinates":[[[127.52057671273037,36.56415776908342],[127.52057671273037,36.57315097272067],[127.52956991636762,36.57315097272067],[127.52956991636762,36.56415776908342],[127.52057671273037,36.56415776908342]]]}},{"type":"Feature","properties":{"jobs":193,"pop":25,"pointCount":1,"homeWorkCommuteMedian":5763,"workHomeCommuteMedian":5767},"geometry":{"type":"Polygon","coordinates":[[[127.52057671273037,36.582144176357914],[127.52057671273037,36.59113737999516],[127.52956991636762,36.59113737999516],[127.52956991636762,36.582144176357914],[127.52057671273037,36.582144176357914]]]}},{"type":"Feature","properties":{"jobs":20632,"pop":12003,"pointCount":3,"homeWorkCommuteMedian":4837,"workHomeCommuteMedian":4514},"geometry":{"type":"Polygon","coordinates":[[[127.52057671273037,36.60013058363241],[127.52057671273037,36.60912378726965],[127.52956991636762,36.60912378726965],[127.52956991636762,36.60013058363241],[127.52057671273037,36.60013058363241]]]}},{"type":"Feature","properties":{"jobs":20216,"pop":7887,"pointCount":2,"homeWorkCommuteMedian":4422,"workHomeCommuteMedian":4204},"geometry":{"type":"Polygon","coordinates":[[[127.52057671273037,36.60912378726965],[127.52057671273037,36.6181169909069],[127.52956991636762,36.6181169909069],[127.52956991636762,36.60912378726965],[127.52057671273037,36.60912378726965]]]}},{"type":"Feature","properties":{"jobs":45,"pop":1083,"pointCount":1,"homeWorkCommuteMedian":8380,"workHomeCommuteMedian":-1},"geometry":{"type":"Polygon","coordinates":[[[127.52057671273037,36.6181169909069],[127.52057671273037,36.627110194544144],[127.52956991636762,36.627110194544144],[127.52956991636762,36.6181169909069],[127.52057671273037,36.6181169909069]]]}},{"type":"Feature","properties":{"jobs":1335,"pop":166,"pointCount":2,"homeWorkCommuteMedian":3565,"workHomeCommuteMedian":3062},"geometry":{"type":"Polygon","coordinates":[[[127.52057671273037,36.627110194544144],[127.52057671273037,36.63610339818139],[127.52956991636762,36.63610339818139],[127.52956991636762,36.627110194544144],[127.52057671273037,36.627110194544144]]]}},{"type":"Feature","properties":{"jobs":60,"pop":436,"pointCount":1,"homeWorkCommuteMedian":10864,"workHomeCommuteMedian":-1},"geometry":{"type":"Polygon","coordinates":[[[127.52057671273037,36.645096601818636],[127.52057671273037,36.65408980545588],[127.52956991636762,36.65408980545588],[127.52956991636762,36.645096601818636],[127.52057671273037,36.645096601818636]]]}},{"type":"Feature","properties":{"jobs":5652,"pop":2254,"pointCount":2,"homeWorkCommuteMedian":11726,"workHomeCommuteMedian":11658},"geometry":{"type":"Polygon","coordinates":[[[127.52057671273037,36.69905582364211],[127.52057671273037,36.70804902727936],[127.52956991636762,36.70804902727936],[127.52956991636762,36.69905582364211],[127.52057671273037,36.69905582364211]]]}},{"type":"Feature","properties":{"jobs":6897,"pop":2480,"pointCount":4,"homeWorkCommuteMedian":12517,"workHomeCommuteMedian":12388},"geometry":{"type":"Polygon","coordinates":[[[127.52057671273037,36.70804902727936],[127.52057671273037,36.717042230916604],[127.52956991636762,36.717042230916604],[127.52956991636762,36.70804902727936],[127.52057671273037,36.70804902727936]]]}},{"type":"Feature","properties":{"jobs":5867,"pop":3336,"pointCount":1,"homeWorkCommuteMedian":12890,"workHomeCommuteMedian":13200},"geometry":{"type":"Polygon","coordinates":[[[127.52057671273037,36.717042230916604],[127.52057671273037,36.72603543455385],[127.52956991636762,36.72603543455385],[127.52956991636762,36.717042230916604],[127.52057671273037,36.717042230916604]]]}},{"type":"Feature","properties":{"jobs":803,"pop":859,"pointCount":2,"homeWorkCommuteMedian":8106,"workHomeCommuteMedian":2870},"geometry":{"type":"Polygon","coordinates":[[[127.52956991636762,36.60912378726965],[127.52956991636762,36.6181169909069],[127.53856312000487,36.6181169909069],[127.53856312000487,36.60912378726965],[127.52956991636762,36.60912378726965]]]}},{"type":"Feature","properties":{"jobs":460,"pop":23,"pointCount":1,"homeWorkCommuteMedian":1649,"workHomeCommuteMedian":1649},"geometry":{"type":"Polygon","coordinates":[[[127.52956991636762,36.6181169909069],[127.52956991636762,36.627110194544144],[127.53856312000487,36.627110194544144],[127.53856312000487,36.6181169909069],[127.52956991636762,36.6181169909069]]]}},{"type":"Feature","properties":{"jobs":1183,"pop":111,"pointCount":2,"homeWorkCommuteMedian":14445,"workHomeCommuteMedian":12894},"geometry":{"type":"Polygon","coordinates":[[[127.52956991636762,36.70804902727936],[127.52956991636762,36.717042230916604],[127.53856312000487,36.717042230916604],[127.53856312000487,36.70804902727936],[127.52956991636762,36.70804902727936]]]}},{"type":"Feature","properties":{"jobs":14046,"pop":7154,"pointCount":3,"homeWorkCommuteMedian":13194,"workHomeCommuteMedian":13194},"geometry":{"type":"Polygon","coordinates":[[[127.52956991636762,36.717042230916604],[127.52956991636762,36.72603543455385],[127.53856312000487,36.72603543455385],[127.53856312000487,36.717042230916604],[127.52956991636762,36.717042230916604]]]}},{"type":"Feature","properties":{"jobs":275,"pop":36,"pointCount":1,"homeWorkCommuteMedian":4195,"workHomeCommuteMedian":4195},"geometry":{"type":"Polygon","coordinates":[[[127.53856312000487,36.60912378726965],[127.53856312000487,36.6181169909069],[127.54755632364211,36.6181169909069],[127.54755632364211,36.60912378726965],[127.53856312000487,36.60912378726965]]]}},{"type":"Feature","properties":{"jobs":243,"pop":32,"pointCount":1,"homeWorkCommuteMedian":4112,"workHomeCommuteMedian":4139},"geometry":{"type":"Polygon","coordinates":[[[127.53856312000487,36.6181169909069],[127.53856312000487,36.627110194544144],[127.54755632364211,36.627110194544144],[127.54755632364211,36.6181169909069],[127.53856312000487,36.6181169909069]]]}},{"type":"Feature","properties":{"jobs":2046,"pop":466,"pointCount":1,"homeWorkCommuteMedian":6597,"workHomeCommuteMedian":7720},"geometry":{"type":"Polygon","coordinates":[[[127.53856312000487,36.63610339818139],[127.53856312000487,36.645096601818636],[127.54755632364211,36.645096601818636],[127.54755632364211,36.63610339818139],[127.53856312000487,36.63610339818139]]]}},{"type":"Feature","properties":{"jobs":475,"pop":23,"pointCount":1,"homeWorkCommuteMedian":8170,"workHomeCommuteMedian":8096},"geometry":{"type":"Polygon","coordinates":[[[127.53856312000487,36.645096601818636],[127.53856312000487,36.65408980545588],[127.54755632364211,36.65408980545588],[127.54755632364211,36.645096601818636],[127.53856312000487,36.645096601818636]]]}},{"type":"Feature","properties":{"jobs":74,"pop":2524,"pointCount":1,"homeWorkCommuteMedian":14081,"workHomeCommuteMedian":12487},"geometry":{"type":"Polygon","coordinates":[[[127.53856312000487,36.69905582364211],[127.53856312000487,36.70804902727936],[127.54755632364211,36.70804902727936],[127.54755632364211,36.69905582364211],[127.53856312000487,36.69905582364211]]]}},{"type":"Feature","properties":{"jobs":17,"pop":48,"pointCount":1,"homeWorkCommuteMedian":27759,"workHomeCommuteMedian":-1},"geometry":{"type":"Polygon","coordinates":[[[127.55654952727936,36.55516456544618],[127.55654952727936,36.56415776908342],[127.5655427309166,36.56415776908342],[127.5655427309166,36.55516456544618],[127.55654952727936,36.55516456544618]]]}},{"type":"Feature","properties":{"jobs":132,"pop":47,"pointCount":1,"homeWorkCommuteMedian":31449,"workHomeCommuteMedian":-1},"geometry":{"type":"Polygon","coordinates":[[[127.55654952727936,36.74402184182834],[127.55654952727936,36.75301504546559],[127.5655427309166,36.75301504546559],[127.5655427309166,36.74402184182834],[127.55654952727936,36.74402184182834]]]}},{"type":"Feature","properties":{"jobs":6135,"pop":5035,"pointCount":3,"homeWorkCommuteMedian":24082,"workHomeCommuteMedian":17866},"geometry":{"type":"Polygon","coordinates":[[[127.5655427309166,36.77100145274008],[127.5655427309166,36.779994656377326],[127.57453593455385,36.779994656377326],[127.57453593455385,36.77100145274008],[127.5655427309166,36.77100145274008]]]}},{"type":"Feature","properties":{"jobs":2804,"pop":2132,"pointCount":1,"homeWorkCommuteMedian":35010,"workHomeCommuteMedian":26902},"geometry":{"type":"Polygon","coordinates":[[[127.5655427309166,36.779994656377326],[127.5655427309166,36.78898786001457],[127.57453593455385,36.78898786001457],[127.57453593455385,36.779994656377326],[127.5655427309166,36.779994656377326]]]}},{"type":"Feature","properties":{"jobs":486,"pop":20,"pointCount":1,"homeWorkCommuteMedian":20578,"workHomeCommuteMedian":18022},"geometry":{"type":"Polygon","coordinates":[[[127.57453593455385,36.70804902727936],[127.57453593455385,36.717042230916604],[127.5835291381911,36.717042230916604],[127.5835291381911,36.70804902727936],[127.57453593455385,36.70804902727936]]]}},{"type":"Feature","properties":{"jobs":5612,"pop":4658,"pointCount":4,"homeWorkCommuteMedian":36030,"workHomeCommuteMedian":21451},"geometry":{"type":"Polygon","coordinates":[[[127.57453593455385,36.77100145274008],[127.57453593455385,36.779994656377326],[127.5835291381911,36.779994656377326],[127.5835291381911,36.77100145274008],[127.57453593455385,36.77100145274008]]]}},{"type":"Feature","properties":{"jobs":10318,"pop":6247,"pointCount":5,"homeWorkCommuteMedian":35461,"workHomeCommuteMedian":19618},"geometry":{"type":"Polygon","coordinates":[[[127.57453593455385,36.779994656377326],[127.57453593455385,36.78898786001457],[127.5835291381911,36.78898786001457],[127.5835291381911,36.779994656377326],[127.57453593455385,36.779994656377326]]]}},{"type":"Feature","properties":{"jobs":3210,"pop":2363,"pointCount":2,"homeWorkCommuteMedian":35226,"workHomeCommuteMedian":20746},"geometry":{"type":"Polygon","coordinates":[[[127.57453593455385,36.78898786001457],[127.57453593455385,36.79798106365182],[127.5835291381911,36.79798106365182],[127.5835291381911,36.78898786001457],[127.57453593455385,36.78898786001457]]]}},{"type":"Feature","properties":{"jobs":2245,"pop":1712,"pointCount":2,"homeWorkCommuteMedian":36919,"workHomeCommuteMedian":-1},"geometry":{"type":"Polygon","coordinates":[[[127.5835291381911,36.77100145274008],[127.5835291381911,36.779994656377326],[127.59252234182834,36.779994656377326],[127.59252234182834,36.77100145274008],[127.5835291381911,36.77100145274008]]]}},{"type":"Feature","properties":{"jobs":14195,"pop":10903,"pointCount":4,"homeWorkCommuteMedian":29929,"workHomeCommuteMedian":23955},"geometry":{"type":"Polygon","coordinates":[[[127.5835291381911,36.779994656377326],[127.5835291381911,36.78898786001457],[127.59252234182834,36.78898786001457],[127.59252234182834,36.779994656377326],[127.5835291381911,36.779994656377326]]]}},{"type":"Feature","properties":{"jobs":3225,"pop":2213,"pointCount":3,"homeWorkCommuteMedian":36726,"workHomeCommuteMedian":23818},"geometry":{"type":"Polygon","coordinates":[[[127.5835291381911,36.78898786001457],[127.5835291381911,36.79798106365182],[127.59252234182834,36.79798106365182],[127.59252234182834,36.78898786001457],[127.5835291381911,36.78898786001457]]]}},{"type":"Feature","properties":{"jobs":86,"pop":394,"pointCount":2,"homeWorkCommuteMedian":38794,"workHomeCommuteMedian":-1},"geometry":{"type":"Polygon","coordinates":[[[127.59252234182834,36.75301504546559],[127.59252234182834,36.762008249102834],[127.60151554546559,36.762008249102834],[127.60151554546559,36.75301504546559],[127.59252234182834,36.75301504546559]]]}},{"type":"Feature","properties":{"jobs":278,"pop":512,"pointCount":2,"homeWorkCommuteMedian":47932,"workHomeCommuteMedian":-1},"geometry":{"type":"Polygon","coordinates":[[[127.59252234182834,36.762008249102834],[127.59252234182834,36.77100145274008],[127.60151554546559,36.77100145274008],[127.60151554546559,36.762008249102834],[127.59252234182834,36.762008249102834]]]}},{"type":"Feature","properties":{"jobs":1779,"pop":2125,"pointCount":3,"homeWorkCommuteMedian":37836,"workHomeCommuteMedian":-1},"geometry":{"type":"Polygon","coordinates":[[[127.59252234182834,36.77100145274008],[127.59252234182834,36.779994656377326],[127.60151554546559,36.779994656377326],[127.60151554546559,36.77100145274008],[127.59252234182834,36.77100145274008]]]}},{"type":"Feature","properties":{"jobs":87,"pop":196,"pointCount":1,"homeWorkCommuteMedian":35997,"workHomeCommuteMedian":-1},"geometry":{"type":"Polygon","coordinates":[[[127.59252234182834,36.78898786001457],[127.59252234182834,36.79798106365182],[127.60151554546559,36.79798106365182],[127.60151554546559,36.78898786001457],[127.59252234182834,36.78898786001457]]]}},{"type":"Feature","properties":{"jobs":166,"pop":22,"pointCount":1,"homeWorkCommuteMedian":23178,"workHomeCommuteMedian":18049},"geometry":{"type":"Polygon","coordinates":[[[127.60151554546559,36.582144176357914],[127.60151554546559,36.59113737999516],[127.61050874910283,36.59113737999516],[127.61050874910283,36.582144176357914],[127.60151554546559,36.582144176357914]]]}},{"type":"Feature","properties":{"jobs":11,"pop":199,"pointCount":1,"homeWorkCommuteMedian":33140,"workHomeCommuteMedian":-1},"geometry":{"type":"Polygon","coordinates":[[[127.60151554546559,36.717042230916604],[127.60151554546559,36.72603543455385],[127.61050874910283,36.72603543455385],[127.61050874910283,36.717042230916604],[127.60151554546559,36.717042230916604]]]}},{"type":"Feature","properties":{"jobs":153,"pop":832,"pointCount":1,"homeWorkCommuteMedian":26744,"workHomeCommuteMedian":-1},"geometry":{"type":"Polygon","coordinates":[[[127.60151554546559,36.762008249102834],[127.60151554546559,36.77100145274008],[127.61050874910283,36.77100145274008],[127.61050874910283,36.762008249102834],[127.60151554546559,36.762008249102834]]]}},{"type":"Feature","properties":{"jobs":211,"pop":191,"pointCount":1,"homeWorkCommuteMedian":40193,"workHomeCommuteMedian":-1},"geometry":{"type":"Polygon","coordinates":[[[127.61050874910283,36.75301504546559],[127.61050874910283,36.762008249102834],[127.61950195274008,36.762008249102834],[127.61950195274008,36.75301504546559],[127.61050874910283,36.75301504546559]]]}},{"type":"Feature","properties":{"jobs":27,"pop":196,"pointCount":1,"homeWorkCommuteMedian":41025,"workHomeCommuteMedian":-1},"geometry":{"type":"Polygon","coordinates":[[[127.61050874910283,36.779994656377326],[127.61050874910283,36.78898786001457],[127.61950195274008,36.78898786001457],[127.61950195274008,36.779994656377326],[127.61050874910283,36.779994656377326]]]}},{"type":"Feature","properties":{"jobs":122,"pop":593,"pointCount":1,"homeWorkCommuteMedian":35847,"workHomeCommuteMedian":-1},"geometry":{"type":"Polygon","coordinates":[[[127.61950195274008,36.72603543455385],[127.61950195274008,36.735028638191096],[127.62849515637733,36.735028638191096],[127.62849515637733,36.72603543455385],[127.61950195274008,36.72603543455385]]]}},{"type":"Feature","properties":{"jobs":43,"pop":198,"pointCount":1,"homeWorkCommuteMedian":27949,"workHomeCommuteMedian":-1},"geometry":{"type":"Polygon","coordinates":[[[127.61950195274008,36.74402184182834],[127.61950195274008,36.75301504546559],[127.62849515637733,36.75301504546559],[127.62849515637733,36.74402184182834],[127.61950195274008,36.74402184182834]]]}},{"type":"Feature","properties":{"jobs":552,"pop":795,"pointCount":3,"homeWorkCommuteMedian":37004,"workHomeCommuteMedian":-1},"geometry":{"type":"Polygon","coordinates":[[[127.61950195274008,36.762008249102834],[127.61950195274008,36.77100145274008],[127.62849515637733,36.77100145274008],[127.62849515637733,36.762008249102834],[127.61950195274008,36.762008249102834]]]}},{"type":"Feature","properties":{"jobs":186,"pop":24,"pointCount":1,"homeWorkCommuteMedian":18809,"workHomeCommuteMedian":17496},"geometry":{"type":"Polygon","coordinates":[[[127.62849515637733,36.60912378726965],[127.62849515637733,36.6181169909069],[127.63748836001457,36.6181169909069],[127.63748836001457,36.60912378726965],[127.62849515637733,36.60912378726965]]]}},{"type":"Feature","properties":{"jobs":179,"pop":24,"pointCount":1,"homeWorkCommuteMedian":18195,"workHomeCommuteMedian":17304},"geometry":{"type":"Polygon","coordinates":[[[127.62849515637733,36.6181169909069],[127.62849515637733,36.627110194544144],[127.63748836001457,36.627110194544144],[127.63748836001457,36.6181169909069],[127.62849515637733,36.6181169909069]]]}},{"type":"Feature","properties":{"jobs":61,"pop":192,"pointCount":1,"homeWorkCommuteMedian":37374,"workHomeCommuteMedian":-1},"geometry":{"type":"Polygon","coordinates":[[[127.62849515637733,36.735028638191096],[127.62849515637733,36.74402184182834],[127.63748836001457,36.74402184182834],[127.63748836001457,36.735028638191096],[127.62849515637733,36.735028638191096]]]}},{"type":"Feature","properties":{"jobs":245,"pop":165,"pointCount":1,"homeWorkCommuteMedian":42232,"workHomeCommuteMedian":-1},"geometry":{"type":"Polygon","coordinates":[[[127.62849515637733,36.762008249102834],[127.62849515637733,36.77100145274008],[127.63748836001457,36.77100145274008],[127.63748836001457,36.762008249102834],[127.62849515637733,36.762008249102834]]]}},{"type":"Feature","properties":{"jobs":266,"pop":181,"pointCount":1,"homeWorkCommuteMedian":53529,"workHomeCommuteMedian":-1},"geometry":{"type":"Polygon","coordinates":[[[127.63748836001457,36.762008249102834],[127.63748836001457,36.77100145274008],[127.64648156365182,36.77100145274008],[127.64648156365182,36.762008249102834],[127.63748836001457,36.762008249102834]]]}},{"type":"Feature","properties":{"jobs":340,"pop":142,"pointCount":1,"homeWorkCommuteMedian":41924,"workHomeCommuteMedian":-1},"geometry":{"type":"Polygon","coordinates":[[[127.63748836001457,36.77100145274008],[127.63748836001457,36.779994656377326],[127.64648156365182,36.779994656377326],[127.64648156365182,36.77100145274008],[127.63748836001457,36.77100145274008]]]}},{"type":"Feature","properties":{"jobs":95,"pop":183,"pointCount":1,"homeWorkCommuteMedian":42684,"workHomeCommuteMedian":-1},"geometry":{"type":"Polygon","coordinates":[[[127.63748836001457,36.78898786001457],[127.63748836001457,36.79798106365182],[127.64648156365182,36.79798106365182],[127.64648156365182,36.78898786001457],[127.63748836001457,36.78898786001457]]]}},{"type":"Feature","properties":{"jobs":545,"pop":141,"pointCount":1,"homeWorkCommuteMedian":21083,"workHomeCommuteMedian":19848},"geometry":{"type":"Polygon","coordinates":[[[127.64648156365182,36.627110194544144],[127.64648156365182,36.63610339818139],[127.65547476728906,36.63610339818139],[127.65547476728906,36.627110194544144],[127.64648156365182,36.627110194544144]]]}},{"type":"Feature","properties":{"jobs":45,"pop":197,"pointCount":1,"homeWorkCommuteMedian":40463,"workHomeCommuteMedian":-1},"geometry":{"type":"Polygon","coordinates":[[[127.64648156365182,36.735028638191096],[127.64648156365182,36.74402184182834],[127.65547476728906,36.74402184182834],[127.65547476728906,36.735028638191096],[127.64648156365182,36.735028638191096]]]}},{"type":"Feature","properties":{"jobs":323,"pop":42,"pointCount":1,"homeWorkCommuteMedian":23245,"workHomeCommuteMedian":23245},"geometry":{"type":"Polygon","coordinates":[[[127.65547476728906,36.57315097272067],[127.65547476728906,36.582144176357914],[127.66446797092631,36.582144176357914],[127.66446797092631,36.57315097272067],[127.65547476728906,36.57315097272067]]]}},{"type":"Feature","properties":{"jobs":977,"pop":569,"pointCount":1,"homeWorkCommuteMedian":19624,"workHomeCommuteMedian":21268},"geometry":{"type":"Polygon","coordinates":[[[127.65547476728906,36.627110194544144],[127.65547476728906,36.63610339818139],[127.66446797092631,36.63610339818139],[127.66446797092631,36.627110194544144],[127.65547476728906,36.627110194544144]]]}},{"type":"Feature","properties":{"jobs":279,"pop":37,"pointCount":1,"homeWorkCommuteMedian":21021,"workHomeCommuteMedian":21958},"geometry":{"type":"Polygon","coordinates":[[[127.65547476728906,36.63610339818139],[127.65547476728906,36.645096601818636],[127.66446797092631,36.645096601818636],[127.66446797092631,36.63610339818139],[127.65547476728906,36.63610339818139]]]}},{"type":"Feature","properties":{"jobs":58,"pop":193,"pointCount":1,"homeWorkCommuteMedian":44580,"workHomeCommuteMedian":-1},"geometry":{"type":"Polygon","coordinates":[[[127.65547476728906,36.77100145274008],[127.65547476728906,36.779994656377326],[127.66446797092631,36.779994656377326],[127.66446797092631,36.77100145274008],[127.65547476728906,36.77100145274008]]]}},{"type":"Feature","properties":{"jobs":222,"pop":29,"pointCount":1,"homeWorkCommuteMedian":24832,"workHomeCommuteMedian":26827},"geometry":{"type":"Polygon","coordinates":[[[127.67346117456356,36.582144176357914],[127.67346117456356,36.59113737999516],[127.6824543782008,36.59113737999516],[127.6824543782008,36.582144176357914],[127.67346117456356,36.582144176357914]]]}},{"type":"Feature","properties":{"jobs":62,"pop":19,"pointCount":1,"homeWorkCommuteMedian":27000,"workHomeCommuteMedian":-1},"geometry":{"type":"Polygon","coordinates":[[[127.6824543782008,36.645096601818636],[127.6824543782008,36.65408980545588],[127.69144758183805,36.65408980545588],[127.69144758183805,36.645096601818636],[127.6824543782008,36.645096601818636]]]}}],"properties":{"residentWeightedNearestNeighborKm":{"p10":0.4010158699547484,"p25":0.4014385561916119,"p50":0.4015792733538125,"p75":0.40164959849670534,"p90":0.5003778610509171,"mean":0.44731003822807497},"workerWeightedNearestNeighborKm":{"p10":0.4007571670950117,"p25":0.4013446952227193,"p50":0.4015792733538125,"p75":0.40164959849543697,"p90":0.5003778610509171,"mean":0.43414570942489633},"commuteDistanceKm":{"p10":2521,"p25":3879,"p50":7531,"p75":12761,"p90":17607,"mean":9235.666851178239},"residentCellDensity":{"p10":27,"p25":165,"p50":976,"p75":4182,"p90":9047,"mean":3021.004347826087},"workerCellDensity":{"p10":95,"p25":411,"p50":2488,"p75":7953,"p90":16932,"mean":6234.412765957447},"detail":{"radiusKm":0.4015792733538125,"expectedPointSpacingKm":0.68971624747014,"normalizedRadius":0.5822383840119674,"activityPerPoint":2046.708894859222,"playableAreaKm2":564,"playableAreaPerPointKm2":1.1417004048582995,"playableCatchmentRadiusKm":0.6028387229818876,"localityScore":0.46112494235318086,"deaggregationScore":0.990759962349655,"score":0.6759172512403603},"polycentrism":{"activity":{"score":0.3508306906847416,"continuousScore":0.5502503386014195,"detectedCenterCount":2,"effectiveCenterCount":1.2127317605918873,"largestCenterShare":0.9028552188178957,"bandwidthKm":1.3,"reliabilityScore":1,"supportLevel":"high","usedFallback":false,"topCenters":[{"longitude":127.451816067045,"latitude":36.63433355901564,"massShare":0.9028552188178957,"assignedMass":1954761,"assignedPointCount":423,"prominenceRatio":1},{"longitude":127.52929570831134,"latitude":36.75159037352314,"massShare":0.09714478118210437,"assignedMass":210327,"assignedPointCount":71,"prominenceRatio":1}],"debug":{"rawPeakCount":22,"mergedPeakCount":22,"filteredPeakCount":2,"prominenceThreshold":0.22,"minPointsPerCenter":10,"rejectedCenters":[{"longitude":127.47746923220619,"latitude":36.62902579034547,"massShare":0.25807819358843614,"assignedMass":558762,"assignedPointCount":122,"prominenceRatio":0.9539099622628108,"strongestCompetitorDistanceKm":3.250436733714314,"strongestCompetitorPotential":303065.97462771373,"localConsolidatedShare":0.6984575222808496,"localConsolidatedMass":1512222,"localContributorCount":5,"localContributorDistancesKm":[3.647636284476861,9.734692827139563,10.658101216150062,14.051149403143427],"rejectionReasons":["too_close_for_protected_share_center"]},{"longitude":127.43234518282637,"latitude":36.630416123285904,"massShare":0.21243432137631357,"assignedMass":459939,"assignedPointCount":88,"prominenceRatio":0.999999054481173,"strongestCompetitorDistanceKm":6.897826294020792,"strongestCompetitorPotential":303065.97462771373,"localConsolidatedShare":0.21243432137631357,"localConsolidatedMass":459939,"localContributorCount":1,"localContributorDistancesKm":[],"rejectionReasons":["too_close_for_protected_share_center"]},{"longitude":127.43342226586734,"latitude":36.712060543824144,"massShare":0.11094699153106016,"assignedMass":240210,"assignedPointCount":37,"prominenceRatio":1,"strongestCompetitorDistanceKm":12.830421174196344,"strongestCompetitorPotential":303065.97462771373,"localConsolidatedShare":0.11094699153106016,"localConsolidatedMass":240210,"localContributorCount":1,"localContributorDistancesKm":[],"rejectionReasons":["not_dominant_local_peak"]},{"longitude":127.32447152272086,"latitude":36.62043347597015,"massShare":0.09174130566517388,"assignedMass":198628,"assignedPointCount":33,"prominenceRatio":1,"strongestCompetitorDistanceKm":17.270091107889026,"strongestCompetitorPotential":303065.97462771373,"localConsolidatedShare":0.09174130566517388,"localConsolidatedMass":198628,"localContributorCount":1,"localContributorDistancesKm":[],"rejectionReasons":["not_dominant_local_peak"]},{"longitude":127.51677660895444,"latitude":36.711753302507766,"massShare":0.042213526655729465,"assignedMass":91396,"assignedPointCount":26,"prominenceRatio":0.9999999999162927,"strongestCompetitorDistanceKm":8.91872821723175,"strongestCompetitorPotential":69776.53594082079,"localConsolidatedShare":0.042213526655729465,"localConsolidatedMass":91396,"localContributorCount":1,"localContributorDistancesKm":[],"rejectionReasons":["below_secondary_share_floor"]},{"longitude":127.3843232906022,"latitude":36.664823299745805,"massShare":0.025256710119865796,"assignedMass":54683,"assignedPointCount":16,"prominenceRatio":1,"strongestCompetitorDistanceKm":12.744124303504055,"strongestCompetitorPotential":303065.97462771373,"localConsolidatedShare":0.025256710119865796,"localConsolidatedMass":54683,"localContributorCount":1,"localContributorDistancesKm":[],"rejectionReasons":["below_secondary_share_floor"]},{"longitude":127.42544063577175,"latitude":36.56849396782843,"massShare":0.007235733605285328,"assignedMass":15666,"assignedPointCount":11,"prominenceRatio":0.9999999999188566,"strongestCompetitorDistanceKm":9.460777259734655,"strongestCompetitorPotential":303065.97462771373,"localConsolidatedShare":0.007235733605285328,"localConsolidatedMass":15666,"localContributorCount":1,"localContributorDistancesKm":[],"rejectionReasons":["below_secondary_share_floor"]},{"longitude":127.31817673755187,"latitude":36.723530212655604,"massShare":0.0035619799287604013,"assignedMass":7712,"assignedPointCount":2,"prominenceRatio":1,"strongestCompetitorDistanceKm":21.029108375700407,"strongestCompetitorPotential":303065.97462771373,"localConsolidatedShare":0.0035619799287604013,"localConsolidatedMass":7712,"localContributorCount":1,"localContributorDistancesKm":[],"rejectionReasons":["below_min_points_per_center"]},{"longitude":127.49978415584415,"latitude":36.52067142857143,"massShare":0.0026673280716534385,"assignedMass":5775,"assignedPointCount":12,"prominenceRatio":0.9999999999999909,"strongestCompetitorDistanceKm":11.124823328605224,"strongestCompetitorPotential":303065.97462771373,"localConsolidatedShare":0.0026673280716534385,"localConsolidatedMass":5775,"localContributorCount":1,"localContributorDistancesKm":[],"rejectionReasons":["below_secondary_share_floor"]},{"longitude":127.7047,"latitude":36.48327471225456,"massShare":0.0013643787227124256,"assignedMass":2954,"assignedPointCount":2,"prominenceRatio":1,"strongestCompetitorDistanceKm":22.82294539633327,"strongestCompetitorPotential":303065.97462771373,"localConsolidatedShare":0.0013643787227124256,"localConsolidatedMass":2954,"localContributorCount":1,"localContributorDistancesKm":[],"rejectionReasons":["below_min_points_per_center"]},{"longitude":127.65233875739644,"latitude":36.631857988165685,"massShare":0.0014050237218995257,"assignedMass":3042,"assignedPointCount":6,"prominenceRatio":1,"strongestCompetitorDistanceKm":13.001746934859122,"strongestCompetitorPotential":303065.97462771373,"localConsolidatedShare":0.0014050237218995257,"localConsolidatedMass":3042,"localContributorCount":1,"localContributorDistancesKm":[],"rejectionReasons":["below_min_points_per_center"]},{"longitude":127.273501,"latitude":36.4712,"massShare":0.0006974312360513753,"assignedMass":1510,"assignedPointCount":1,"prominenceRatio":1,"strongestCompetitorDistanceKm":26.716352099423418,"strongestCompetitorPotential":303065.97462771373,"localConsolidatedShare":0.0006974312360513753,"localConsolidatedMass":1510,"localContributorCount":1,"localContributorDistancesKm":[],"rejectionReasons":["below_min_points_per_center"]},{"longitude":127.28120000000001,"latitude":36.765105,"massShare":0.0005865812382683753,"assignedMass":1270,"assignedPointCount":1,"prominenceRatio":1,"strongestCompetitorDistanceKm":26.401069211203463,"strongestCompetitorPotential":303065.97462771373,"localConsolidatedShare":0.0005865812382683753,"localConsolidatedMass":1270,"localContributorCount":1,"localContributorDistancesKm":[],"rejectionReasons":["below_min_points_per_center"]},{"longitude":127.3365,"latitude":36.5625,"massShare":0.0005334656143306877,"assignedMass":1155,"assignedPointCount":1,"prominenceRatio":1,"strongestCompetitorDistanceKm":16.768897594137524,"strongestCompetitorPotential":303065.97462771373,"localConsolidatedShare":0.0005334656143306877,"localConsolidatedMass":1155,"localContributorCount":1,"localContributorDistancesKm":[],"rejectionReasons":["below_min_points_per_center"]},{"longitude":127.36258600182983,"latitude":36.75569533394327,"massShare":0.0005048293649034126,"assignedMass":1093,"assignedPointCount":2,"prominenceRatio":1,"strongestCompetitorDistanceKm":19.50262040228782,"strongestCompetitorPotential":69776.53594082079,"localConsolidatedShare":0.0005048293649034126,"localConsolidatedMass":1093,"localContributorCount":1,"localContributorDistancesKm":[],"rejectionReasons":["below_min_points_per_center"]},{"longitude":127.66600081168832,"latitude":36.581500811688315,"massShare":0.0002845149943097001,"assignedMass":616,"assignedPointCount":2,"prominenceRatio":1,"strongestCompetitorDistanceKm":13.992716885153415,"strongestCompetitorPotential":303065.97462771373,"localConsolidatedShare":0.0002845149943097001,"localConsolidatedMass":616,"localContributorCount":1,"localContributorDistancesKm":[],"rejectionReasons":["below_min_points_per_center"]},{"longitude":127.6065,"latitude":36.4725,"massShare":0.00011593062268138754,"assignedMass":251,"assignedPointCount":1,"prominenceRatio":1,"strongestCompetitorDistanceKm":18.095955453073252,"strongestCompetitorPotential":303065.97462771373,"localConsolidatedShare":0.00011593062268138754,"localConsolidatedMass":251,"localContributorCount":1,"localContributorDistancesKm":[],"rejectionReasons":["below_min_points_per_center"]},{"longitude":127.467,"latitude":36.4725,"massShare":0.00009468437310631253,"assignedMass":205,"assignedPointCount":1,"prominenceRatio":1,"strongestCompetitorDistanceKm":16.507701306228075,"strongestCompetitorPotential":303065.97462771373,"localConsolidatedShare":0.00009468437310631253,"localConsolidatedMass":205,"localContributorCount":1,"localContributorDistancesKm":[],"rejectionReasons":["below_min_points_per_center"]},{"longitude":127.60650000000001,"latitude":36.5895,"massShare":0.00008683249826335004,"assignedMass":188,"assignedPointCount":1,"prominenceRatio":0.999999921635432,"strongestCompetitorDistanceKm":8.949309245728118,"strongestCompetitorPotential":303065.97462771373,"localConsolidatedShare":0.00008683249826335004,"localConsolidatedMass":188,"localContributorCount":1,"localContributorDistancesKm":[],"rejectionReasons":["below_min_points_per_center"]},{"longitude":127.402985,"latitude":36.521973,"massShare":0.00007805687343886254,"assignedMass":169,"assignedPointCount":1,"prominenceRatio":1,"strongestCompetitorDistanceKm":14.320181554840415,"strongestCompetitorPotential":303065.97462771373,"localConsolidatedShare":0.00007805687343886254,"localConsolidatedMass":169,"localContributorCount":1,"localContributorDistancesKm":[],"rejectionReasons":["below_min_points_per_center"]}]}}}}}
