{"type":"FeatureCollection","features":[{"type":"Feature","properties":{"jobs":42,"pop":114,"pointCount":1,"homeWorkCommuteMedian":53072,"workHomeCommuteMedian":-1},"geometry":{"type":"Polygon","coordinates":[[[127.53270291816197,37.71042913089234],[127.53270291816197,37.71942233452958],[127.54169612179922,37.71942233452958],[127.54169612179922,37.71042913089234],[127.53270291816197,37.71042913089234]]]}},{"type":"Feature","properties":{"jobs":57,"pop":666,"pointCount":1,"homeWorkCommuteMedian":40114,"workHomeCommuteMedian":-1},"geometry":{"type":"Polygon","coordinates":[[[127.53270291816197,37.71942233452958],[127.53270291816197,37.72841553816683],[127.54169612179922,37.72841553816683],[127.54169612179922,37.71942233452958],[127.53270291816197,37.71942233452958]]]}},{"type":"Feature","properties":{"jobs":50,"pop":193,"pointCount":1,"homeWorkCommuteMedian":32040,"workHomeCommuteMedian":-1},"geometry":{"type":"Polygon","coordinates":[[[127.58666213998545,37.72841553816683],[127.58666213998545,37.737408741804074],[127.5956553436227,37.737408741804074],[127.5956553436227,37.72841553816683],[127.58666213998545,37.72841553816683]]]}},{"type":"Feature","properties":{"jobs":1633,"pop":737,"pointCount":1,"homeWorkCommuteMedian":19326,"workHomeCommuteMedian":18881},"geometry":{"type":"Polygon","coordinates":[[[127.61364175089719,37.845327185451026],[127.61364175089719,37.85432038908827],[127.62263495453443,37.85432038908827],[127.62263495453443,37.845327185451026],[127.61364175089719,37.845327185451026]]]}},{"type":"Feature","properties":{"jobs":102,"pop":479,"pointCount":1,"homeWorkCommuteMedian":16816,"workHomeCommuteMedian":-1},"geometry":{"type":"Polygon","coordinates":[[[127.64961456544617,37.890293203637256],[127.64961456544617,37.8992864072745],[127.65860776908342,37.8992864072745],[127.65860776908342,37.890293203637256],[127.64961456544617,37.890293203637256]]]}},{"type":"Feature","properties":{"jobs":729,"pop":22,"pointCount":1,"homeWorkCommuteMedian":10489,"workHomeCommuteMedian":17439},"geometry":{"type":"Polygon","coordinates":[[[127.66760097272066,37.890293203637256],[127.66760097272066,37.8992864072745],[127.67659417635791,37.8992864072745],[127.67659417635791,37.890293203637256],[127.66760097272066,37.890293203637256]]]}},{"type":"Feature","properties":{"jobs":801,"pop":45,"pointCount":1,"homeWorkCommuteMedian":16243,"workHomeCommuteMedian":16262},"geometry":{"type":"Polygon","coordinates":[[[127.68558737999516,37.890293203637256],[127.68558737999516,37.8992864072745],[127.6945805836324,37.8992864072745],[127.6945805836324,37.890293203637256],[127.68558737999516,37.890293203637256]]]}},{"type":"Feature","properties":{"jobs":168,"pop":910,"pointCount":1,"homeWorkCommuteMedian":7962,"workHomeCommuteMedian":-1},"geometry":{"type":"Polygon","coordinates":[[[127.6945805836324,37.845327185451026],[127.6945805836324,37.85432038908827],[127.70357378726965,37.85432038908827],[127.70357378726965,37.845327185451026],[127.6945805836324,37.845327185451026]]]}},{"type":"Feature","properties":{"jobs":3651,"pop":1805,"pointCount":1,"homeWorkCommuteMedian":6569,"workHomeCommuteMedian":6569},"geometry":{"type":"Polygon","coordinates":[[[127.70357378726965,37.827340778176534],[127.70357378726965,37.83633398181378],[127.7125669909069,37.83633398181378],[127.7125669909069,37.827340778176534],[127.70357378726965,37.827340778176534]]]}},{"type":"Feature","properties":{"jobs":18086,"pop":13085,"pointCount":2,"homeWorkCommuteMedian":7531,"workHomeCommuteMedian":7531},"geometry":{"type":"Polygon","coordinates":[[[127.70357378726965,37.83633398181378],[127.70357378726965,37.845327185451026],[127.7125669909069,37.845327185451026],[127.7125669909069,37.83633398181378],[127.70357378726965,37.83633398181378]]]}},{"type":"Feature","properties":{"jobs":14227,"pop":10497,"pointCount":1,"homeWorkCommuteMedian":6272,"workHomeCommuteMedian":6447},"geometry":{"type":"Polygon","coordinates":[[[127.70357378726965,37.85432038908827],[127.70357378726965,37.86331359272552],[127.7125669909069,37.86331359272552],[127.7125669909069,37.85432038908827],[127.70357378726965,37.85432038908827]]]}},{"type":"Feature","properties":{"jobs":10364,"pop":6192,"pointCount":2,"homeWorkCommuteMedian":5197,"workHomeCommuteMedian":5325},"geometry":{"type":"Polygon","coordinates":[[[127.70357378726965,37.86331359272552],[127.70357378726965,37.872306796362764],[127.7125669909069,37.872306796362764],[127.7125669909069,37.86331359272552],[127.70357378726965,37.86331359272552]]]}},{"type":"Feature","properties":{"jobs":11581,"pop":8242,"pointCount":2,"homeWorkCommuteMedian":5266,"workHomeCommuteMedian":5311},"geometry":{"type":"Polygon","coordinates":[[[127.70357378726965,37.872306796362764],[127.70357378726965,37.88130000000001],[127.7125669909069,37.88130000000001],[127.7125669909069,37.872306796362764],[127.70357378726965,37.872306796362764]]]}},{"type":"Feature","properties":{"jobs":2659,"pop":919,"pointCount":1,"homeWorkCommuteMedian":4279,"workHomeCommuteMedian":4298},"geometry":{"type":"Polygon","coordinates":[[[127.7125669909069,37.845327185451026],[127.7125669909069,37.85432038908827],[127.72156019454414,37.85432038908827],[127.72156019454414,37.845327185451026],[127.7125669909069,37.845327185451026]]]}},{"type":"Feature","properties":{"jobs":5617,"pop":1657,"pointCount":3,"homeWorkCommuteMedian":4944,"workHomeCommuteMedian":4003},"geometry":{"type":"Polygon","coordinates":[[[127.7125669909069,37.85432038908827],[127.7125669909069,37.86331359272552],[127.72156019454414,37.86331359272552],[127.72156019454414,37.85432038908827],[127.7125669909069,37.85432038908827]]]}},{"type":"Feature","properties":{"jobs":5478,"pop":1225,"pointCount":4,"homeWorkCommuteMedian":4263,"workHomeCommuteMedian":4200},"geometry":{"type":"Polygon","coordinates":[[[127.7125669909069,37.86331359272552],[127.7125669909069,37.872306796362764],[127.72156019454414,37.872306796362764],[127.72156019454414,37.86331359272552],[127.7125669909069,37.86331359272552]]]}},{"type":"Feature","properties":{"jobs":682,"pop":21,"pointCount":1,"homeWorkCommuteMedian":4904,"workHomeCommuteMedian":4904},"geometry":{"type":"Polygon","coordinates":[[[127.7125669909069,37.872306796362764],[127.7125669909069,37.88130000000001],[127.72156019454414,37.88130000000001],[127.72156019454414,37.872306796362764],[127.7125669909069,37.872306796362764]]]}},{"type":"Feature","properties":{"jobs":22698,"pop":13242,"pointCount":3,"homeWorkCommuteMedian":4895,"workHomeCommuteMedian":4732},"geometry":{"type":"Polygon","coordinates":[[[127.72156019454414,37.845327185451026],[127.72156019454414,37.85432038908827],[127.73055339818139,37.85432038908827],[127.73055339818139,37.845327185451026],[127.72156019454414,37.845327185451026]]]}},{"type":"Feature","properties":{"jobs":10169,"pop":3974,"pointCount":4,"homeWorkCommuteMedian":3934,"workHomeCommuteMedian":3842},"geometry":{"type":"Polygon","coordinates":[[[127.72156019454414,37.85432038908827],[127.72156019454414,37.86331359272552],[127.73055339818139,37.86331359272552],[127.73055339818139,37.85432038908827],[127.72156019454414,37.85432038908827]]]}},{"type":"Feature","properties":{"jobs":2103,"pop":687,"pointCount":2,"homeWorkCommuteMedian":3565,"workHomeCommuteMedian":3434},"geometry":{"type":"Polygon","coordinates":[[[127.72156019454414,37.86331359272552],[127.72156019454414,37.872306796362764],[127.73055339818139,37.872306796362764],[127.73055339818139,37.86331359272552],[127.72156019454414,37.86331359272552]]]}},{"type":"Feature","properties":{"jobs":6740,"pop":2856,"pointCount":4,"homeWorkCommuteMedian":4422,"workHomeCommuteMedian":4280},"geometry":{"type":"Polygon","coordinates":[[[127.72156019454414,37.872306796362764],[127.72156019454414,37.88130000000001],[127.73055339818139,37.88130000000001],[127.73055339818139,37.872306796362764],[127.72156019454414,37.872306796362764]]]}},{"type":"Feature","properties":{"jobs":5752,"pop":2714,"pointCount":3,"homeWorkCommuteMedian":4292,"workHomeCommuteMedian":4691},"geometry":{"type":"Polygon","coordinates":[[[127.72156019454414,37.88130000000001],[127.72156019454414,37.890293203637256],[127.73055339818139,37.890293203637256],[127.73055339818139,37.88130000000001],[127.72156019454414,37.88130000000001]]]}},{"type":"Feature","properties":{"jobs":3769,"pop":4088,"pointCount":1,"homeWorkCommuteMedian":6293,"workHomeCommuteMedian":6326},"geometry":{"type":"Polygon","coordinates":[[[127.72156019454414,37.890293203637256],[127.72156019454414,37.8992864072745],[127.73055339818139,37.8992864072745],[127.73055339818139,37.890293203637256],[127.72156019454414,37.890293203637256]]]}},{"type":"Feature","properties":{"jobs":11296,"pop":6443,"pointCount":3,"homeWorkCommuteMedian":7199,"workHomeCommuteMedian":7466},"geometry":{"type":"Polygon","coordinates":[[[127.72156019454414,37.8992864072745],[127.72156019454414,37.90827961091175],[127.73055339818139,37.90827961091175],[127.73055339818139,37.8992864072745],[127.72156019454414,37.8992864072745]]]}},{"type":"Feature","properties":{"jobs":2131,"pop":738,"pointCount":1,"homeWorkCommuteMedian":8310,"workHomeCommuteMedian":8293},"geometry":{"type":"Polygon","coordinates":[[[127.72156019454414,37.90827961091175],[127.72156019454414,37.917272814548994],[127.73055339818139,37.917272814548994],[127.73055339818139,37.90827961091175],[127.72156019454414,37.90827961091175]]]}},{"type":"Feature","properties":{"jobs":4037,"pop":1248,"pointCount":2,"homeWorkCommuteMedian":4760,"workHomeCommuteMedian":5026},"geometry":{"type":"Polygon","coordinates":[[[127.73055339818139,37.83633398181378],[127.73055339818139,37.845327185451026],[127.73954660181863,37.845327185451026],[127.73954660181863,37.83633398181378],[127.73055339818139,37.83633398181378]]]}},{"type":"Feature","properties":{"jobs":17201,"pop":8815,"pointCount":4,"homeWorkCommuteMedian":4422,"workHomeCommuteMedian":4372},"geometry":{"type":"Polygon","coordinates":[[[127.73055339818139,37.845327185451026],[127.73055339818139,37.85432038908827],[127.73954660181863,37.85432038908827],[127.73954660181863,37.845327185451026],[127.73055339818139,37.845327185451026]]]}},{"type":"Feature","properties":{"jobs":15614,"pop":7957,"pointCount":3,"homeWorkCommuteMedian":3747,"workHomeCommuteMedian":3737},"geometry":{"type":"Polygon","coordinates":[[[127.73055339818139,37.85432038908827],[127.73055339818139,37.86331359272552],[127.73954660181863,37.86331359272552],[127.73954660181863,37.85432038908827],[127.73055339818139,37.85432038908827]]]}},{"type":"Feature","properties":{"jobs":13876,"pop":8901,"pointCount":4,"homeWorkCommuteMedian":3222,"workHomeCommuteMedian":3407},"geometry":{"type":"Polygon","coordinates":[[[127.73055339818139,37.86331359272552],[127.73055339818139,37.872306796362764],[127.73954660181863,37.872306796362764],[127.73954660181863,37.86331359272552],[127.73055339818139,37.86331359272552]]]}},{"type":"Feature","properties":{"jobs":10859,"pop":6915,"pointCount":4,"homeWorkCommuteMedian":3714,"workHomeCommuteMedian":4195},"geometry":{"type":"Polygon","coordinates":[[[127.73055339818139,37.872306796362764],[127.73055339818139,37.88130000000001],[127.73954660181863,37.88130000000001],[127.73954660181863,37.872306796362764],[127.73055339818139,37.872306796362764]]]}},{"type":"Feature","properties":{"jobs":5928,"pop":752,"pointCount":3,"homeWorkCommuteMedian":5333,"workHomeCommuteMedian":4699},"geometry":{"type":"Polygon","coordinates":[[[127.73055339818139,37.88130000000001],[127.73055339818139,37.890293203637256],[127.73954660181863,37.890293203637256],[127.73954660181863,37.88130000000001],[127.73055339818139,37.88130000000001]]]}},{"type":"Feature","properties":{"jobs":1225,"pop":1326,"pointCount":1,"homeWorkCommuteMedian":6887,"workHomeCommuteMedian":5804},"geometry":{"type":"Polygon","coordinates":[[[127.73055339818139,37.890293203637256],[127.73055339818139,37.8992864072745],[127.73954660181863,37.8992864072745],[127.73954660181863,37.890293203637256],[127.73055339818139,37.890293203637256]]]}},{"type":"Feature","properties":{"jobs":17696,"pop":12247,"pointCount":2,"homeWorkCommuteMedian":7476,"workHomeCommuteMedian":7388},"geometry":{"type":"Polygon","coordinates":[[[127.73055339818139,37.8992864072745],[127.73055339818139,37.90827961091175],[127.73954660181863,37.90827961091175],[127.73954660181863,37.8992864072745],[127.73055339818139,37.8992864072745]]]}},{"type":"Feature","properties":{"jobs":2115,"pop":688,"pointCount":1,"homeWorkCommuteMedian":8608,"workHomeCommuteMedian":7992},"geometry":{"type":"Polygon","coordinates":[[[127.73055339818139,37.90827961091175],[127.73055339818139,37.917272814548994],[127.73954660181863,37.917272814548994],[127.73954660181863,37.90827961091175],[127.73055339818139,37.90827961091175]]]}},{"type":"Feature","properties":{"jobs":58,"pop":368,"pointCount":1,"homeWorkCommuteMedian":8351,"workHomeCommuteMedian":-1},"geometry":{"type":"Polygon","coordinates":[[[127.73055339818139,37.917272814548994],[127.73055339818139,37.92626601818624],[127.73954660181863,37.92626601818624],[127.73954660181863,37.917272814548994],[127.73055339818139,37.917272814548994]]]}},{"type":"Feature","properties":{"jobs":5939,"pop":2235,"pointCount":2,"homeWorkCommuteMedian":4917,"workHomeCommuteMedian":4867},"geometry":{"type":"Polygon","coordinates":[[[127.73954660181863,37.83633398181378],[127.73954660181863,37.845327185451026],[127.74853980545588,37.845327185451026],[127.74853980545588,37.83633398181378],[127.73954660181863,37.83633398181378]]]}},{"type":"Feature","properties":{"jobs":29368,"pop":15894,"pointCount":4,"homeWorkCommuteMedian":4944,"workHomeCommuteMedian":4878},"geometry":{"type":"Polygon","coordinates":[[[127.73954660181863,37.845327185451026],[127.73954660181863,37.85432038908827],[127.74853980545588,37.85432038908827],[127.74853980545588,37.845327185451026],[127.73954660181863,37.845327185451026]]]}},{"type":"Feature","properties":{"jobs":7044,"pop":2568,"pointCount":3,"homeWorkCommuteMedian":3496,"workHomeCommuteMedian":3496},"geometry":{"type":"Polygon","coordinates":[[[127.73954660181863,37.85432038908827],[127.73954660181863,37.86331359272552],[127.74853980545588,37.86331359272552],[127.74853980545588,37.85432038908827],[127.73954660181863,37.85432038908827]]]}},{"type":"Feature","properties":{"jobs":14789,"pop":3028,"pointCount":3,"homeWorkCommuteMedian":3565,"workHomeCommuteMedian":3450},"geometry":{"type":"Polygon","coordinates":[[[127.73954660181863,37.86331359272552],[127.73954660181863,37.872306796362764],[127.74853980545588,37.872306796362764],[127.74853980545588,37.86331359272552],[127.73954660181863,37.86331359272552]]]}},{"type":"Feature","properties":{"jobs":17082,"pop":9503,"pointCount":5,"homeWorkCommuteMedian":4175,"workHomeCommuteMedian":4373},"geometry":{"type":"Polygon","coordinates":[[[127.73954660181863,37.872306796362764],[127.73954660181863,37.88130000000001],[127.74853980545588,37.88130000000001],[127.74853980545588,37.872306796362764],[127.73954660181863,37.872306796362764]]]}},{"type":"Feature","properties":{"jobs":3187,"pop":1375,"pointCount":3,"homeWorkCommuteMedian":4477,"workHomeCommuteMedian":4672},"geometry":{"type":"Polygon","coordinates":[[[127.73954660181863,37.88130000000001],[127.73954660181863,37.890293203637256],[127.74853980545588,37.890293203637256],[127.74853980545588,37.88130000000001],[127.73954660181863,37.88130000000001]]]}},{"type":"Feature","properties":{"jobs":693,"pop":21,"pointCount":1,"homeWorkCommuteMedian":9757,"workHomeCommuteMedian":11575},"geometry":{"type":"Polygon","coordinates":[[[127.73954660181863,37.8992864072745],[127.73954660181863,37.90827961091175],[127.74853980545588,37.90827961091175],[127.74853980545588,37.8992864072745],[127.73954660181863,37.8992864072745]]]}},{"type":"Feature","properties":{"jobs":1213,"pop":166,"pointCount":1,"homeWorkCommuteMedian":10418,"workHomeCommuteMedian":10502},"geometry":{"type":"Polygon","coordinates":[[[127.73954660181863,37.917272814548994],[127.73954660181863,37.92626601818624],[127.74853980545588,37.92626601818624],[127.74853980545588,37.917272814548994],[127.73954660181863,37.917272814548994]]]}},{"type":"Feature","properties":{"jobs":852,"pop":48,"pointCount":1,"homeWorkCommuteMedian":9117,"workHomeCommuteMedian":10868},"geometry":{"type":"Polygon","coordinates":[[[127.74853980545588,37.827340778176534],[127.74853980545588,37.83633398181378],[127.75753300909312,37.83633398181378],[127.75753300909312,37.827340778176534],[127.74853980545588,37.827340778176534]]]}},{"type":"Feature","properties":{"jobs":1839,"pop":460,"pointCount":1,"homeWorkCommuteMedian":4675,"workHomeCommuteMedian":4895},"geometry":{"type":"Polygon","coordinates":[[[127.74853980545588,37.83633398181378],[127.74853980545588,37.845327185451026],[127.75753300909312,37.845327185451026],[127.75753300909312,37.83633398181378],[127.74853980545588,37.83633398181378]]]}},{"type":"Feature","properties":{"jobs":18988,"pop":10574,"pointCount":4,"homeWorkCommuteMedian":4655,"workHomeCommuteMedian":4691},"geometry":{"type":"Polygon","coordinates":[[[127.74853980545588,37.845327185451026],[127.74853980545588,37.85432038908827],[127.75753300909312,37.85432038908827],[127.75753300909312,37.845327185451026],[127.74853980545588,37.845327185451026]]]}},{"type":"Feature","properties":{"jobs":6882,"pop":3575,"pointCount":4,"homeWorkCommuteMedian":3503,"workHomeCommuteMedian":3239},"geometry":{"type":"Polygon","coordinates":[[[127.74853980545588,37.85432038908827],[127.74853980545588,37.86331359272552],[127.75753300909312,37.86331359272552],[127.75753300909312,37.85432038908827],[127.74853980545588,37.85432038908827]]]}},{"type":"Feature","properties":{"jobs":20915,"pop":12120,"pointCount":4,"homeWorkCommuteMedian":3765,"workHomeCommuteMedian":3955},"geometry":{"type":"Polygon","coordinates":[[[127.74853980545588,37.86331359272552],[127.74853980545588,37.872306796362764],[127.75753300909312,37.872306796362764],[127.75753300909312,37.86331359272552],[127.74853980545588,37.86331359272552]]]}},{"type":"Feature","properties":{"jobs":15554,"pop":9044,"pointCount":4,"homeWorkCommuteMedian":4309,"workHomeCommuteMedian":4491},"geometry":{"type":"Polygon","coordinates":[[[127.74853980545588,37.872306796362764],[127.74853980545588,37.88130000000001],[127.75753300909312,37.88130000000001],[127.75753300909312,37.872306796362764],[127.74853980545588,37.872306796362764]]]}},{"type":"Feature","properties":{"jobs":8396,"pop":6913,"pointCount":4,"homeWorkCommuteMedian":4942,"workHomeCommuteMedian":5010},"geometry":{"type":"Polygon","coordinates":[[[127.74853980545588,37.88130000000001],[127.74853980545588,37.890293203637256],[127.75753300909312,37.890293203637256],[127.75753300909312,37.88130000000001],[127.74853980545588,37.88130000000001]]]}},{"type":"Feature","properties":{"jobs":12314,"pop":7963,"pointCount":3,"homeWorkCommuteMedian":7319,"workHomeCommuteMedian":7638},"geometry":{"type":"Polygon","coordinates":[[[127.75753300909312,37.827340778176534],[127.75753300909312,37.83633398181378],[127.76652621273037,37.83633398181378],[127.76652621273037,37.827340778176534],[127.75753300909312,37.827340778176534]]]}},{"type":"Feature","properties":{"jobs":1843,"pop":482,"pointCount":1,"homeWorkCommuteMedian":5177,"workHomeCommuteMedian":5177},"geometry":{"type":"Polygon","coordinates":[[[127.75753300909312,37.83633398181378],[127.75753300909312,37.845327185451026],[127.76652621273037,37.845327185451026],[127.76652621273037,37.83633398181378],[127.75753300909312,37.83633398181378]]]}},{"type":"Feature","properties":{"jobs":5433,"pop":3136,"pointCount":1,"homeWorkCommuteMedian":4431,"workHomeCommuteMedian":4477},"geometry":{"type":"Polygon","coordinates":[[[127.75753300909312,37.845327185451026],[127.75753300909312,37.85432038908827],[127.76652621273037,37.85432038908827],[127.76652621273037,37.845327185451026],[127.75753300909312,37.845327185451026]]]}},{"type":"Feature","properties":{"jobs":1534,"pop":329,"pointCount":1,"homeWorkCommuteMedian":4125,"workHomeCommuteMedian":4944},"geometry":{"type":"Polygon","coordinates":[[[127.75753300909312,37.85432038908827],[127.75753300909312,37.86331359272552],[127.76652621273037,37.86331359272552],[127.76652621273037,37.85432038908827],[127.75753300909312,37.85432038908827]]]}},{"type":"Feature","properties":{"jobs":5907,"pop":1908,"pointCount":3,"homeWorkCommuteMedian":5090,"workHomeCommuteMedian":5392},"geometry":{"type":"Polygon","coordinates":[[[127.75753300909312,37.872306796362764],[127.75753300909312,37.88130000000001],[127.76652621273037,37.88130000000001],[127.76652621273037,37.872306796362764],[127.75753300909312,37.872306796362764]]]}},{"type":"Feature","properties":{"jobs":814,"pop":46,"pointCount":1,"homeWorkCommuteMedian":10798,"workHomeCommuteMedian":12846},"geometry":{"type":"Polygon","coordinates":[[[127.76652621273037,37.81834757453929],[127.76652621273037,37.827340778176534],[127.77551941636762,37.827340778176534],[127.77551941636762,37.81834757453929],[127.76652621273037,37.81834757453929]]]}},{"type":"Feature","properties":{"jobs":3111,"pop":382,"pointCount":3,"homeWorkCommuteMedian":9117,"workHomeCommuteMedian":10472},"geometry":{"type":"Polygon","coordinates":[[[127.76652621273037,37.827340778176534],[127.76652621273037,37.83633398181378],[127.77551941636762,37.83633398181378],[127.77551941636762,37.827340778176534],[127.76652621273037,37.827340778176534]]]}},{"type":"Feature","properties":{"jobs":2533,"pop":496,"pointCount":2,"homeWorkCommuteMedian":6224,"workHomeCommuteMedian":36491},"geometry":{"type":"Polygon","coordinates":[[[127.76652621273037,37.83633398181378],[127.76652621273037,37.845327185451026],[127.77551941636762,37.845327185451026],[127.77551941636762,37.83633398181378],[127.76652621273037,37.83633398181378]]]}},{"type":"Feature","properties":{"jobs":1680,"pop":445,"pointCount":1,"homeWorkCommuteMedian":5162,"workHomeCommuteMedian":4989},"geometry":{"type":"Polygon","coordinates":[[[127.76652621273037,37.845327185451026],[127.76652621273037,37.85432038908827],[127.77551941636762,37.85432038908827],[127.77551941636762,37.845327185451026],[127.76652621273037,37.845327185451026]]]}},{"type":"Feature","properties":{"jobs":919,"pop":93,"pointCount":1,"homeWorkCommuteMedian":11868,"workHomeCommuteMedian":13242},"geometry":{"type":"Polygon","coordinates":[[[127.77551941636762,37.81834757453929],[127.77551941636762,37.827340778176534],[127.78451262000486,37.827340778176534],[127.78451262000486,37.81834757453929],[127.77551941636762,37.81834757453929]]]}},{"type":"Feature","properties":{"jobs":1234,"pop":692,"pointCount":2,"homeWorkCommuteMedian":8946,"workHomeCommuteMedian":10993},"geometry":{"type":"Polygon","coordinates":[[[127.77551941636762,37.827340778176534],[127.77551941636762,37.83633398181378],[127.78451262000486,37.83633398181378],[127.78451262000486,37.827340778176534],[127.77551941636762,37.827340778176534]]]}},{"type":"Feature","properties":{"jobs":1247,"pop":173,"pointCount":1,"homeWorkCommuteMedian":10324,"workHomeCommuteMedian":8280},"geometry":{"type":"Polygon","coordinates":[[[127.77551941636762,37.83633398181378],[127.77551941636762,37.845327185451026],[127.78451262000486,37.845327185451026],[127.78451262000486,37.83633398181378],[127.77551941636762,37.83633398181378]]]}},{"type":"Feature","properties":{"jobs":3163,"pop":508,"pointCount":3,"homeWorkCommuteMedian":6572,"workHomeCommuteMedian":7165},"geometry":{"type":"Polygon","coordinates":[[[127.77551941636762,37.845327185451026],[127.77551941636762,37.85432038908827],[127.78451262000486,37.85432038908827],[127.78451262000486,37.845327185451026],[127.77551941636762,37.845327185451026]]]}},{"type":"Feature","properties":{"jobs":1917,"pop":611,"pointCount":1,"homeWorkCommuteMedian":6447,"workHomeCommuteMedian":6254},"geometry":{"type":"Polygon","coordinates":[[[127.77551941636762,37.85432038908827],[127.77551941636762,37.86331359272552],[127.78451262000486,37.86331359272552],[127.78451262000486,37.85432038908827],[127.77551941636762,37.85432038908827]]]}},{"type":"Feature","properties":{"jobs":683,"pop":21,"pointCount":1,"homeWorkCommuteMedian":14182,"workHomeCommuteMedian":16137},"geometry":{"type":"Polygon","coordinates":[[[127.77551941636762,37.92626601818624],[127.77551941636762,37.935259221823486],[127.78451262000486,37.935259221823486],[127.78451262000486,37.92626601818624],[127.77551941636762,37.92626601818624]]]}},{"type":"Feature","properties":{"jobs":2297,"pop":369,"pointCount":2,"homeWorkCommuteMedian":10108,"workHomeCommuteMedian":10314},"geometry":{"type":"Polygon","coordinates":[[[127.78451262000486,37.85432038908827],[127.78451262000486,37.86331359272552],[127.7935058236421,37.86331359272552],[127.7935058236421,37.85432038908827],[127.78451262000486,37.85432038908827]]]}},{"type":"Feature","properties":{"jobs":3553,"pop":1993,"pointCount":1,"homeWorkCommuteMedian":12417,"workHomeCommuteMedian":12755},"geometry":{"type":"Polygon","coordinates":[[[127.78451262000486,37.92626601818624],[127.78451262000486,37.935259221823486],[127.7935058236421,37.935259221823486],[127.7935058236421,37.92626601818624],[127.78451262000486,37.92626601818624]]]}},{"type":"Feature","properties":{"jobs":2232,"pop":961,"pointCount":1,"homeWorkCommuteMedian":10080,"workHomeCommuteMedian":9963},"geometry":{"type":"Polygon","coordinates":[[[127.7935058236421,37.890293203637256],[127.7935058236421,37.8992864072745],[127.80249902727935,37.8992864072745],[127.80249902727935,37.890293203637256],[127.7935058236421,37.890293203637256]]]}},{"type":"Feature","properties":{"jobs":2019,"pop":704,"pointCount":1,"homeWorkCommuteMedian":11638,"workHomeCommuteMedian":11708},"geometry":{"type":"Polygon","coordinates":[[[127.7935058236421,37.90827961091175],[127.7935058236421,37.917272814548994],[127.80249902727935,37.917272814548994],[127.80249902727935,37.90827961091175],[127.7935058236421,37.90827961091175]]]}},{"type":"Feature","properties":{"jobs":2338,"pop":1005,"pointCount":1,"homeWorkCommuteMedian":11970,"workHomeCommuteMedian":11904},"geometry":{"type":"Polygon","coordinates":[[[127.80249902727935,37.90827961091175],[127.80249902727935,37.917272814548994],[127.8114922309166,37.917272814548994],[127.8114922309166,37.90827961091175],[127.80249902727935,37.90827961091175]]]}},{"type":"Feature","properties":{"jobs":4783,"pop":1494,"pointCount":3,"homeWorkCommuteMedian":12556,"workHomeCommuteMedian":12498},"geometry":{"type":"Polygon","coordinates":[[[127.80249902727935,37.917272814548994],[127.80249902727935,37.92626601818624],[127.8114922309166,37.92626601818624],[127.8114922309166,37.917272814548994],[127.80249902727935,37.917272814548994]]]}},{"type":"Feature","properties":{"jobs":1488,"pop":1168,"pointCount":1,"homeWorkCommuteMedian":17333,"workHomeCommuteMedian":18696},"geometry":{"type":"Polygon","coordinates":[[[127.82947863819109,37.872306796362764],[127.82947863819109,37.88130000000001],[127.83847184182834,37.88130000000001],[127.83847184182834,37.872306796362764],[127.82947863819109,37.872306796362764]]]}},{"type":"Feature","properties":{"jobs":1169,"pop":185,"pointCount":1,"homeWorkCommuteMedian":33011,"workHomeCommuteMedian":32826},"geometry":{"type":"Polygon","coordinates":[[[127.84746504546558,37.845327185451026],[127.84746504546558,37.85432038908827],[127.85645824910283,37.85432038908827],[127.85645824910283,37.845327185451026],[127.84746504546558,37.845327185451026]]]}},{"type":"Feature","properties":{"jobs":850,"pop":48,"pointCount":1,"homeWorkCommuteMedian":21879,"workHomeCommuteMedian":21858},"geometry":{"type":"Polygon","coordinates":[[[127.84746504546558,37.85432038908827],[127.84746504546558,37.86331359272552],[127.85645824910283,37.86331359272552],[127.85645824910283,37.85432038908827],[127.84746504546558,37.85432038908827]]]}},{"type":"Feature","properties":{"jobs":850,"pop":48,"pointCount":1,"homeWorkCommuteMedian":24769,"workHomeCommuteMedian":23817},"geometry":{"type":"Polygon","coordinates":[[[127.85645824910283,37.845327185451026],[127.85645824910283,37.85432038908827],[127.86545145274007,37.85432038908827],[127.86545145274007,37.845327185451026],[127.85645824910283,37.845327185451026]]]}},{"type":"Feature","properties":{"jobs":1382,"pop":303,"pointCount":1,"homeWorkCommuteMedian":30292,"workHomeCommuteMedian":27835},"geometry":{"type":"Polygon","coordinates":[[[127.86545145274007,37.81834757453929],[127.86545145274007,37.827340778176534],[127.87444465637732,37.827340778176534],[127.87444465637732,37.81834757453929],[127.86545145274007,37.81834757453929]]]}},{"type":"Feature","properties":{"jobs":744,"pop":23,"pointCount":1,"homeWorkCommuteMedian":37688,"workHomeCommuteMedian":38917},"geometry":{"type":"Polygon","coordinates":[[[127.86545145274007,37.827340778176534],[127.86545145274007,37.83633398181378],[127.87444465637732,37.83633398181378],[127.87444465637732,37.827340778176534],[127.86545145274007,37.827340778176534]]]}},{"type":"Feature","properties":{"jobs":850,"pop":48,"pointCount":1,"homeWorkCommuteMedian":42592,"workHomeCommuteMedian":40968},"geometry":{"type":"Polygon","coordinates":[[[127.88343786001457,37.79136796362755],[127.88343786001457,37.800361167264796],[127.89243106365181,37.800361167264796],[127.89243106365181,37.79136796362755],[127.88343786001457,37.79136796362755]]]}},{"type":"Feature","properties":{"jobs":850,"pop":48,"pointCount":1,"homeWorkCommuteMedian":28228,"workHomeCommuteMedian":30895},"geometry":{"type":"Polygon","coordinates":[[[127.88343786001457,37.81834757453929],[127.88343786001457,37.827340778176534],[127.89243106365181,37.827340778176534],[127.89243106365181,37.81834757453929],[127.88343786001457,37.81834757453929]]]}},{"type":"Feature","properties":{"jobs":850,"pop":48,"pointCount":1,"homeWorkCommuteMedian":29076,"workHomeCommuteMedian":30304},"geometry":{"type":"Polygon","coordinates":[[[127.88343786001457,37.827340778176534],[127.88343786001457,37.83633398181378],[127.89243106365181,37.83633398181378],[127.89243106365181,37.827340778176534],[127.88343786001457,37.827340778176534]]]}},{"type":"Feature","properties":{"jobs":2445,"pop":1054,"pointCount":1,"homeWorkCommuteMedian":27155,"workHomeCommuteMedian":28379},"geometry":{"type":"Polygon","coordinates":[[[127.89243106365181,37.80935437090204],[127.89243106365181,37.81834757453929],[127.90142426728906,37.81834757453929],[127.90142426728906,37.80935437090204],[127.89243106365181,37.80935437090204]]]}},{"type":"Feature","properties":{"jobs":1807,"pop":190,"pointCount":2,"homeWorkCommuteMedian":30465,"workHomeCommuteMedian":30629},"geometry":{"type":"Polygon","coordinates":[[[127.90142426728906,37.800361167264796],[127.90142426728906,37.80935437090204],[127.9104174709263,37.80935437090204],[127.9104174709263,37.800361167264796],[127.90142426728906,37.800361167264796]]]}},{"type":"Feature","properties":{"jobs":1063,"pop":167,"pointCount":1,"homeWorkCommuteMedian":36327,"workHomeCommuteMedian":35828},"geometry":{"type":"Polygon","coordinates":[[[127.9104174709263,37.77338155635306],[127.9104174709263,37.782374759990304],[127.91941067456355,37.782374759990304],[127.91941067456355,37.77338155635306],[127.9104174709263,37.77338155635306]]]}},{"type":"Feature","properties":{"jobs":744,"pop":23,"pointCount":1,"homeWorkCommuteMedian":43108,"workHomeCommuteMedian":43117},"geometry":{"type":"Polygon","coordinates":[[[127.9284038782008,37.755395149078566],[127.9284038782008,37.76438835271581],[127.93739708183804,37.76438835271581],[127.93739708183804,37.755395149078566],[127.9284038782008,37.755395149078566]]]}},{"type":"Feature","properties":{"jobs":956,"pop":97,"pointCount":1,"homeWorkCommuteMedian":38480,"workHomeCommuteMedian":40214},"geometry":{"type":"Polygon","coordinates":[[[127.93739708183804,37.755395149078566],[127.93739708183804,37.76438835271581],[127.94639028547529,37.76438835271581],[127.94639028547529,37.755395149078566],[127.93739708183804,37.755395149078566]]]}},{"type":"Feature","properties":{"jobs":850,"pop":48,"pointCount":1,"homeWorkCommuteMedian":56548,"workHomeCommuteMedian":54457},"geometry":{"type":"Polygon","coordinates":[[[127.93739708183804,37.845327185451026],[127.93739708183804,37.85432038908827],[127.94639028547529,37.85432038908827],[127.94639028547529,37.845327185451026],[127.93739708183804,37.845327185451026]]]}}],"properties":{"residentWeightedNearestNeighborKm":{"p10":0.3947972850648655,"p25":0.39494211412376845,"p50":0.39506273801201147,"p75":0.3951109705097312,"p90":0.5003778610509171,"mean":0.455617458027576},"workerWeightedNearestNeighborKm":{"p10":0.39474898922909096,"p25":0.39494211412376845,"p50":0.39506273801201147,"p75":0.39511097051097893,"p90":0.5003778610509171,"mean":0.5098476610237123},"commuteDistanceKm":{"p10":2480,"p25":3565,"p50":5090,"p75":7905,"p90":12628,"mean":7206.06076425141},"residentCellDensity":{"p10":48,"p25":185,"p50":738,"p75":3136,"p90":9044,"mean":2739.546511627907},"workerCellDensity":{"p10":693,"p25":919,"p50":2232,"p75":6882,"p90":15614,"mean":5353.337209302325},"detail":{"radiusKm":0.39506273801201147,"expectedPointSpacingKm":0.7112540705972631,"normalizedRadius":0.5554453103941669,"activityPerPoint":1952.5338485828079,"playableAreaKm2":216,"playableAreaPerPointKm2":1.2705882352941176,"playableCatchmentRadiusKm":0.635956599590675,"localityScore":0.5110050061422836,"deaggregationScore":0.8860654919203818,"score":0.6728921920644051},"polycentrism":{"activity":{"score":0,"continuousScore":0,"detectedCenterCount":1,"effectiveCenterCount":1,"largestCenterShare":1,"bandwidthKm":1.3,"reliabilityScore":1,"supportLevel":"high","usedFallback":false,"topCenters":[{"longitude":127.74354121436889,"latitude":37.865668958909836,"massShare":1,"assignedMass":702504,"assignedPointCount":170,"prominenceRatio":1}],"debug":{"rawPeakCount":13,"mergedPeakCount":12,"filteredPeakCount":1,"prominenceThreshold":0.22,"minPointsPerCenter":10,"rejectedCenters":[{"longitude":127.79504951435354,"latitude":37.92034105331319,"massShare":0.032974901210526916,"assignedMass":23165,"assignedPointCount":9,"prominenceRatio":0.9999999990937498,"strongestCompetitorDistanceKm":8.925390912593953,"strongestCompetitorPotential":221682.36392038263,"localConsolidatedShare":0.032974901210526916,"localConsolidatedMass":23165,"localContributorCount":1,"localContributorDistancesKm":[],"rejectionReasons":["below_min_points_per_center"]},{"longitude":127.8894304172148,"latitude":37.817672289043415,"massShare":0.015148668192636626,"assignedMass":10642,"assignedPointCount":8,"prominenceRatio":1,"strongestCompetitorDistanceKm":14.166524856277894,"strongestCompetitorPotential":221682.36392038263,"localConsolidatedShare":0.015148668192636626,"localConsolidatedMass":10642,"localContributorCount":1,"localContributorDistancesKm":[],"rejectionReasons":["below_min_points_per_center"]},{"longitude":127.94178499546103,"latitude":37.76543736220984,"massShare":0.010976449956156833,"assignedMass":7711,"assignedPointCount":6,"prominenceRatio":1,"strongestCompetitorDistanceKm":21.03722794365409,"strongestCompetitorPotential":221682.36392038263,"localConsolidatedShare":0.010976449956156833,"localConsolidatedMass":7711,"localContributorCount":1,"localContributorDistancesKm":[],"rejectionReasons":["below_min_points_per_center"]},{"longitude":127.85334857142857,"latitude":37.854,"massShare":0.004483960233678385,"assignedMass":3150,"assignedPointCount":3,"prominenceRatio":0.9999999998016952,"strongestCompetitorDistanceKm":9.481180116465111,"strongestCompetitorPotential":221682.36392038263,"localConsolidatedShare":0.004483960233678385,"localConsolidatedMass":3150,"localContributorCount":1,"localContributorDistancesKm":[],"rejectionReasons":["below_min_points_per_center"]},{"longitude":127.83599999999998,"latitude":37.8765,"massShare":0.003780761390682473,"assignedMass":2656,"assignedPointCount":1,"prominenceRatio":0.9999999674722173,"strongestCompetitorDistanceKm":8.534061459420139,"strongestCompetitorPotential":221682.36392038263,"localConsolidatedShare":0.003780761390682473,"localConsolidatedMass":2656,"localContributorCount":1,"localContributorDistancesKm":[],"rejectionReasons":["below_min_points_per_center"]},{"longitude":127.62347373771603,"latitude":37.85924567943071,"massShare":0.004200687825265052,"assignedMass":2951,"assignedPointCount":2,"prominenceRatio":0.9999999999999868,"strongestCompetitorDistanceKm":11.106555216768175,"strongestCompetitorPotential":221682.36392038263,"localConsolidatedShare":0.004200687825265052,"localConsolidatedMass":2951,"localContributorCount":1,"localContributorDistancesKm":[],"rejectionReasons":["below_min_points_per_center"]},{"longitude":127.881,"latitude":37.7101,"massShare":0.0014519490280482388,"assignedMass":1020,"assignedPointCount":1,"prominenceRatio":1,"strongestCompetitorDistanceKm":20.549255621340766,"strongestCompetitorPotential":221682.36392038263,"localConsolidatedShare":0.0014519490280482388,"localConsolidatedMass":1020,"localContributorCount":1,"localContributorDistancesKm":[],"rejectionReasons":["below_min_points_per_center"]},{"longitude":127.9395,"latitude":37.849500000000006,"massShare":0.0012782845364581554,"assignedMass":898,"assignedPointCount":1,"prominenceRatio":1,"strongestCompetitorDistanceKm":17.410948325257003,"strongestCompetitorPotential":221682.36392038263,"localConsolidatedShare":0.0012782845364581554,"localConsolidatedMass":898,"localContributorCount":1,"localContributorDistancesKm":[],"rejectionReasons":["below_min_points_per_center"]},{"longitude":127.53529863481228,"latitude":37.72270136518772,"massShare":0.0012512384271121588,"assignedMass":879,"assignedPointCount":2,"prominenceRatio":1,"strongestCompetitorDistanceKm":23.570560146962965,"strongestCompetitorPotential":221682.36392038263,"localConsolidatedShare":0.0012512384271121588,"localConsolidatedMass":879,"localContributorCount":1,"localContributorDistancesKm":[],"rejectionReasons":["below_min_points_per_center"]},{"longitude":127.521,"latitude":38.0525,"massShare":0.0011886053317845878,"assignedMass":835,"assignedPointCount":1,"prominenceRatio":1,"strongestCompetitorDistanceKm":28.98368195976458,"strongestCompetitorPotential":221682.36392038263,"localConsolidatedShare":0.0011886053317845878,"localConsolidatedMass":835,"localContributorCount":1,"localContributorDistancesKm":[],"rejectionReasons":["below_min_points_per_center"]},{"longitude":127.593,"latitude":37.73250000000001,"massShare":0.00034590550374090395,"assignedMass":243,"assignedPointCount":1,"prominenceRatio":1,"strongestCompetitorDistanceKm":19.137656214527553,"strongestCompetitorPotential":221682.36392038263,"localConsolidatedShare":0.00034590550374090395,"localConsolidatedMass":243,"localContributorCount":1,"localContributorDistancesKm":[],"rejectionReasons":["below_min_points_per_center"]}]}}}}}
